<?xml version="1.0" encoding="UTF-8"?>
<osm version="0.6" generator="JOSM" upload="false">
  <node id="-1890" visible="true" lat="44.12652521" lon="-73.08784501">
    <tag k="addr:city" v="Bristol"/>
    <tag k="addr:housenumber" v="428"/>
    <tag k="addr:street" v="Hewitt Road"/>
    <tag k="addr:state" v="VT"/>
    <tag k="ref:vcgi:esiteid" v="772814"/>
  </node>
  <node id="-1891" visible="true" lat="44.12636546" lon="-73.08863478">
    <tag k="addr:city" v="Bristol"/>
    <tag k="addr:housenumber" v="430"/>
    <tag k="addr:street" v="Hewitt Road"/>
    <tag k="addr:state" v="VT"/>
    <tag k="ref:vcgi:esiteid" v="772815"/>
  </node>
  <node id="-1892" visible="true" lat="44.14701002" lon="-73.08621228">
    <tag k="addr:city" v="Bristol"/>
    <tag k="addr:housenumber" v="17"/>
    <tag k="addr:street" v="Monkton Road"/>
    <tag k="addr:state" v="VT"/>
    <tag k="ref:vcgi:esiteid" v="772816"/>
  </node>
  <node id="-1893" visible="true" lat="44.15502966" lon="-73.0473206">
    <tag k="addr:city" v="Bristol"/>
    <tag k="addr:housenumber" v="1875"/>
    <tag k="addr:street" v="North 116 Road"/>
    <tag k="addr:state" v="VT"/>
    <tag k="ref:vcgi:esiteid" v="772828"/>
  </node>
  <node id="-1894" visible="true" lat="44.16546801" lon="-73.04887703">
    <tag k="addr:city" v="Bristol"/>
    <tag k="addr:housenumber" v="126"/>
    <tag k="addr:street" v="Purinton Road"/>
    <tag k="addr:state" v="VT"/>
    <tag k="ref:vcgi:esiteid" v="772920"/>
  </node>
  <node id="-1895" visible="true" lat="44.1679665" lon="-73.04714952">
    <tag k="addr:city" v="Bristol"/>
    <tag k="addr:housenumber" v="432"/>
    <tag k="addr:street" v="Meehan Road"/>
    <tag k="addr:state" v="VT"/>
    <tag k="ref:vcgi:esiteid" v="772946"/>
  </node>
</osm>
