<?xml version="1.0" encoding="UTF-8"?>
<osm version="0.6" generator="JOSM" upload="false">
  <node id="-941" visible="true" lat="44.68531613" lon="-72.61307826">
    <tag k="addr:housenumber" v="45"/>
    <tag k="addr:street" v="Tree Farm Road"/>
    <tag k="addr:state" v="VT"/>
    <tag k="ref:vcgi:esiteid" v="646538"/>
  </node>
  <node id="-957" visible="true" lat="44.71399789" lon="-72.57499948">
    <tag k="addr:housenumber" v="973"/>
    <tag k="addr:street" v="Knowles Flat Road"/>
    <tag k="addr:state" v="VT"/>
    <tag k="ref:vcgi:esiteid" v="656447"/>
  </node>
  <node id="-1008" visible="true" lat="44.71399933" lon="-72.57501951">
    <tag k="addr:housenumber" v="973"/>
    <tag k="addr:street" v="Knowles Flat Road"/>
    <tag k="addr:state" v="VT"/>
    <tag k="ref:vcgi:esiteid" v="762283"/>
  </node>
  <node id="-1040" visible="true" lat="44.69685878" lon="-72.54733749">
    <tag k="addr:housenumber" v="125"/>
    <tag k="addr:street" v="Bournes Hollow Drive"/>
    <tag k="addr:state" v="VT"/>
    <tag k="ref:vcgi:esiteid" v="772068"/>
  </node>
  <node id="-1041" visible="true" lat="44.69639625" lon="-72.54874903">
    <tag k="addr:housenumber" v="240"/>
    <tag k="addr:street" v="Bournes Hollow Drive"/>
    <tag k="addr:state" v="VT"/>
    <tag k="ref:vcgi:esiteid" v="772069"/>
  </node>
  <node id="-1042" visible="true" lat="44.73891833" lon="-72.56054484">
    <tag k="addr:housenumber" v="2065"/>
    <tag k="addr:street" v="Warren Road"/>
    <tag k="addr:state" v="VT"/>
    <tag k="ref:vcgi:esiteid" v="772604"/>
  </node>
</osm>
