<?xml version="1.0" encoding="UTF-8"?>
<osm version="0.6" generator="JOSM" upload="false">
  <node id="-1298" visible="true" lat="44.86563501" lon="-72.70882003">
    <tag k="addr:housenumber" v="51"/>
    <tag k="addr:street" v="Shadow Lane"/>
    <tag k="addr:state" v="VT"/>
    <tag k="ref:vcgi:esiteid" v="328597"/>
  </node>
  <node id="-1379" visible="true" lat="44.91581124" lon="-72.77718629">
    <tag k="addr:housenumber" v="70"/>
    <tag k="addr:street" v="White Road"/>
    <tag k="addr:state" v="VT"/>
    <tag k="ref:vcgi:esiteid" v="617090"/>
  </node>
  <node id="-1494" visible="true" lat="44.86102444" lon="-72.80488884">
    <tag k="addr:housenumber" v="295"/>
    <tag k="addr:street" v="Saint Pierre Road"/>
    <tag k="addr:state" v="VT"/>
    <tag k="ref:vcgi:esiteid" v="771724"/>
  </node>
  <node id="-1495" visible="true" lat="44.87579391" lon="-72.69852617">
    <tag k="addr:housenumber" v="2110"/>
    <tag k="addr:street" v="Longley Bridge Road"/>
    <tag k="addr:state" v="VT"/>
    <tag k="ref:vcgi:esiteid" v="771764"/>
  </node>
  <node id="-1496" visible="true" lat="44.87847639" lon="-72.69763494">
    <tag k="addr:housenumber" v="2266"/>
    <tag k="addr:street" v="Longley Bridge Road"/>
    <tag k="addr:state" v="VT"/>
    <tag k="ref:vcgi:esiteid" v="771765"/>
  </node>
  <node id="-1497" visible="true" lat="44.87565705" lon="-72.70163611">
    <tag k="addr:housenumber" v="1980"/>
    <tag k="addr:street" v="Longley Bridge Road"/>
    <tag k="addr:state" v="VT"/>
    <tag k="ref:vcgi:esiteid" v="771766"/>
  </node>
  <node id="-1498" visible="true" lat="44.87374944" lon="-72.71353006">
    <tag k="addr:housenumber" v="684"/>
    <tag k="addr:street" v="Daigle Drive"/>
    <tag k="addr:state" v="VT"/>
    <tag k="ref:vcgi:esiteid" v="771767"/>
  </node>
  <node id="-1499" visible="true" lat="44.91574104" lon="-72.78063267">
    <tag k="addr:housenumber" v="924"/>
    <tag k="addr:street" v="Sampsonville Road"/>
    <tag k="addr:state" v="VT"/>
    <tag k="ref:vcgi:esiteid" v="771910"/>
  </node>
  <node id="-1500" visible="true" lat="44.86644823" lon="-72.76642719">
    <tag k="addr:housenumber" v="3499"/>
    <tag k="addr:street" v="Tyler Branch Road"/>
    <tag k="addr:state" v="VT"/>
    <tag k="ref:vcgi:esiteid" v="772148"/>
  </node>
  <node id="-1501" visible="true" lat="44.85714212" lon="-72.74277036">
    <tag k="addr:housenumber" v="240"/>
    <tag k="addr:street" v="Courser Road"/>
    <tag k="addr:state" v="VT"/>
    <tag k="ref:vcgi:esiteid" v="772296"/>
  </node>
  <node id="-1502" visible="true" lat="44.87970636" lon="-72.75169394">
    <tag k="addr:housenumber" v="2785"/>
    <tag k="addr:street" v="Boston Post Road"/>
    <tag k="addr:state" v="VT"/>
    <tag k="ref:vcgi:esiteid" v="772582"/>
  </node>
</osm>
