<?xml version="1.0" encoding="UTF-8"?>
<osm version="0.6" generator="JOSM" upload="false">
  <node id="-504" visible="true" lat="44.49752003" lon="-73.11558198">
    <tag k="addr:city" v="Essex Junction"/>
    <tag k="addr:housenumber" v="4"/>
    <tag k="addr:street" v="Saint James Place"/>
    <tag k="addr:state" v="VT"/>
    <tag k="ref:vcgi:esiteid" v="97209"/>
  </node>
  <node id="-2060" visible="true" lat="44.4880826" lon="-73.1394126">
    <tag k="addr:city" v="Essex Junction"/>
    <tag k="addr:housenumber" v="316"/>
    <tag k="addr:street" v="South Street"/>
    <tag k="addr:state" v="VT"/>
    <tag k="ref:vcgi:esiteid" v="99258"/>
  </node>
  <node id="-3493" visible="true" lat="44.50194683" lon="-73.10817387">
    <tag k="addr:city" v="Essex Junction"/>
    <tag k="addr:housenumber" v="169"/>
    <tag k="addr:street" v="Autumn Pond Way"/>
    <tag k="addr:state" v="VT"/>
    <tag k="ref:vcgi:esiteid" v="769466"/>
  </node>
  <node id="-3494" visible="true" lat="44.49637268" lon="-73.11314833">
    <tag k="addr:city" v="Essex Junction"/>
    <tag k="addr:housenumber" v="64"/>
    <tag k="addr:street" v="Lincoln Street"/>
    <tag k="addr:state" v="VT"/>
    <tag k="ref:vcgi:esiteid" v="771199"/>
  </node>
  <node id="-3497" visible="true" lat="44.49447933" lon="-73.11210927">
    <tag k="addr:city" v="Essex Junction"/>
    <tag k="addr:housenumber" v="44B"/>
    <tag k="addr:street" v="Lincoln Street"/>
    <tag k="addr:state" v="VT"/>
    <tag k="ref:vcgi:esiteid" v="771216"/>
  </node>
  <node id="-3498" visible="true" lat="44.4943043" lon="-73.11208069">
    <tag k="addr:city" v="Essex Junction"/>
    <tag k="addr:housenumber" v="42B"/>
    <tag k="addr:street" v="Lincoln Street"/>
    <tag k="addr:state" v="VT"/>
    <tag k="ref:vcgi:esiteid" v="771217"/>
  </node>
</osm>
