<?xml version="1.0" encoding="UTF-8"?>
<osm version="0.6" generator="JOSM" upload="false">
  <node id="-2163" visible="true" lat="44.68317875" lon="-72.95949087">
    <tag k="addr:housenumber" v="20"/>
    <tag k="addr:street" v="Coolum Road"/>
    <tag k="addr:state" v="VT"/>
    <tag k="ref:vcgi:esiteid" v="617889"/>
  </node>
  <node id="-2182" visible="true" lat="44.74222867" lon="-73.06970812">
    <tag k="addr:housenumber" v="38"/>
    <tag k="addr:street" v="Wiggins Road"/>
    <tag k="addr:state" v="VT"/>
    <tag k="ref:vcgi:esiteid" v="620653"/>
  </node>
  <node id="-2188" visible="true" lat="44.71862117" lon="-73.01842453">
    <tag k="addr:housenumber" v="218"/>
    <tag k="addr:street" v="Rood Mill Road"/>
    <tag k="addr:state" v="VT"/>
    <tag k="ref:vcgi:esiteid" v="646516"/>
  </node>
  <node id="-2332" visible="true" lat="44.75151891" lon="-73.0122198">
    <tag k="addr:housenumber" v="312"/>
    <tag k="addr:street" v="Carroll Hill Road"/>
    <tag k="addr:state" v="VT"/>
    <tag k="ref:vcgi:esiteid" v="771207"/>
  </node>
  <node id="-2333" visible="true" lat="44.75985935" lon="-73.0510679">
    <tag k="addr:housenumber" v="39"/>
    <tag k="addr:street" v="Highland Road"/>
    <tag k="addr:state" v="VT"/>
    <tag k="ref:vcgi:esiteid" v="771285"/>
  </node>
  <node id="-2336" visible="true" lat="44.67379111" lon="-72.96530503">
    <tag k="addr:housenumber" v="502"/>
    <tag k="addr:street" v="Fletcher Road"/>
    <tag k="addr:state" v="VT"/>
    <tag k="ref:vcgi:esiteid" v="771491"/>
  </node>
  <node id="-2337" visible="true" lat="44.66989415" lon="-72.94215992">
    <tag k="addr:housenumber" v="765"/>
    <tag k="addr:street" v="Fletcher Road"/>
    <tag k="addr:state" v="VT"/>
    <tag k="ref:vcgi:esiteid" v="771492"/>
  </node>
  <node id="-2338" visible="true" lat="44.72326335" lon="-72.98011658">
    <tag k="addr:housenumber" v="40"/>
    <tag k="addr:street" v="Rose Road"/>
    <tag k="addr:state" v="VT"/>
    <tag k="ref:vcgi:esiteid" v="772666"/>
  </node>
</osm>
