<?xml version="1.0" encoding="UTF-8"?>
<osm version="0.6" generator="JOSM" upload="false">
  <node id="-1093" visible="true" lat="44.22837298" lon="-72.80010129">
    <tag k="addr:housenumber" v="632"/>
    <tag k="addr:street" v="Airport Road"/>
    <tag k="addr:state" v="VT"/>
    <tag k="ref:vcgi:esiteid" v="646552"/>
  </node>
  <node id="-1109" visible="true" lat="44.17117686" lon="-72.89750485">
    <tag k="addr:housenumber" v="511"/>
    <tag k="addr:street" v="Village Road"/>
    <tag k="addr:state" v="VT"/>
    <tag k="ref:vcgi:esiteid" v="656454"/>
  </node>
  <node id="-1110" visible="true" lat="44.21550664" lon="-72.83092522">
    <tag k="addr:housenumber" v="1619"/>
    <tag k="addr:street" v="Center Fayston Road"/>
    <tag k="addr:state" v="VT"/>
    <tag k="ref:vcgi:esiteid" v="656455"/>
  </node>
  <node id="-1192" visible="true" lat="44.18702618" lon="-72.88801349">
    <tag k="addr:housenumber" v="476"/>
    <tag k="addr:street" v="Hiddenwood Road"/>
    <tag k="addr:state" v="VT"/>
    <tag k="ref:vcgi:esiteid" v="771417"/>
  </node>
  <node id="-1193" visible="true" lat="44.18727597" lon="-72.8881533">
    <tag k="addr:housenumber" v="478"/>
    <tag k="addr:street" v="Hiddenwood Road"/>
    <tag k="addr:state" v="VT"/>
    <tag k="ref:vcgi:esiteid" v="771418"/>
  </node>
  <node id="-1194" visible="true" lat="44.2254126" lon="-72.81092962">
    <tag k="addr:housenumber" v="271"/>
    <tag k="addr:street" v="Carey Road"/>
    <tag k="addr:state" v="VT"/>
    <tag k="ref:vcgi:esiteid" v="772331"/>
  </node>
  <node id="-1195" visible="true" lat="44.19989951" lon="-72.86295514">
    <tag k="addr:housenumber" v="31"/>
    <tag k="addr:street" v="Stagecoach Road"/>
    <tag k="addr:state" v="VT"/>
    <tag k="ref:vcgi:esiteid" v="772380"/>
  </node>
  <node id="-1196" visible="true" lat="44.24752117" lon="-72.8369749">
    <tag k="addr:housenumber" v="402"/>
    <tag k="addr:street" v="Dunbar Hill Road"/>
    <tag k="addr:state" v="VT"/>
    <tag k="ref:vcgi:esiteid" v="772636"/>
  </node>
  <node id="-1197" visible="true" lat="44.21426847" lon="-72.84017579">
    <tag k="addr:housenumber" v="1989"/>
    <tag k="addr:street" v="Center Fayston Road"/>
    <tag k="addr:state" v="VT"/>
    <tag k="ref:vcgi:esiteid" v="772637"/>
  </node>
</osm>
