<?xml version="1.0" encoding="UTF-8"?>
<osm version="0.6" generator="JOSM" upload="false">
  <node id="-990" visible="true" lat="42.7309932" lon="-72.60360378">
    <tag k="addr:city" v="Guilford"/>
    <tag k="addr:housenumber" v="880"/>
    <tag k="addr:street" v="Marynuk Road"/>
    <tag k="addr:state" v="VT"/>
    <tag k="ref:vcgi:esiteid" v="117694"/>
  </node>
  <node id="-1797" visible="true" lat="42.73401297" lon="-72.57220183">
    <tag k="addr:city" v="Guilford"/>
    <tag k="addr:housenumber" v="6706"/>
    <tag k="addr:street" v="Coolidge Highway"/>
    <tag k="addr:state" v="VT"/>
    <tag k="ref:vcgi:esiteid" v="656453"/>
  </node>
  <node id="-1798" visible="true" lat="42.7735298" lon="-72.67713449">
    <tag k="addr:city" v="Guilford"/>
    <tag k="addr:housenumber" v="3082"/>
    <tag k="addr:street" v="Stage Road"/>
    <tag k="addr:state" v="VT"/>
    <tag k="ref:vcgi:esiteid" v="656456"/>
  </node>
  <node id="-1799" visible="true" lat="42.81817771" lon="-72.66000757">
    <tag k="addr:city" v="Guilford"/>
    <tag k="addr:housenumber" v="47"/>
    <tag k="addr:street" v="Briggs Road"/>
    <tag k="addr:state" v="VT"/>
    <tag k="ref:vcgi:esiteid" v="656457"/>
  </node>
  <node id="-1883" visible="true" lat="42.77928029" lon="-72.59906429">
    <tag k="addr:city" v="Guilford"/>
    <tag k="addr:housenumber" v="170"/>
    <tag k="addr:street" v="Yeaw Road"/>
    <tag k="addr:state" v="VT"/>
    <tag k="ref:vcgi:esiteid" v="772554"/>
  </node>
</osm>
