<?xml version="1.0" encoding="UTF-8"?>
<osm version="0.6" generator="JOSM" upload="false">
  <node id="-4150" visible="true" lat="43.65744617" lon="-72.44295105">
    <tag k="addr:housenumber" v="103"/>
    <tag k="addr:street" v="Skiway Drive"/>
    <tag k="addr:state" v="VT"/>
    <tag k="ref:vcgi:esiteid" v="124482"/>
  </node>
  <node id="-4785" visible="true" lat="43.65577301" lon="-72.31868289">
    <tag k="addr:housenumber" v="187"/>
    <tag k="addr:street" v="Highland Avenue"/>
    <tag k="addr:state" v="VT"/>
    <tag k="ref:vcgi:esiteid" v="333137"/>
  </node>
  <node id="-4919" visible="true" lat="43.65345347" lon="-72.42262974">
    <tag k="addr:housenumber" v="72"/>
    <tag k="addr:street" v="Sugarhill Lane"/>
    <tag k="addr:state" v="VT"/>
    <tag k="ref:vcgi:esiteid" v="365682"/>
  </node>
  <node id="-4995" visible="true" lat="43.66680267" lon="-72.32116343">
    <tag k="addr:housenumber" v="561"/>
    <tag k="addr:street" v="Sterling Springs Drive"/>
    <tag k="addr:state" v="VT"/>
    <tag k="ref:vcgi:esiteid" v="646439"/>
  </node>
  <node id="-4996" visible="true" lat="43.66190407" lon="-72.36133702">
    <tag k="addr:housenumber" v="1782"/>
    <tag k="addr:street" v="Woodstock Road"/>
    <tag k="addr:state" v="VT"/>
    <tag k="ref:vcgi:esiteid" v="646460"/>
  </node>
  <node id="-4997" visible="true" lat="43.67235605" lon="-72.44812904">
    <tag k="addr:housenumber" v="330"/>
    <tag k="addr:street" v="Cushing Road"/>
    <tag k="addr:state" v="VT"/>
    <tag k="ref:vcgi:esiteid" v="646465"/>
  </node>
  <node id="-4998" visible="true" lat="43.63808253" lon="-72.43977673">
    <tag k="addr:housenumber" v="289"/>
    <tag k="addr:street" v="Taft Family Road"/>
    <tag k="addr:state" v="VT"/>
    <tag k="ref:vcgi:esiteid" v="646479"/>
  </node>
  <node id="-4999" visible="true" lat="43.67435822" lon="-72.42019519">
    <tag k="addr:housenumber" v="399"/>
    <tag k="addr:street" v="Bentley Road"/>
    <tag k="addr:state" v="VT"/>
    <tag k="ref:vcgi:esiteid" v="646480"/>
  </node>
  <node id="-5000" visible="true" lat="43.67547497" lon="-72.41975218">
    <tag k="addr:housenumber" v="470"/>
    <tag k="addr:street" v="Bentley Road"/>
    <tag k="addr:state" v="VT"/>
    <tag k="ref:vcgi:esiteid" v="646481"/>
  </node>
  <node id="-5001" visible="true" lat="43.67133553" lon="-72.3725895">
    <tag k="addr:housenumber" v="1295"/>
    <tag k="addr:street" v="Cope Lane"/>
    <tag k="addr:state" v="VT"/>
    <tag k="ref:vcgi:esiteid" v="646580"/>
  </node>
  <node id="-5002" visible="true" lat="43.67815105" lon="-72.30527573">
    <tag k="addr:housenumber" v="407"/>
    <tag k="addr:street" v="Passumpsic Avenue"/>
    <tag k="addr:state" v="VT"/>
    <tag k="ref:vcgi:esiteid" v="646611"/>
  </node>
  <node id="-5003" visible="true" lat="43.70000663" lon="-72.35552995">
    <tag k="addr:housenumber" v="2065"/>
    <tag k="addr:street" v="Jericho Street"/>
    <tag k="addr:state" v="VT"/>
    <tag k="ref:vcgi:esiteid" v="646671"/>
  </node>
  <node id="-5004" visible="true" lat="43.64820932" lon="-72.320021">
    <tag k="addr:housenumber" v="103"/>
    <tag k="addr:street" v="Gates Street"/>
    <tag k="addr:state" v="VT"/>
    <tag k="ref:vcgi:esiteid" v="646673"/>
  </node>
  <node id="-5005" visible="true" lat="43.70705334" lon="-72.37052275">
    <tag k="addr:housenumber" v="140"/>
    <tag k="addr:street" v="Sugartop Road"/>
    <tag k="addr:state" v="VT"/>
    <tag k="ref:vcgi:esiteid" v="646674"/>
  </node>
  <node id="-5019" visible="true" lat="43.65537201" lon="-72.44307483">
    <tag k="addr:housenumber" v="3425"/>
    <tag k="addr:street" v="Quechee Main Street"/>
    <tag k="addr:state" v="VT"/>
    <tag k="ref:vcgi:esiteid" v="656179"/>
  </node>
  <node id="-5167" visible="true" lat="43.65746164" lon="-72.4425">
    <tag k="addr:housenumber" v="63"/>
    <tag k="addr:street" v="Skiway Drive"/>
    <tag k="addr:state" v="VT"/>
    <tag k="ref:vcgi:esiteid" v="772572"/>
  </node>
  <node id="-5168" visible="true" lat="43.6186819" lon="-72.35719019">
    <tag k="addr:housenumber" v="151"/>
    <tag k="addr:street" v="Rustic Road"/>
    <tag k="addr:state" v="VT"/>
    <tag k="ref:vcgi:esiteid" v="772661"/>
  </node>
</osm>
