<?xml version="1.0" encoding="UTF-8"?>
<osm version="0.6" generator="JOSM" upload="false">
  <node id="-1205" visible="true" lat="44.23502588" lon="-72.95129849">
    <tag k="addr:city" v="Huntington"/>
    <tag k="addr:housenumber" v="960"/>
    <tag k="addr:street" v="Weaver Road"/>
    <tag k="addr:state" v="VT"/>
    <tag k="ref:vcgi:esiteid" v="646583"/>
  </node>
  <node id="-1206" visible="true" lat="44.23684257" lon="-72.95164524">
    <tag k="addr:city" v="Huntington"/>
    <tag k="addr:housenumber" v="856"/>
    <tag k="addr:street" v="Weaver Road"/>
    <tag k="addr:state" v="VT"/>
    <tag k="ref:vcgi:esiteid" v="646584"/>
  </node>
  <node id="-1207" visible="true" lat="44.28864187" lon="-72.95433312">
    <tag k="addr:city" v="Huntington"/>
    <tag k="addr:housenumber" v="565"/>
    <tag k="addr:street" v="Trapp Road"/>
    <tag k="addr:state" v="VT"/>
    <tag k="ref:vcgi:esiteid" v="646585"/>
  </node>
  <node id="-1258" visible="true" lat="44.35610025" lon="-73.02124461">
    <tag k="addr:city" v="Huntington"/>
    <tag k="addr:housenumber" v="1692"/>
    <tag k="addr:street" v="Sherman Hollow Road"/>
    <tag k="addr:state" v="VT"/>
    <tag k="ref:vcgi:esiteid" v="772176"/>
  </node>
  <node id="-1259" visible="true" lat="44.32300381" lon="-72.98967915">
    <tag k="addr:city" v="Huntington"/>
    <tag k="addr:housenumber" v="102"/>
    <tag k="addr:street" v="Village Hill Lane"/>
    <tag k="addr:state" v="VT"/>
    <tag k="ref:vcgi:esiteid" v="772657"/>
  </node>
  <node id="-1260" visible="true" lat="44.32298137" lon="-72.99014811">
    <tag k="addr:city" v="Huntington"/>
    <tag k="addr:housenumber" v="118"/>
    <tag k="addr:street" v="Village Hill Lane"/>
    <tag k="addr:state" v="VT"/>
    <tag k="ref:vcgi:esiteid" v="772658"/>
  </node>
  <node id="-1261" visible="true" lat="44.33593897" lon="-72.98194784">
    <tag k="addr:city" v="Huntington"/>
    <tag k="addr:housenumber" v="194"/>
    <tag k="addr:street" v="Pond Road"/>
    <tag k="addr:state" v="VT"/>
    <tag k="ref:vcgi:esiteid" v="772683"/>
  </node>
</osm>
