<?xml version="1.0" encoding="UTF-8"?>
<osm version="0.6" generator="JOSM" upload="false">
  <node id="-166" visible="true" lat="43.14700919" lon="-72.8090628">
    <tag k="addr:housenumber" v="673"/>
    <tag k="addr:street" v="Rose Lane"/>
    <tag k="addr:state" v="VT"/>
    <tag k="ref:vcgi:esiteid" v="134558"/>
  </node>
  <node id="-1307" visible="true" lat="43.06306355" lon="-72.7666332">
    <tag k="addr:housenumber" v="100"/>
    <tag k="addr:street" v="Open Sky Way"/>
    <tag k="addr:state" v="VT"/>
    <tag k="ref:vcgi:esiteid" v="616516"/>
  </node>
  <node id="-1728" visible="true" lat="43.09201126" lon="-72.78125178">
    <tag k="addr:housenumber" v="3337"/>
    <tag k="addr:street" v="South Hill Road"/>
    <tag k="addr:state" v="VT"/>
    <tag k="ref:vcgi:esiteid" v="771267"/>
  </node>
  <node id="-1729" visible="true" lat="43.10210114" lon="-72.78134786">
    <tag k="addr:housenumber" v="124"/>
    <tag k="addr:street" v="Andrus Way"/>
    <tag k="addr:state" v="VT"/>
    <tag k="ref:vcgi:esiteid" v="772495"/>
  </node>
  <node id="-1730" visible="true" lat="43.1020508" lon="-72.78178658">
    <tag k="addr:housenumber" v="119"/>
    <tag k="addr:street" v="Andrus Way"/>
    <tag k="addr:state" v="VT"/>
    <tag k="ref:vcgi:esiteid" v="772496"/>
  </node>
  <node id="-1731" visible="true" lat="43.10138951" lon="-72.7822927">
    <tag k="addr:housenumber" v="71"/>
    <tag k="addr:street" v="Andrus Way"/>
    <tag k="addr:state" v="VT"/>
    <tag k="ref:vcgi:esiteid" v="772497"/>
  </node>
  <node id="-1732" visible="true" lat="43.10093984" lon="-72.78166316">
    <tag k="addr:housenumber" v="30"/>
    <tag k="addr:street" v="Andrus Way"/>
    <tag k="addr:state" v="VT"/>
    <tag k="ref:vcgi:esiteid" v="772498"/>
  </node>
  <node id="-1733" visible="true" lat="43.12520259" lon="-72.71026604">
    <tag k="addr:housenumber" v="3042"/>
    <tag k="addr:street" v="Windham Hill Road"/>
    <tag k="addr:state" v="VT"/>
    <tag k="ref:vcgi:esiteid" v="772578"/>
  </node>
  <node id="-1734" visible="true" lat="43.09493077" lon="-72.77123289">
    <tag k="addr:housenumber" v="3117"/>
    <tag k="addr:street" v="Vermont Route 30"/>
    <tag k="addr:state" v="VT"/>
    <tag k="ref:vcgi:esiteid" v="772603"/>
  </node>
</osm>
