<?xml version="1.0" encoding="UTF-8"?>
<osm version="0.6" generator="JOSM" upload="false">
  <node id="-642" visible="true" lat="44.12697272" lon="-72.92779986">
    <tag k="addr:city" v="Lincoln"/>
    <tag k="addr:housenumber" v="2655"/>
    <tag k="addr:street" v="Lincoln Peak Work Road"/>
    <tag k="addr:state" v="VT"/>
    <tag k="ref:vcgi:esiteid" v="272455"/>
  </node>
  <node id="-815" visible="true" lat="44.14729035" lon="-72.98479524">
    <tag k="addr:city" v="Lincoln"/>
    <tag k="addr:housenumber" v="885"/>
    <tag k="addr:street" v="Moody Road"/>
    <tag k="addr:state" v="VT"/>
    <tag k="ref:vcgi:esiteid" v="656356"/>
  </node>
  <node id="-816" visible="true" lat="44.14741451" lon="-72.98359247">
    <tag k="addr:city" v="Lincoln"/>
    <tag k="addr:housenumber" v="886"/>
    <tag k="addr:street" v="Moody Road"/>
    <tag k="addr:state" v="VT"/>
    <tag k="ref:vcgi:esiteid" v="656357"/>
  </node>
  <node id="-854" visible="true" lat="44.1266951" lon="-72.92715986">
    <tag k="addr:city" v="Lincoln"/>
    <tag k="addr:housenumber" v="2615"/>
    <tag k="addr:street" v="Lincoln Peak Work Road"/>
    <tag k="addr:state" v="VT"/>
    <tag k="ref:vcgi:esiteid" v="762658"/>
  </node>
  <node id="-874" visible="true" lat="44.11084916" lon="-73.01484871">
    <tag k="addr:city" v="Lincoln"/>
    <tag k="addr:housenumber" v="646"/>
    <tag k="addr:street" v="York Hill Road"/>
    <tag k="addr:state" v="VT"/>
    <tag k="ref:vcgi:esiteid" v="768293"/>
  </node>
  <node id="-886" visible="true" lat="44.05480095" lon="-72.98356467">
    <tag k="addr:city" v="Lincoln"/>
    <tag k="addr:housenumber" v="1280"/>
    <tag k="addr:street" v="Cobb Hill Road"/>
    <tag k="addr:state" v="VT"/>
    <tag k="ref:vcgi:esiteid" v="771732"/>
  </node>
  <node id="-887" visible="true" lat="44.12796829" lon="-72.928065">
    <tag k="addr:city" v="Lincoln"/>
    <tag k="addr:housenumber" v="2600"/>
    <tag k="addr:street" v="Lincoln Peak Work Road"/>
    <tag k="addr:state" v="VT"/>
    <tag k="ref:vcgi:esiteid" v="772090"/>
  </node>
  <node id="-888" visible="true" lat="44.09789748" lon="-72.98917272">
    <tag k="addr:city" v="Lincoln"/>
    <tag k="addr:housenumber" v="141"/>
    <tag k="addr:street" v="Cold Spring Road"/>
    <tag k="addr:state" v="VT"/>
    <tag k="ref:vcgi:esiteid" v="772405"/>
  </node>
  <node id="-889" visible="true" lat="44.08841704" lon="-72.99516999">
    <tag k="addr:city" v="Lincoln"/>
    <tag k="addr:housenumber" v="633"/>
    <tag k="addr:street" v="West Hill Road"/>
    <tag k="addr:state" v="VT"/>
    <tag k="ref:vcgi:esiteid" v="772562"/>
  </node>
  <node id="-890" visible="true" lat="44.08825011" lon="-72.9956211">
    <tag k="addr:city" v="Lincoln"/>
    <tag k="addr:housenumber" v="670"/>
    <tag k="addr:street" v="West Hill Road"/>
    <tag k="addr:state" v="VT"/>
    <tag k="ref:vcgi:esiteid" v="772563"/>
  </node>
  <node id="-891" visible="true" lat="44.14165891" lon="-72.97133101">
    <tag k="addr:city" v="Lincoln"/>
    <tag k="addr:housenumber" v="133"/>
    <tag k="addr:street" v="Wolf Lane"/>
    <tag k="addr:state" v="VT"/>
    <tag k="ref:vcgi:esiteid" v="800178"/>
  </node>
</osm>
