<?xml version="1.0" encoding="UTF-8"?>
<osm version="0.6" generator="JOSM" upload="false">
  <node id="-435" visible="true" lat="43.41710063" lon="-72.67008181">
    <tag k="addr:city" v="Ludlow"/>
    <tag k="addr:housenumber" v="1051"/>
    <tag k="addr:street" v="Bixby Road"/>
    <tag k="addr:state" v="VT"/>
    <tag k="ref:vcgi:esiteid" v="142917"/>
  </node>
  <node id="-2732" visible="true" lat="43.39952689" lon="-72.70382393">
    <tag k="addr:city" v="Ludlow"/>
    <tag k="addr:housenumber" v="25"/>
    <tag k="addr:street" v="Prospect Street"/>
    <tag k="addr:state" v="VT"/>
    <tag k="ref:vcgi:esiteid" v="646488"/>
  </node>
  <node id="-2837" visible="true" lat="43.39034309" lon="-72.7331227">
    <tag k="addr:city" v="Ludlow"/>
    <tag k="addr:housenumber" v="29"/>
    <tag k="addr:street" v="Aurora Ridge Lane"/>
    <tag k="addr:state" v="VT"/>
    <tag k="ref:vcgi:esiteid" v="765216"/>
  </node>
  <node id="-2936" visible="true" lat="43.41687051" lon="-72.66829197">
    <tag k="addr:city" v="Ludlow"/>
    <tag k="addr:housenumber" v="1014"/>
    <tag k="addr:street" v="Bixby Road"/>
    <tag k="addr:state" v="VT"/>
    <tag k="ref:vcgi:esiteid" v="770275"/>
  </node>
  <node id="-2948" visible="true" lat="43.39029274" lon="-72.73311976">
    <tag k="addr:city" v="Ludlow"/>
    <tag k="addr:housenumber" v="19"/>
    <tag k="addr:street" v="Aurora Ridge Lane"/>
    <tag k="addr:state" v="VT"/>
    <tag k="ref:vcgi:esiteid" v="771135"/>
  </node>
  <node id="-2949" visible="true" lat="43.35823832" lon="-72.69613363">
    <tag k="addr:city" v="Ludlow"/>
    <tag k="addr:housenumber" v="1345"/>
    <tag k="addr:street" v="South Hill Road"/>
    <tag k="addr:state" v="VT"/>
    <tag k="ref:vcgi:esiteid" v="771286"/>
  </node>
  <node id="-2950" visible="true" lat="43.38965457" lon="-72.70490252">
    <tag k="addr:city" v="Ludlow"/>
    <tag k="addr:housenumber" v="106"/>
    <tag k="addr:street" v="Partridge Road"/>
    <tag k="addr:state" v="VT"/>
    <tag k="ref:vcgi:esiteid" v="771315"/>
  </node>
  <node id="-2951" visible="true" lat="43.39834121" lon="-72.67799748">
    <tag k="addr:city" v="Ludlow"/>
    <tag k="addr:housenumber" v="52"/>
    <tag k="addr:street" v="Lathrop Loop"/>
    <tag k="addr:state" v="VT"/>
    <tag k="ref:vcgi:esiteid" v="771321"/>
  </node>
  <node id="-2952" visible="true" lat="43.41782505" lon="-72.70743938">
    <tag k="addr:city" v="Ludlow"/>
    <tag k="addr:housenumber" v="15"/>
    <tag k="addr:street" v="Mega Watt Lane"/>
    <tag k="addr:state" v="VT"/>
    <tag k="ref:vcgi:esiteid" v="771562"/>
  </node>
  <node id="-2953" visible="true" lat="43.39747051" lon="-72.67817847">
    <tag k="addr:city" v="Ludlow"/>
    <tag k="addr:housenumber" v="32"/>
    <tag k="addr:street" v="Lathrop Loop"/>
    <tag k="addr:state" v="VT"/>
    <tag k="ref:vcgi:esiteid" v="771563"/>
  </node>
  <node id="-2954" visible="true" lat="43.3758105" lon="-72.69032703">
    <tag k="addr:city" v="Ludlow"/>
    <tag k="addr:housenumber" v="65"/>
    <tag k="addr:street" v="Southern Pines Lane"/>
    <tag k="addr:state" v="VT"/>
    <tag k="ref:vcgi:esiteid" v="771588"/>
  </node>
  <node id="-2955" visible="true" lat="43.45232549" lon="-72.7079671">
    <tag k="addr:city" v="Ludlow"/>
    <tag k="addr:housenumber" v="63"/>
    <tag k="addr:street" v="Sumner Road"/>
    <tag k="addr:state" v="VT"/>
    <tag k="ref:vcgi:esiteid" v="771591"/>
  </node>
  <node id="-2956" visible="true" lat="43.34775189" lon="-72.71134824">
    <tag k="addr:city" v="Ludlow"/>
    <tag k="addr:housenumber" v="1454"/>
    <tag k="addr:street" v="Town Farm Road"/>
    <tag k="addr:state" v="VT"/>
    <tag k="ref:vcgi:esiteid" v="771592"/>
  </node>
  <node id="-2957" visible="true" lat="43.41737987" lon="-72.68177422">
    <tag k="addr:city" v="Ludlow"/>
    <tag k="addr:housenumber" v="145"/>
    <tag k="addr:street" v="Preedom Hill Road North"/>
    <tag k="addr:state" v="VT"/>
    <tag k="ref:vcgi:esiteid" v="771731"/>
  </node>
  <node id="-2958" visible="true" lat="43.41776887" lon="-72.7217074">
    <tag k="addr:city" v="Ludlow"/>
    <tag k="addr:housenumber" v="1004"/>
    <tag k="addr:street" v="Okemo Ridge Road"/>
    <tag k="addr:state" v="VT"/>
    <tag k="ref:vcgi:esiteid" v="771808"/>
  </node>
  <node id="-2959" visible="true" lat="43.4491503" lon="-72.68505837">
    <tag k="addr:city" v="Ludlow"/>
    <tag k="addr:housenumber" v="19"/>
    <tag k="addr:street" v="Strawberry Lane"/>
    <tag k="addr:state" v="VT"/>
    <tag k="ref:vcgi:esiteid" v="772589"/>
  </node>
  <node id="-2960" visible="true" lat="43.42541149" lon="-72.70053649">
    <tag k="addr:city" v="Ludlow"/>
    <tag k="addr:housenumber" v="264"/>
    <tag k="addr:street" v="Vermont Route 100 North"/>
    <tag k="addr:state" v="VT"/>
    <tag k="ref:vcgi:esiteid" v="772681"/>
  </node>
  <node id="-2961" visible="true" lat="43.35292909" lon="-72.69292372">
    <tag k="addr:city" v="Ludlow"/>
    <tag k="addr:housenumber" v="106"/>
    <tag k="addr:street" v="Flatow Road"/>
    <tag k="addr:state" v="VT"/>
    <tag k="ref:vcgi:esiteid" v="772701"/>
  </node>
  <node id="-2962" visible="true" lat="43.35779731" lon="-72.72722791">
    <tag k="addr:city" v="Ludlow"/>
    <tag k="addr:housenumber" v="101"/>
    <tag k="addr:street" v="Trailview Road"/>
    <tag k="addr:state" v="VT"/>
    <tag k="ref:vcgi:esiteid" v="772708"/>
  </node>
</osm>
