<?xml version="1.0" encoding="UTF-8"?>
<osm version="0.6" generator="JOSM" upload="false">
  <node id="-316" visible="true" lat="42.87786782" lon="-72.76296964">
    <tag k="addr:housenumber" v="15"/>
    <tag k="addr:street" v="Stearns Hill Road"/>
    <tag k="addr:state" v="VT"/>
    <tag k="ref:vcgi:esiteid" v="152173"/>
  </node>
  <node id="-685" visible="true" lat="42.87995203" lon="-72.8000095">
    <tag k="addr:housenumber" v="27"/>
    <tag k="addr:street" v="Old Stage Road Extension"/>
    <tag k="addr:state" v="VT"/>
    <tag k="ref:vcgi:esiteid" v="610990"/>
  </node>
  <node id="-776" visible="true" lat="42.8495765" lon="-72.68971289">
    <tag k="addr:housenumber" v="444"/>
    <tag k="addr:street" v="Upper Houghton Road"/>
    <tag k="addr:state" v="VT"/>
    <tag k="ref:vcgi:esiteid" v="646612"/>
  </node>
  <node id="-777" visible="true" lat="42.86724763" lon="-72.68970538">
    <tag k="addr:housenumber" v="55"/>
    <tag k="addr:street" v="Woods Road"/>
    <tag k="addr:state" v="VT"/>
    <tag k="ref:vcgi:esiteid" v="646702"/>
  </node>
  <node id="-787" visible="true" lat="42.85916574" lon="-72.75920453">
    <tag k="addr:housenumber" v="251"/>
    <tag k="addr:street" v="Honeycomb Hill"/>
    <tag k="addr:state" v="VT"/>
    <tag k="ref:vcgi:esiteid" v="656440"/>
  </node>
  <node id="-788" visible="true" lat="42.85907027" lon="-72.75819654">
    <tag k="addr:housenumber" v="249"/>
    <tag k="addr:street" v="Honeycomb Hill"/>
    <tag k="addr:state" v="VT"/>
    <tag k="ref:vcgi:esiteid" v="656441"/>
  </node>
  <node id="-789" visible="true" lat="42.82830773" lon="-72.74152653">
    <tag k="addr:housenumber" v="1277"/>
    <tag k="addr:street" v="Moss Hollow Road"/>
    <tag k="addr:state" v="VT"/>
    <tag k="ref:vcgi:esiteid" v="656442"/>
  </node>
  <node id="-790" visible="true" lat="42.91490571" lon="-72.77553116">
    <tag k="addr:housenumber" v="2905"/>
    <tag k="addr:street" v="Lower Dover Road"/>
    <tag k="addr:state" v="VT"/>
    <tag k="ref:vcgi:esiteid" v="656443"/>
  </node>
  <node id="-791" visible="true" lat="42.86254209" lon="-72.76176124">
    <tag k="addr:housenumber" v="5136"/>
    <tag k="addr:street" v="Vermont Route 9"/>
    <tag k="addr:state" v="VT"/>
    <tag k="ref:vcgi:esiteid" v="656444"/>
  </node>
  <node id="-792" visible="true" lat="42.86797427" lon="-72.72770682">
    <tag k="addr:housenumber" v="3235"/>
    <tag k="addr:street" v="Vermont Route 9"/>
    <tag k="addr:state" v="VT"/>
    <tag k="ref:vcgi:esiteid" v="656474"/>
  </node>
  <node id="-793" visible="true" lat="42.89441056" lon="-72.78720849">
    <tag k="addr:housenumber" v="2533"/>
    <tag k="addr:street" v="Higley Hill Road"/>
    <tag k="addr:state" v="VT"/>
    <tag k="ref:vcgi:esiteid" v="656475"/>
  </node>
  <node id="-800" visible="true" lat="42.85447814" lon="-72.75488732">
    <tag k="addr:housenumber" v="4639"/>
    <tag k="addr:street" v="Vermont Route 9"/>
    <tag k="addr:state" v="VT"/>
    <tag k="ref:vcgi:esiteid" v="757494"/>
  </node>
  <node id="-836" visible="true" lat="42.85963202" lon="-72.72505315">
    <tag k="addr:housenumber" v="555"/>
    <tag k="addr:street" v="South Road"/>
    <tag k="addr:state" v="VT"/>
    <tag k="ref:vcgi:esiteid" v="771101"/>
  </node>
  <node id="-837" visible="true" lat="42.83511763" lon="-72.68548426">
    <tag k="addr:housenumber" v="820"/>
    <tag k="addr:street" v="Barrows Road"/>
    <tag k="addr:state" v="VT"/>
    <tag k="ref:vcgi:esiteid" v="771200"/>
  </node>
  <node id="-839" visible="true" lat="42.83914648" lon="-72.74186514">
    <tag k="addr:housenumber" v="600"/>
    <tag k="addr:street" v="Moss Hollow Road"/>
    <tag k="addr:state" v="VT"/>
    <tag k="ref:vcgi:esiteid" v="772537"/>
  </node>
  <node id="-840" visible="true" lat="42.86379783" lon="-72.74456046">
    <tag k="addr:housenumber" v="4177"/>
    <tag k="addr:street" v="Vermont Route 9"/>
    <tag k="addr:state" v="VT"/>
    <tag k="ref:vcgi:esiteid" v="772613"/>
  </node>
  <node id="-841" visible="true" lat="42.84322729" lon="-72.6900536">
    <tag k="addr:housenumber" v="959"/>
    <tag k="addr:street" v="Cowpath 40"/>
    <tag k="addr:state" v="VT"/>
    <tag k="ref:vcgi:esiteid" v="772703"/>
  </node>
</osm>
