<?xml version="1.0" encoding="UTF-8"?>
<osm version="0.6" generator="JOSM" upload="false">
  <node id="-943" visible="true" lat="44.31179099" lon="-72.65974305">
    <tag k="addr:housenumber" v="428"/>
    <tag k="addr:street" v="Center Road"/>
    <tag k="addr:state" v="VT"/>
    <tag k="ref:vcgi:esiteid" v="646600"/>
  </node>
  <node id="-1007" visible="true" lat="44.3548183" lon="-72.61875589">
    <tag k="addr:housenumber" v="150"/>
    <tag k="addr:street" v="East Bear Swamp Road"/>
    <tag k="addr:state" v="VT"/>
    <tag k="ref:vcgi:esiteid" v="771264"/>
  </node>
  <node id="-1008" visible="true" lat="44.32981328" lon="-72.65190018">
    <tag k="addr:housenumber" v="136"/>
    <tag k="addr:street" v="Zdon Road"/>
    <tag k="addr:state" v="VT"/>
    <tag k="ref:vcgi:esiteid" v="771265"/>
  </node>
  <node id="-1009" visible="true" lat="44.31731367" lon="-72.68658881">
    <tag k="addr:housenumber" v="295"/>
    <tag k="addr:street" v="Notch Road"/>
    <tag k="addr:state" v="VT"/>
    <tag k="ref:vcgi:esiteid" v="771815"/>
  </node>
  <node id="-1010" visible="true" lat="44.32022831" lon="-72.65209163">
    <tag k="addr:housenumber" v="634"/>
    <tag k="addr:street" v="Center Road"/>
    <tag k="addr:state" v="VT"/>
    <tag k="ref:vcgi:esiteid" v="772291"/>
  </node>
  <node id="-1011" visible="true" lat="44.36294401" lon="-72.61989621">
    <tag k="addr:housenumber" v="150"/>
    <tag k="addr:street" v="North Bear Swamp Road"/>
    <tag k="addr:state" v="VT"/>
    <tag k="ref:vcgi:esiteid" v="772346"/>
  </node>
</osm>
