<?xml version="1.0" encoding="UTF-8"?>
<osm version="0.6" generator="JOSM" upload="false">
  <node id="-710" visible="true" lat="44.01840601" lon="-73.17099433">
    <!-- conflict: "35 Seymour Street, Middlebury, VT" No match in OSM, but a different address exists <5m away: "11 Lucius Shaw Lane, Middlebury, VT" -->
    <tag k="addr:city" v="Middlebury"/>
    <tag k="addr:housenumber" v="35"/>
    <tag k="addr:street" v="Seymour Street"/>
    <tag k="addr:state" v="VT"/>
    <tag k="ref:vcgi:esiteid" v="154533"/>
  </node>
  <node id="-770" visible="true" lat="44.01754475" lon="-73.17296162">
    <!-- conflict: "128 Lucius Shaw Lane, Middlebury, VT" No match in OSM, but a different address exists <5m away: "127 Lucius Shaw Lane, Middlebury, VT" -->
    <tag k="addr:city" v="Middlebury"/>
    <tag k="addr:housenumber" v="128"/>
    <tag k="addr:street" v="Lucius Shaw Lane"/>
    <tag k="addr:state" v="VT"/>
    <tag k="ref:vcgi:esiteid" v="154601"/>
  </node>
  <node id="-2565" visible="true" lat="44.01840792" lon="-73.17247193">
    <!-- conflict: "1 Lucius Shaw Lane, Middlebury, VT" No match in OSM, but a different address exists <5m away: "70 Lucius Shaw Lane, Middlebury, VT" -->
    <tag k="addr:city" v="Middlebury"/>
    <tag k="addr:housenumber" v="1"/>
    <tag k="addr:street" v="Lucius Shaw Lane"/>
    <tag k="addr:state" v="VT"/>
    <tag k="ref:vcgi:esiteid" v="156628"/>
  </node>
  <node id="-2591" visible="true" lat="44.01816174" lon="-73.17274563">
    <!-- conflict: "87 Lucius Shaw Lane, Middlebury, VT" No match in OSM, but a different address exists <5m away: "90 Lucius Shaw Lane, Middlebury, VT" -->
    <tag k="addr:city" v="Middlebury"/>
    <tag k="addr:housenumber" v="87"/>
    <tag k="addr:street" v="Lucius Shaw Lane"/>
    <tag k="addr:state" v="VT"/>
    <tag k="ref:vcgi:esiteid" v="156654"/>
  </node>
  <node id="-2592" visible="true" lat="44.01720406" lon="-73.17470881">
    <!-- conflict: "206 Lucius Shaw Lane, Middlebury, VT" No match in OSM, but a different address exists <5m away: "209 Lucius Shaw Lane, Middlebury, VT" -->
    <tag k="addr:city" v="Middlebury"/>
    <tag k="addr:housenumber" v="206"/>
    <tag k="addr:street" v="Lucius Shaw Lane"/>
    <tag k="addr:state" v="VT"/>
    <tag k="ref:vcgi:esiteid" v="156656"/>
  </node>
  <node id="-2593" visible="true" lat="44.01760743" lon="-73.17448549">
    <!-- conflict: "205 Lucius Shaw Lane, Middlebury, VT" No match in OSM, but a different address exists <5m away: "208 Lucius Shaw Lane, Middlebury, VT" -->
    <tag k="addr:city" v="Middlebury"/>
    <tag k="addr:housenumber" v="205"/>
    <tag k="addr:street" v="Lucius Shaw Lane"/>
    <tag k="addr:state" v="VT"/>
    <tag k="ref:vcgi:esiteid" v="156658"/>
  </node>
  <node id="-2911" visible="true" lat="44.01731264" lon="-73.17425915">
    <!-- conflict: "200 Lucius Shaw Lane, Middlebury, VT" No match in OSM, but a different address exists <5m away: "199 Lucius Shaw Lane, Middlebury, VT" -->
    <tag k="addr:city" v="Middlebury"/>
    <tag k="addr:housenumber" v="200"/>
    <tag k="addr:street" v="Lucius Shaw Lane"/>
    <tag k="addr:state" v="VT"/>
    <tag k="ref:vcgi:esiteid" v="339301"/>
  </node>
  <node id="-3128" visible="true" lat="44.01745095" lon="-73.17391491">
    <!-- conflict: "180 Lucius Shaw Lane, Middlebury, VT" No match in OSM, but a different address exists <5m away: "175 Lucius Shaw Lane, Middlebury, VT" -->
    <tag k="addr:city" v="Middlebury"/>
    <tag k="addr:housenumber" v="180"/>
    <tag k="addr:street" v="Lucius Shaw Lane"/>
    <tag k="addr:state" v="VT"/>
    <tag k="ref:vcgi:esiteid" v="755743"/>
  </node>
</osm>
