<?xml version="1.0" encoding="UTF-8"?>
<osm version="0.6" generator="JOSM" upload="false">
  <node id="-1502" visible="true" lat="44.62925025" lon="-73.13657996">
    <tag k="addr:city" v="Milton"/>
    <tag k="addr:housenumber" v="16"/>
    <tag k="addr:street" v="Sammanikki Circle"/>
    <tag k="addr:state" v="VT"/>
    <tag k="ref:vcgi:esiteid" v="159641"/>
  </node>
  <node id="-4224" visible="true" lat="44.70123819" lon="-73.17647793">
    <tag k="addr:city" v="Milton"/>
    <tag k="addr:housenumber" v="8"/>
    <tag k="addr:street" v="Stonebridge Road"/>
    <tag k="addr:state" v="VT"/>
    <tag k="ref:vcgi:esiteid" v="329292"/>
  </node>
  <node id="-4758" visible="true" lat="44.61713721" lon="-73.12120333">
    <tag k="addr:city" v="Milton"/>
    <tag k="addr:housenumber" v="4"/>
    <tag k="addr:street" v="Tennis Court"/>
    <tag k="addr:state" v="VT"/>
    <tag k="ref:vcgi:esiteid" v="617556"/>
  </node>
  <node id="-5076" visible="true" lat="44.62796168" lon="-73.1021223">
    <tag k="addr:city" v="Milton"/>
    <tag k="addr:housenumber" v="139"/>
    <tag k="addr:street" v="East Road"/>
    <tag k="addr:state" v="VT"/>
    <tag k="ref:vcgi:esiteid" v="771196"/>
  </node>
  <node id="-5078" visible="true" lat="44.60111665" lon="-73.15831686">
    <tag k="addr:city" v="Milton"/>
    <tag k="addr:housenumber" v="152"/>
    <tag k="addr:street" v="Sweeney Farm Road"/>
    <tag k="addr:state" v="VT"/>
    <tag k="ref:vcgi:esiteid" v="771540"/>
  </node>
  <node id="-5079" visible="true" lat="44.60085253" lon="-73.15827475">
    <tag k="addr:city" v="Milton"/>
    <tag k="addr:housenumber" v="166"/>
    <tag k="addr:street" v="Sweeney Farm Road"/>
    <tag k="addr:state" v="VT"/>
    <tag k="ref:vcgi:esiteid" v="771541"/>
  </node>
  <node id="-5080" visible="true" lat="44.60059129" lon="-73.15840263">
    <tag k="addr:city" v="Milton"/>
    <tag k="addr:housenumber" v="178"/>
    <tag k="addr:street" v="Sweeney Farm Road"/>
    <tag k="addr:state" v="VT"/>
    <tag k="ref:vcgi:esiteid" v="771542"/>
  </node>
  <node id="-5081" visible="true" lat="44.60073549" lon="-73.15894868">
    <tag k="addr:city" v="Milton"/>
    <tag k="addr:housenumber" v="185"/>
    <tag k="addr:street" v="Sweeney Farm Road"/>
    <tag k="addr:state" v="VT"/>
    <tag k="ref:vcgi:esiteid" v="771543"/>
  </node>
  <node id="-5082" visible="true" lat="44.60024025" lon="-73.15865477">
    <tag k="addr:city" v="Milton"/>
    <tag k="addr:housenumber" v="200"/>
    <tag k="addr:street" v="Sweeney Farm Road"/>
    <tag k="addr:state" v="VT"/>
    <tag k="ref:vcgi:esiteid" v="771544"/>
  </node>
  <node id="-5083" visible="true" lat="44.60013865" lon="-73.15904387">
    <tag k="addr:city" v="Milton"/>
    <tag k="addr:housenumber" v="212"/>
    <tag k="addr:street" v="Sweeney Farm Road"/>
    <tag k="addr:state" v="VT"/>
    <tag k="ref:vcgi:esiteid" v="771545"/>
  </node>
  <node id="-5084" visible="true" lat="44.60015869" lon="-73.15938396">
    <tag k="addr:city" v="Milton"/>
    <tag k="addr:housenumber" v="224"/>
    <tag k="addr:street" v="Sweeney Farm Road"/>
    <tag k="addr:state" v="VT"/>
    <tag k="ref:vcgi:esiteid" v="771546"/>
  </node>
  <node id="-5085" visible="true" lat="44.60027177" lon="-73.15967981">
    <tag k="addr:city" v="Milton"/>
    <tag k="addr:housenumber" v="236"/>
    <tag k="addr:street" v="Sweeney Farm Road"/>
    <tag k="addr:state" v="VT"/>
    <tag k="ref:vcgi:esiteid" v="771547"/>
  </node>
  <node id="-5086" visible="true" lat="44.60045631" lon="-73.15996623">
    <tag k="addr:city" v="Milton"/>
    <tag k="addr:housenumber" v="248"/>
    <tag k="addr:street" v="Sweeney Farm Road"/>
    <tag k="addr:state" v="VT"/>
    <tag k="ref:vcgi:esiteid" v="771548"/>
  </node>
  <node id="-5087" visible="true" lat="44.60073419" lon="-73.16013843">
    <tag k="addr:city" v="Milton"/>
    <tag k="addr:housenumber" v="260"/>
    <tag k="addr:street" v="Sweeney Farm Road"/>
    <tag k="addr:state" v="VT"/>
    <tag k="ref:vcgi:esiteid" v="771549"/>
  </node>
  <node id="-5088" visible="true" lat="44.60099513" lon="-73.16008554">
    <tag k="addr:city" v="Milton"/>
    <tag k="addr:housenumber" v="272"/>
    <tag k="addr:street" v="Sweeney Farm Road"/>
    <tag k="addr:state" v="VT"/>
    <tag k="ref:vcgi:esiteid" v="771550"/>
  </node>
  <node id="-5089" visible="true" lat="44.60123137" lon="-73.15995746">
    <tag k="addr:city" v="Milton"/>
    <tag k="addr:housenumber" v="288"/>
    <tag k="addr:street" v="Sweeney Farm Road"/>
    <tag k="addr:state" v="VT"/>
    <tag k="ref:vcgi:esiteid" v="771551"/>
  </node>
  <node id="-5090" visible="true" lat="44.60096191" lon="-73.15947539">
    <tag k="addr:city" v="Milton"/>
    <tag k="addr:housenumber" v="287"/>
    <tag k="addr:street" v="Sweeney Farm Road"/>
    <tag k="addr:state" v="VT"/>
    <tag k="ref:vcgi:esiteid" v="771552"/>
  </node>
  <node id="-5091" visible="true" lat="44.61197655" lon="-73.07495727">
    <tag k="addr:city" v="Milton"/>
    <tag k="addr:housenumber" v="80"/>
    <tag k="addr:street" v="Devino Road"/>
    <tag k="addr:state" v="VT"/>
    <tag k="ref:vcgi:esiteid" v="771912"/>
  </node>
  <node id="-5095" visible="true" lat="44.6316468" lon="-73.09862877">
    <tag k="addr:city" v="Milton"/>
    <tag k="addr:housenumber" v="106"/>
    <tag k="addr:street" v="East Road"/>
    <tag k="addr:state" v="VT"/>
    <tag k="ref:vcgi:esiteid" v="772115"/>
  </node>
  <node id="-5096" visible="true" lat="44.61730727" lon="-73.11696992">
    <tag k="addr:city" v="Milton"/>
    <tag k="addr:housenumber" v="24"/>
    <tag k="addr:street" v="Hobbs Road"/>
    <tag k="addr:state" v="VT"/>
    <tag k="ref:vcgi:esiteid" v="772116"/>
  </node>
  <node id="-5097" visible="true" lat="44.64281562" lon="-73.05977016">
    <tag k="addr:city" v="Milton"/>
    <tag k="addr:housenumber" v="459"/>
    <tag k="addr:street" v="Westford Road"/>
    <tag k="addr:state" v="VT"/>
    <tag k="ref:vcgi:esiteid" v="772641"/>
  </node>
  <node id="-5098" visible="true" lat="44.66647014" lon="-73.20198305">
    <tag k="addr:city" v="Milton"/>
    <tag k="addr:housenumber" v="17"/>
    <tag k="addr:street" v="Cold Spring Road"/>
    <tag k="addr:state" v="VT"/>
    <tag k="ref:vcgi:esiteid" v="772642"/>
  </node>
  <node id="-5099" visible="true" lat="44.60717432" lon="-73.12774497">
    <tag k="addr:city" v="Milton"/>
    <tag k="addr:housenumber" v="18"/>
    <tag k="addr:street" v="Lela Mae Place"/>
    <tag k="addr:state" v="VT"/>
    <tag k="ref:vcgi:esiteid" v="772643"/>
  </node>
  <node id="-5100" visible="true" lat="44.58823064" lon="-73.1335997">
    <tag k="addr:city" v="Milton"/>
    <tag k="addr:housenumber" v="31"/>
    <tag k="addr:street" v="Mackenzie Lane"/>
    <tag k="addr:state" v="VT"/>
    <tag k="ref:vcgi:esiteid" v="772662"/>
  </node>
  <node id="-5101" visible="true" lat="44.58844104" lon="-73.13477198">
    <tag k="addr:city" v="Milton"/>
    <tag k="addr:housenumber" v="35"/>
    <tag k="addr:street" v="Mackenzie Lane"/>
    <tag k="addr:state" v="VT"/>
    <tag k="ref:vcgi:esiteid" v="772663"/>
  </node>
  <node id="-5102" visible="true" lat="44.60459751" lon="-73.16959881">
    <tag k="addr:city" v="Milton"/>
    <tag k="addr:housenumber" v="140"/>
    <tag k="addr:street" v="Gonyeau Road"/>
    <tag k="addr:state" v="VT"/>
    <tag k="ref:vcgi:esiteid" v="772667"/>
  </node>
</osm>
