<?xml version="1.0" encoding="UTF-8"?>
<osm version="0.6" generator="JOSM" upload="false">
  <node id="-218" visible="true" lat="44.57939189" lon="-72.59032532">
    <!-- conflict: "211 Sunset Drive, Morrisville, VT" No match in OSM, but a different address exists <5m away: "211 Red Pine Estates, Morrisville, VT" -->
    <tag k="addr:city" v="Morrisville"/>
    <tag k="addr:housenumber" v="211"/>
    <tag k="addr:street" v="Sunset Drive"/>
    <tag k="addr:state" v="VT"/>
    <tag k="ref:vcgi:esiteid" v="168725"/>
  </node>
  <node id="-1713" visible="true" lat="44.52309453" lon="-72.6958065">
    <!-- conflict: "1221 Moren Loop, Morrisville, VT" No match in OSM, but a different address exists <5m away: "1275 Moren Loop, Morrisville, VT" -->
    <tag k="addr:city" v="Morrisville"/>
    <tag k="addr:housenumber" v="1221"/>
    <tag k="addr:street" v="Moren Loop"/>
    <tag k="addr:state" v="VT"/>
    <tag k="ref:vcgi:esiteid" v="170412"/>
  </node>
  <node id="-2265" visible="true" lat="44.54521562" lon="-72.55721875">
    <!-- conflict: "370 Goddard Nisbet Road, Morrisville, VT" No match in OSM, but a different address exists <5m away: "490 Goddard Nisbet Road, Morrisville, VT" -->
    <tag k="addr:city" v="Morrisville"/>
    <tag k="addr:housenumber" v="370"/>
    <tag k="addr:street" v="Goddard Nisbet Road"/>
    <tag k="addr:state" v="VT"/>
    <tag k="ref:vcgi:esiteid" v="307384"/>
  </node>
  <node id="-2336" visible="true" lat="44.54498966" lon="-72.55384941">
    <!-- conflict: "305 Goddard Nisbet Road, Morrisville, VT" No match in OSM, but a different address exists <5m away: "345 Goddard Nisbet Road, Morrisville, VT" -->
    <tag k="addr:city" v="Morrisville"/>
    <tag k="addr:housenumber" v="305"/>
    <tag k="addr:street" v="Goddard Nisbet Road"/>
    <tag k="addr:state" v="VT"/>
    <tag k="ref:vcgi:esiteid" v="332529"/>
  </node>
  <node id="-2837" visible="true" lat="44.50702015" lon="-72.63045123">
    <!-- conflict: "216 Eventide Lane, Morrisville, VT" No match in OSM, but a different address exists <5m away: "216 Laporte Road, Morrisville, VT" -->
    <tag k="addr:city" v="Morrisville"/>
    <tag k="addr:housenumber" v="216"/>
    <tag k="addr:street" v="Eventide Lane"/>
    <tag k="addr:state" v="VT"/>
    <tag k="ref:vcgi:esiteid" v="761925"/>
  </node>
  <node id="-2838" visible="true" lat="44.50601064" lon="-72.62808257">
    <!-- conflict: "79 Eventide Lane, Morrisville, VT" No match in OSM, but a different address exists <5m away: "79 Laporte Road, Morrisville, VT" -->
    <tag k="addr:city" v="Morrisville"/>
    <tag k="addr:housenumber" v="79"/>
    <tag k="addr:street" v="Eventide Lane"/>
    <tag k="addr:state" v="VT"/>
    <tag k="ref:vcgi:esiteid" v="761926"/>
  </node>
  <node id="-2841" visible="true" lat="44.50739151" lon="-72.63148487">
    <!-- conflict: "222 Eventide Lane, Morrisville, VT" No match in OSM, but a different address exists <5m away: "222 Laporte Road, Morrisville, VT" -->
    <tag k="addr:city" v="Morrisville"/>
    <tag k="addr:housenumber" v="222"/>
    <tag k="addr:street" v="Eventide Lane"/>
    <tag k="addr:state" v="VT"/>
    <tag k="ref:vcgi:esiteid" v="761929"/>
  </node>
</osm>
