<?xml version="1.0" encoding="UTF-8"?>
<osm version="0.6" generator="JOSM" upload="false">
  <node id="-588" visible="true" lat="44.56557431" lon="-72.6065337">
    <tag k="addr:city" v="Morrisville"/>
    <tag k="addr:housenumber" v="45"/>
    <tag k="addr:street" v="North River Street"/>
    <tag k="addr:state" v="VT"/>
    <tag k="ref:vcgi:esiteid" v="169163"/>
  </node>
  <node id="-2602" visible="true" lat="44.55313635" lon="-72.61160953">
    <tag k="addr:city" v="Morrisville"/>
    <tag k="addr:housenumber" v="109"/>
    <tag k="addr:street" v="Lague Road"/>
    <tag k="addr:state" v="VT"/>
    <tag k="ref:vcgi:esiteid" v="655191"/>
  </node>
  <node id="-3039" visible="true" lat="44.56324182" lon="-72.54107684">
    <tag k="addr:city" v="Morrisville"/>
    <tag k="addr:housenumber" v="725"/>
    <tag k="addr:street" v="Lazy Lane"/>
    <tag k="addr:state" v="VT"/>
    <tag k="ref:vcgi:esiteid" v="772793"/>
  </node>
  <node id="-3040" visible="true" lat="44.4942389" lon="-72.63099855">
    <tag k="addr:city" v="Morrisville"/>
    <tag k="addr:housenumber" v="27"/>
    <tag k="addr:street" v="Coopers Landing"/>
    <tag k="addr:state" v="VT"/>
    <tag k="ref:vcgi:esiteid" v="772817"/>
  </node>
  <node id="-3041" visible="true" lat="44.49398594" lon="-72.63045293">
    <tag k="addr:city" v="Morrisville"/>
    <tag k="addr:housenumber" v="49"/>
    <tag k="addr:street" v="Coopers Landing"/>
    <tag k="addr:state" v="VT"/>
    <tag k="ref:vcgi:esiteid" v="772818"/>
  </node>
  <node id="-3042" visible="true" lat="44.49358652" lon="-72.63037853">
    <tag k="addr:city" v="Morrisville"/>
    <tag k="addr:housenumber" v="65"/>
    <tag k="addr:street" v="Coopers Landing"/>
    <tag k="addr:state" v="VT"/>
    <tag k="ref:vcgi:esiteid" v="772819"/>
  </node>
  <node id="-3043" visible="true" lat="44.49326255" lon="-72.63069474">
    <tag k="addr:city" v="Morrisville"/>
    <tag k="addr:housenumber" v="66"/>
    <tag k="addr:street" v="Coopers Landing"/>
    <tag k="addr:state" v="VT"/>
    <tag k="ref:vcgi:esiteid" v="772820"/>
  </node>
  <node id="-3044" visible="true" lat="44.49477145" lon="-72.63220759">
    <tag k="addr:city" v="Morrisville"/>
    <tag k="addr:housenumber" v="245"/>
    <tag k="addr:street" v="Elizabeths Lane"/>
    <tag k="addr:state" v="VT"/>
    <tag k="ref:vcgi:esiteid" v="772821"/>
  </node>
  <node id="-3045" visible="true" lat="44.4958099" lon="-72.62897728">
    <tag k="addr:city" v="Morrisville"/>
    <tag k="addr:housenumber" v="434"/>
    <tag k="addr:street" v="Elizabeths Lane"/>
    <tag k="addr:state" v="VT"/>
    <tag k="ref:vcgi:esiteid" v="772822"/>
  </node>
  <node id="-3046" visible="true" lat="44.49626255" lon="-72.62844406">
    <tag k="addr:city" v="Morrisville"/>
    <tag k="addr:housenumber" v="436"/>
    <tag k="addr:street" v="Elizabeths Lane"/>
    <tag k="addr:state" v="VT"/>
    <tag k="ref:vcgi:esiteid" v="772823"/>
  </node>
  <node id="-3047" visible="true" lat="44.49684389" lon="-72.6296221">
    <tag k="addr:city" v="Morrisville"/>
    <tag k="addr:housenumber" v="450"/>
    <tag k="addr:street" v="Elizabeths Lane"/>
    <tag k="addr:state" v="VT"/>
    <tag k="ref:vcgi:esiteid" v="772824"/>
  </node>
  <node id="-3048" visible="true" lat="44.4964445" lon="-72.62993211">
    <tag k="addr:city" v="Morrisville"/>
    <tag k="addr:housenumber" v="452"/>
    <tag k="addr:street" v="Elizabeths Lane"/>
    <tag k="addr:state" v="VT"/>
    <tag k="ref:vcgi:esiteid" v="772825"/>
  </node>
  <node id="-3049" visible="true" lat="44.4938528" lon="-72.63144496">
    <tag k="addr:city" v="Morrisville"/>
    <tag k="addr:housenumber" v="50"/>
    <tag k="addr:street" v="Coopers Landing"/>
    <tag k="addr:state" v="VT"/>
    <tag k="ref:vcgi:esiteid" v="772826"/>
  </node>
  <node id="-3050" visible="true" lat="44.49496283" lon="-72.62978292">
    <tag k="addr:city" v="Morrisville"/>
    <tag k="addr:housenumber" v="380"/>
    <tag k="addr:street" v="Elizabeths Lane"/>
    <tag k="addr:state" v="VT"/>
    <tag k="ref:vcgi:esiteid" v="772827"/>
  </node>
  <node id="-3051" visible="true" lat="44.51710306" lon="-72.59861753">
    <tag k="addr:city" v="Morrisville"/>
    <tag k="addr:housenumber" v="48"/>
    <tag k="addr:street" v="Bliss Hill Road"/>
    <tag k="addr:state" v="VT"/>
    <tag k="ref:vcgi:esiteid" v="772929"/>
  </node>
</osm>
