<?xml version="1.0" encoding="UTF-8"?>
<osm version="0.6" generator="JOSM" upload="false">
  <node id="-246" visible="true" lat="44.12606304" lon="-73.15349134">
    <tag k="addr:city" v="New Haven"/>
    <tag k="addr:housenumber" v="78"/>
    <tag k="addr:street" v="North Street"/>
    <tag k="addr:state" v="VT"/>
    <tag k="ref:vcgi:esiteid" v="172318"/>
  </node>
  <node id="-263" visible="true" lat="44.12482046" lon="-73.15026703">
    <tag k="addr:city" v="New Haven"/>
    <tag k="addr:housenumber" v="1589"/>
    <tag k="addr:street" v="Main Street"/>
    <tag k="addr:state" v="VT"/>
    <tag k="ref:vcgi:esiteid" v="172335"/>
  </node>
  <node id="-1005" visible="true" lat="44.14963054" lon="-73.18235029">
    <tag k="addr:city" v="New Haven"/>
    <tag k="addr:housenumber" v="1349"/>
    <tag k="addr:street" v="Lime Kiln Road"/>
    <tag k="addr:state" v="VT"/>
    <tag k="ref:vcgi:esiteid" v="771223"/>
  </node>
  <node id="-1006" visible="true" lat="44.0902145" lon="-73.10490208">
    <tag k="addr:city" v="New Haven"/>
    <tag k="addr:housenumber" v="5137"/>
    <tag k="addr:street" v="Munger Street"/>
    <tag k="addr:state" v="VT"/>
    <tag k="ref:vcgi:esiteid" v="771556"/>
  </node>
  <node id="-1007" visible="true" lat="44.12566699" lon="-73.14929969">
    <tag k="addr:city" v="New Haven"/>
    <tag k="addr:housenumber" v="1609"/>
    <tag k="addr:street" v="Main Street"/>
    <tag k="addr:state" v="VT"/>
    <tag k="ref:vcgi:esiteid" v="771605"/>
  </node>
  <node id="-1008" visible="true" lat="44.13555359" lon="-73.11973281">
    <tag k="addr:city" v="New Haven"/>
    <tag k="addr:housenumber" v="615"/>
    <tag k="addr:street" v="Sawyer Road"/>
    <tag k="addr:state" v="VT"/>
    <tag k="ref:vcgi:esiteid" v="771746"/>
  </node>
  <node id="-1009" visible="true" lat="44.12554696" lon="-73.1488046">
    <tag k="addr:city" v="New Haven"/>
    <tag k="addr:housenumber" v="1611"/>
    <tag k="addr:street" v="Main Street"/>
    <tag k="addr:state" v="VT"/>
    <tag k="ref:vcgi:esiteid" v="771762"/>
  </node>
  <node id="-1010" visible="true" lat="44.05361039" lon="-73.11405127">
    <tag k="addr:city" v="New Haven"/>
    <tag k="addr:housenumber" v="137"/>
    <tag k="addr:street" v="Cobble Road"/>
    <tag k="addr:state" v="VT"/>
    <tag k="ref:vcgi:esiteid" v="772345"/>
  </node>
  <node id="-1011" visible="true" lat="44.11733939" lon="-73.16006758">
    <tag k="addr:city" v="New Haven"/>
    <tag k="addr:housenumber" v="586"/>
    <tag k="addr:street" v="Town Hill Road"/>
    <tag k="addr:state" v="VT"/>
    <tag k="ref:vcgi:esiteid" v="772350"/>
  </node>
</osm>
