<?xml version="1.0" encoding="UTF-8"?>
<osm version="0.6" generator="JOSM" upload="false">
  <node id="-544" visible="true" lat="44.71640253" lon="-71.87043951">
    <tag k="addr:housenumber" v="3475"/>
    <tag k="addr:street" v="Island Pond Road"/>
    <tag k="addr:state" v="VT"/>
    <tag k="ref:vcgi:esiteid" v="173361"/>
  </node>
  <node id="-714" visible="true" lat="44.68603298" lon="-71.94816583">
    <tag k="addr:housenumber" v="1290"/>
    <tag k="addr:street" v="Schoolhouse Road"/>
    <tag k="addr:state" v="VT"/>
    <tag k="ref:vcgi:esiteid" v="619630"/>
  </node>
  <node id="-780" visible="true" lat="44.67506852" lon="-71.96153455">
    <tag k="addr:housenumber" v="151"/>
    <tag k="addr:street" v="Beagle Run"/>
    <tag k="addr:state" v="VT"/>
    <tag k="ref:vcgi:esiteid" v="771493"/>
  </node>
  <node id="-781" visible="true" lat="44.69157715" lon="-71.97424924">
    <tag k="addr:housenumber" v="805"/>
    <tag k="addr:street" v="Baird Road"/>
    <tag k="addr:state" v="VT"/>
    <tag k="ref:vcgi:esiteid" v="771737"/>
  </node>
  <node id="-783" visible="true" lat="44.68692309" lon="-71.94608687">
    <tag k="addr:housenumber" v="1278"/>
    <tag k="addr:street" v="Schoolhouse Road"/>
    <tag k="addr:state" v="VT"/>
    <tag k="ref:vcgi:esiteid" v="771985"/>
  </node>
  <node id="-784" visible="true" lat="44.69488506" lon="-71.99801643">
    <tag k="addr:housenumber" v="70"/>
    <tag k="addr:street" v="Lake Road"/>
    <tag k="addr:state" v="VT"/>
    <tag k="ref:vcgi:esiteid" v="772119"/>
  </node>
  <node id="-785" visible="true" lat="44.69350114" lon="-72.00048227">
    <tag k="addr:housenumber" v="21"/>
    <tag k="addr:street" v="Lake Road"/>
    <tag k="addr:state" v="VT"/>
    <tag k="ref:vcgi:esiteid" v="772120"/>
  </node>
</osm>
