<?xml version="1.0" encoding="UTF-8"?>
<osm version="0.6" generator="JOSM" upload="false">
  <node id="-1509" visible="true" lat="44.14243175" lon="-72.15952003">
    <tag k="addr:housenumber" v="245"/>
    <tag k="addr:street" v="Johns Way"/>
    <tag k="addr:state" v="VT"/>
    <tag k="ref:vcgi:esiteid" v="646493"/>
  </node>
  <node id="-1582" visible="true" lat="44.09089528" lon="-72.12187127">
    <tag k="addr:housenumber" v="741"/>
    <tag k="addr:street" v="Halls Lake Road"/>
    <tag k="addr:state" v="VT"/>
    <tag k="ref:vcgi:esiteid" v="771098"/>
  </node>
  <node id="-1585" visible="true" lat="44.08811286" lon="-72.12913473">
    <tag k="addr:housenumber" v="1260"/>
    <tag k="addr:street" v="Halls Lake Road"/>
    <tag k="addr:state" v="VT"/>
    <tag k="ref:vcgi:esiteid" v="771324"/>
  </node>
  <node id="-1586" visible="true" lat="44.09972661" lon="-72.11379404">
    <tag k="addr:housenumber" v="3711"/>
    <tag k="addr:street" v="Scotch Hollow Road"/>
    <tag k="addr:state" v="VT"/>
    <tag k="ref:vcgi:esiteid" v="771619"/>
  </node>
  <node id="-1587" visible="true" lat="44.10385095" lon="-72.11119036">
    <tag k="addr:housenumber" v="319"/>
    <tag k="addr:street" v="Leighton Hill Road"/>
    <tag k="addr:state" v="VT"/>
    <tag k="ref:vcgi:esiteid" v="771786"/>
  </node>
  <node id="-1588" visible="true" lat="44.13708666" lon="-72.08158705">
    <tag k="addr:housenumber" v="3149"/>
    <tag k="addr:street" v="Wallace Hill Road"/>
    <tag k="addr:state" v="VT"/>
    <tag k="ref:vcgi:esiteid" v="771787"/>
  </node>
  <node id="-1589" visible="true" lat="44.11845699" lon="-72.1609149">
    <tag k="addr:housenumber" v="1159"/>
    <tag k="addr:street" v="Hood Trail"/>
    <tag k="addr:state" v="VT"/>
    <tag k="ref:vcgi:esiteid" v="771831"/>
  </node>
  <node id="-1590" visible="true" lat="44.11241486" lon="-72.18497544">
    <tag k="addr:housenumber" v="2460"/>
    <tag k="addr:street" v="Fuller Road"/>
    <tag k="addr:state" v="VT"/>
    <tag k="ref:vcgi:esiteid" v="771979"/>
  </node>
  <node id="-1591" visible="true" lat="44.11178246" lon="-72.19261387">
    <tag k="addr:housenumber" v="6485"/>
    <tag k="addr:street" v="Swamp Road"/>
    <tag k="addr:state" v="VT"/>
    <tag k="ref:vcgi:esiteid" v="771980"/>
  </node>
</osm>
