<?xml version="1.0" encoding="UTF-8"?>
<osm version="0.6" generator="JOSM" upload="false">
  <node id="-424" visible="true" lat="44.16303645" lon="-72.61874264">
    <tag k="addr:housenumber" v="2185"/>
    <tag k="addr:street" v="Turkey Hill Road"/>
    <tag k="addr:state" v="VT"/>
    <tag k="ref:vcgi:esiteid" v="180242"/>
  </node>
  <node id="-607" visible="true" lat="44.15386693" lon="-72.6552747">
    <tag k="addr:housenumber" v="7"/>
    <tag k="addr:street" v="Belknap Street"/>
    <tag k="addr:state" v="VT"/>
    <tag k="ref:vcgi:esiteid" v="180439"/>
  </node>
  <node id="-2038" visible="true" lat="44.11121863" lon="-72.6166538">
    <tag k="addr:housenumber" v="191"/>
    <tag k="addr:street" v="Robinson Road"/>
    <tag k="addr:state" v="VT"/>
    <tag k="ref:vcgi:esiteid" v="448998"/>
  </node>
  <node id="-2046" visible="true" lat="44.1238343" lon="-72.63004032">
    <tag k="addr:housenumber" v="200"/>
    <tag k="addr:street" v="Barrows Road"/>
    <tag k="addr:state" v="VT"/>
    <tag k="ref:vcgi:esiteid" v="449034"/>
  </node>
  <node id="-2100" visible="true" lat="44.12052138" lon="-72.66548035">
    <tag k="addr:housenumber" v="144"/>
    <tag k="addr:street" v="Winch Hill Road"/>
    <tag k="addr:state" v="VT"/>
    <tag k="ref:vcgi:esiteid" v="646441"/>
  </node>
  <node id="-2114" visible="true" lat="44.13227224" lon="-72.60835919">
    <tag k="addr:housenumber" v="139"/>
    <tag k="addr:street" v="Fairway Drive"/>
    <tag k="addr:state" v="VT"/>
    <tag k="ref:vcgi:esiteid" v="655736"/>
  </node>
  <node id="-2177" visible="true" lat="44.1504515" lon="-72.65645597">
    <tag k="addr:housenumber" v="101"/>
    <tag k="addr:street" v="North Main Street"/>
    <tag k="addr:state" v="VT"/>
    <tag k="ref:vcgi:esiteid" v="765905"/>
  </node>
  <node id="-2188" visible="true" lat="44.13633856" lon="-72.65949226">
    <tag k="addr:housenumber" v="11"/>
    <tag k="addr:street" v="Park Avenue"/>
    <tag k="addr:state" v="VT"/>
    <tag k="ref:vcgi:esiteid" v="771516"/>
  </node>
  <node id="-2189" visible="true" lat="44.15033788" lon="-72.65521556">
    <tag k="addr:housenumber" v="124"/>
    <tag k="addr:street" v="North Main Street"/>
    <tag k="addr:state" v="VT"/>
    <tag k="ref:vcgi:esiteid" v="771614"/>
  </node>
  <node id="-2190" visible="true" lat="44.17113676" lon="-72.69903997">
    <tag k="addr:housenumber" v="2149"/>
    <tag k="addr:street" v="Union Brook Road"/>
    <tag k="addr:state" v="VT"/>
    <tag k="ref:vcgi:esiteid" v="771772"/>
  </node>
  <node id="-2191" visible="true" lat="44.16023494" lon="-72.65647661">
    <tag k="addr:housenumber" v="804"/>
    <tag k="addr:street" v="North Main Street"/>
    <tag k="addr:state" v="VT"/>
    <tag k="ref:vcgi:esiteid" v="772393"/>
  </node>
  <node id="-2192" visible="true" lat="44.1155029" lon="-72.65170054">
    <tag k="addr:housenumber" v="294"/>
    <tag k="addr:street" v="Vermont Route 64"/>
    <tag k="addr:state" v="VT"/>
    <tag k="ref:vcgi:esiteid" v="772394"/>
  </node>
</osm>
