<?xml version="1.0" encoding="UTF-8"?>
<osm version="0.6" generator="JOSM" upload="false">
  <node id="-1639" visible="true" lat="43.73603114" lon="-72.32174712">
    <tag k="addr:housenumber" v="213"/>
    <tag k="addr:street" v="Brigham Hill Road"/>
    <tag k="addr:state" v="VT"/>
    <tag k="ref:vcgi:esiteid" v="455693"/>
  </node>
  <node id="-1645" visible="true" lat="43.70721859" lon="-72.32104471">
    <tag k="addr:housenumber" v="258"/>
    <tag k="addr:street" v="Hopson Road"/>
    <tag k="addr:state" v="VT"/>
    <tag k="ref:vcgi:esiteid" v="620164"/>
  </node>
  <node id="-1648" visible="true" lat="43.76539787" lon="-72.24275096">
    <tag k="addr:housenumber" v="306"/>
    <tag k="addr:street" v="Route 132"/>
    <tag k="addr:state" v="VT"/>
    <tag k="ref:vcgi:esiteid" v="646715"/>
  </node>
  <node id="-1649" visible="true" lat="43.74219007" lon="-72.35736254">
    <tag k="addr:housenumber" v="1060"/>
    <tag k="addr:street" v="Bragg Hill Road"/>
    <tag k="addr:state" v="VT"/>
    <tag k="ref:vcgi:esiteid" v="646716"/>
  </node>
  <node id="-1650" visible="true" lat="43.71071365" lon="-72.31374971">
    <tag k="addr:housenumber" v="94"/>
    <tag k="addr:street" v="Elm Street"/>
    <tag k="addr:state" v="VT"/>
    <tag k="ref:vcgi:esiteid" v="646717"/>
  </node>
  <node id="-1651" visible="true" lat="43.71857271" lon="-72.3085551">
    <tag k="addr:housenumber" v="51"/>
    <tag k="addr:street" v="Hazen Street"/>
    <tag k="addr:state" v="VT"/>
    <tag k="ref:vcgi:esiteid" v="646718"/>
  </node>
  <node id="-1652" visible="true" lat="43.71809399" lon="-72.33893028">
    <tag k="addr:housenumber" v="399"/>
    <tag k="addr:street" v="Bragg Hill Road"/>
    <tag k="addr:state" v="VT"/>
    <tag k="ref:vcgi:esiteid" v="646719"/>
  </node>
  <node id="-1654" visible="true" lat="43.76100153" lon="-72.3626452">
    <tag k="addr:housenumber" v="1492"/>
    <tag k="addr:street" v="Beaver Meadow Road"/>
    <tag k="addr:state" v="VT"/>
    <tag k="ref:vcgi:esiteid" v="646721"/>
  </node>
  <node id="-1655" visible="true" lat="43.72476973" lon="-72.31825213">
    <tag k="addr:housenumber" v="273"/>
    <tag k="addr:street" v="Beaver Meadow Road"/>
    <tag k="addr:state" v="VT"/>
    <tag k="ref:vcgi:esiteid" v="646722"/>
  </node>
  <node id="-1718" visible="true" lat="43.74117675" lon="-72.32463849">
    <tag k="addr:housenumber" v="334"/>
    <tag k="addr:street" v="Brigham Hill Road"/>
    <tag k="addr:state" v="VT"/>
    <tag k="ref:vcgi:esiteid" v="771280"/>
  </node>
  <node id="-1719" visible="true" lat="43.72350423" lon="-72.2924955">
    <tag k="addr:housenumber" v="205"/>
    <tag k="addr:street" v="Upper Loveland Road"/>
    <tag k="addr:state" v="VT"/>
    <tag k="ref:vcgi:esiteid" v="771356"/>
  </node>
  <node id="-1720" visible="true" lat="43.71798002" lon="-72.29915471">
    <tag k="addr:housenumber" v="50"/>
    <tag k="addr:street" v="Four Wheel Drive"/>
    <tag k="addr:state" v="VT"/>
    <tag k="ref:vcgi:esiteid" v="771810"/>
  </node>
  <node id="-1721" visible="true" lat="43.73747801" lon="-72.26099936">
    <tag k="addr:housenumber" v="643"/>
    <tag k="addr:street" v="U.S. Route 5 North"/>
    <tag k="addr:state" v="VT"/>
    <tag k="ref:vcgi:esiteid" v="771878"/>
  </node>
  <node id="-1723" visible="true" lat="43.76686995" lon="-72.25520977">
    <tag k="addr:housenumber" v="49"/>
    <tag k="addr:street" v="Waterman Hill Road"/>
    <tag k="addr:state" v="VT"/>
    <tag k="ref:vcgi:esiteid" v="771916"/>
  </node>
  <node id="-1724" visible="true" lat="43.76391316" lon="-72.23384365">
    <tag k="addr:housenumber" v="80"/>
    <tag k="addr:street" v="Hogback Road"/>
    <tag k="addr:state" v="VT"/>
    <tag k="ref:vcgi:esiteid" v="771917"/>
  </node>
</osm>
