<?xml version="1.0" encoding="UTF-8"?>
<osm version="0.6" generator="JOSM" upload="false">
  <node id="-924" visible="true" lat="43.7959617" lon="-73.26972205">
    <tag k="addr:housenumber" v="48"/>
    <tag k="addr:street" v="Maple Ridge"/>
    <tag k="addr:state" v="VT"/>
    <tag k="ref:vcgi:esiteid" v="771371"/>
  </node>
  <node id="-925" visible="true" lat="43.80112222" lon="-73.24889555">
    <tag k="addr:housenumber" v="715"/>
    <tag k="addr:street" v="Vermont Route 73"/>
    <tag k="addr:state" v="VT"/>
    <tag k="ref:vcgi:esiteid" v="771372"/>
  </node>
  <node id="-926" visible="true" lat="43.8122427" lon="-73.23670816">
    <tag k="addr:housenumber" v="88"/>
    <tag k="addr:street" v="Old Sawmill Road"/>
    <tag k="addr:state" v="VT"/>
    <tag k="ref:vcgi:esiteid" v="771624"/>
  </node>
  <node id="-927" visible="true" lat="43.8120431" lon="-73.2411162">
    <tag k="addr:housenumber" v="74"/>
    <tag k="addr:street" v="Old Sawmill Road"/>
    <tag k="addr:state" v="VT"/>
    <tag k="ref:vcgi:esiteid" v="771625"/>
  </node>
  <node id="-928" visible="true" lat="43.79559781" lon="-73.22358465">
    <tag k="addr:housenumber" v="786"/>
    <tag k="addr:street" v="Vermont Route 73"/>
    <tag k="addr:state" v="VT"/>
    <tag k="ref:vcgi:esiteid" v="772401"/>
  </node>
  <node id="-929" visible="true" lat="43.83228746" lon="-73.25883497">
    <tag k="addr:housenumber" v="216"/>
    <tag k="addr:street" v="Fisher Road"/>
    <tag k="addr:state" v="VT"/>
    <tag k="ref:vcgi:esiteid" v="772548"/>
  </node>
</osm>
