<?xml version="1.0" encoding="UTF-8"?>
<osm version="0.6" generator="JOSM" upload="false">
  <node id="-691" visible="true" lat="42.76253966" lon="-72.98290137">
    <tag k="addr:city" v="Readsboro"/>
    <tag k="addr:housenumber" v="290"/>
    <tag k="addr:street" v="Tewksbury Road"/>
    <tag k="addr:state" v="VT"/>
    <tag k="ref:vcgi:esiteid" v="771287"/>
  </node>
  <node id="-692" visible="true" lat="42.74842002" lon="-72.95383471">
    <tag k="addr:city" v="Readsboro"/>
    <tag k="addr:housenumber" v="412"/>
    <tag k="addr:street" v="Shippee Road"/>
    <tag k="addr:state" v="VT"/>
    <tag k="ref:vcgi:esiteid" v="771288"/>
  </node>
  <node id="-693" visible="true" lat="42.82495679" lon="-72.99955165">
    <tag k="addr:city" v="Readsboro"/>
    <tag k="addr:housenumber" v="1302"/>
    <tag k="addr:street" v="Vermont Route 100"/>
    <tag k="addr:state" v="VT"/>
    <tag k="ref:vcgi:esiteid" v="771290"/>
  </node>
  <node id="-694" visible="true" lat="42.78441888" lon="-72.93544052">
    <tag k="addr:city" v="Readsboro"/>
    <tag k="addr:housenumber" v="622"/>
    <tag k="addr:street" v="King Hill Road"/>
    <tag k="addr:state" v="VT"/>
    <tag k="ref:vcgi:esiteid" v="771291"/>
  </node>
  <node id="-695" visible="true" lat="42.78529936" lon="-72.93573058">
    <tag k="addr:city" v="Readsboro"/>
    <tag k="addr:housenumber" v="624"/>
    <tag k="addr:street" v="King Hill Road"/>
    <tag k="addr:state" v="VT"/>
    <tag k="ref:vcgi:esiteid" v="771292"/>
  </node>
  <node id="-696" visible="true" lat="42.80965189" lon="-73.0147082">
    <tag k="addr:city" v="Readsboro"/>
    <tag k="addr:housenumber" v="14"/>
    <tag k="addr:street" v="Heartwellville View Road"/>
    <tag k="addr:state" v="VT"/>
    <tag k="ref:vcgi:esiteid" v="771293"/>
  </node>
  <node id="-697" visible="true" lat="42.7780935" lon="-72.96918123">
    <tag k="addr:city" v="Readsboro"/>
    <tag k="addr:housenumber" v="60"/>
    <tag k="addr:street" v="Ross Road"/>
    <tag k="addr:state" v="VT"/>
    <tag k="ref:vcgi:esiteid" v="771294"/>
  </node>
  <node id="-698" visible="true" lat="42.77772228" lon="-72.96753219">
    <tag k="addr:city" v="Readsboro"/>
    <tag k="addr:housenumber" v="31"/>
    <tag k="addr:street" v="Ross Road"/>
    <tag k="addr:state" v="VT"/>
    <tag k="ref:vcgi:esiteid" v="771295"/>
  </node>
  <node id="-699" visible="true" lat="42.79003018" lon="-72.98712142">
    <tag k="addr:city" v="Readsboro"/>
    <tag k="addr:housenumber" v="1863"/>
    <tag k="addr:street" v="Howe Pond Road"/>
    <tag k="addr:state" v="VT"/>
    <tag k="ref:vcgi:esiteid" v="771296"/>
  </node>
  <node id="-700" visible="true" lat="42.81419189" lon="-73.00755752">
    <tag k="addr:city" v="Readsboro"/>
    <tag k="addr:housenumber" v="544"/>
    <tag k="addr:street" v="Vermont Route 100"/>
    <tag k="addr:state" v="VT"/>
    <tag k="ref:vcgi:esiteid" v="772689"/>
  </node>
</osm>
