<?xml version="1.0" encoding="UTF-8"?>
<osm version="0.6" generator="JOSM" upload="false">
  <node id="-1365" visible="true" lat="43.84724066" lon="-72.58851133">
    <tag k="addr:housenumber" v="1754"/>
    <tag k="addr:street" v="Waterman Road"/>
    <tag k="addr:state" v="VT"/>
    <tag k="ref:vcgi:esiteid" v="454543"/>
  </node>
  <node id="-1422" visible="true" lat="43.80409336" lon="-72.59437331">
    <tag k="addr:housenumber" v="785"/>
    <tag k="addr:street" v="Sewall Brook Road"/>
    <tag k="addr:state" v="VT"/>
    <tag k="ref:vcgi:esiteid" v="646442"/>
  </node>
  <node id="-1423" visible="true" lat="43.82385606" lon="-72.53162509">
    <tag k="addr:housenumber" v="553"/>
    <tag k="addr:street" v="North Windsor Street"/>
    <tag k="addr:state" v="VT"/>
    <tag k="ref:vcgi:esiteid" v="646517"/>
  </node>
  <node id="-1424" visible="true" lat="43.82522437" lon="-72.54237153">
    <tag k="addr:housenumber" v="3624"/>
    <tag k="addr:street" v="Vermont Route 14"/>
    <tag k="addr:state" v="VT"/>
    <tag k="ref:vcgi:esiteid" v="646536"/>
  </node>
  <node id="-1425" visible="true" lat="43.82521096" lon="-72.52081296">
    <tag k="addr:housenumber" v="70"/>
    <tag k="addr:street" v="Goodrich Meadows"/>
    <tag k="addr:state" v="VT"/>
    <tag k="ref:vcgi:esiteid" v="646649"/>
  </node>
  <node id="-1426" visible="true" lat="43.83412438" lon="-72.58786791">
    <tag k="addr:housenumber" v="853"/>
    <tag k="addr:street" v="Waterman Road"/>
    <tag k="addr:state" v="VT"/>
    <tag k="ref:vcgi:esiteid" v="646683"/>
  </node>
  <node id="-1450" visible="true" lat="43.82929883" lon="-72.5278622">
    <tag k="addr:housenumber" v="164"/>
    <tag k="addr:street" v="Happy Hollow Road"/>
    <tag k="addr:state" v="VT"/>
    <tag k="ref:vcgi:esiteid" v="656476"/>
  </node>
  <node id="-1632" visible="true" lat="43.81520698" lon="-72.5946318">
    <tag k="addr:housenumber" v="1559"/>
    <tag k="addr:street" v="Gilman Road"/>
    <tag k="addr:state" v="VT"/>
    <tag k="ref:vcgi:esiteid" v="771318"/>
  </node>
  <node id="-1634" visible="true" lat="43.82647366" lon="-72.53354519">
    <tag k="addr:housenumber" v="3161"/>
    <tag k="addr:street" v="Vermont Route 14"/>
    <tag k="addr:state" v="VT"/>
    <tag k="ref:vcgi:esiteid" v="772339"/>
  </node>
  <node id="-1635" visible="true" lat="43.80581706" lon="-72.50145818">
    <tag k="addr:housenumber" v="799"/>
    <tag k="addr:street" v="Vermont Route 14"/>
    <tag k="addr:state" v="VT"/>
    <tag k="ref:vcgi:esiteid" v="772340"/>
  </node>
  <node id="-1636" visible="true" lat="43.83035623" lon="-72.56990628">
    <tag k="addr:housenumber" v="6188"/>
    <tag k="addr:street" v="Vermont Route 14"/>
    <tag k="addr:state" v="VT"/>
    <tag k="ref:vcgi:esiteid" v="772341"/>
  </node>
  <node id="-1637" visible="true" lat="43.82659861" lon="-72.5375243">
    <tag k="addr:housenumber" v="3349"/>
    <tag k="addr:street" v="Vermont Route 14"/>
    <tag k="addr:state" v="VT"/>
    <tag k="ref:vcgi:esiteid" v="772342"/>
  </node>
  <node id="-1638" visible="true" lat="43.83046741" lon="-72.56606597">
    <tag k="addr:housenumber" v="60"/>
    <tag k="addr:street" v="Ariel Lane"/>
    <tag k="addr:state" v="VT"/>
    <tag k="ref:vcgi:esiteid" v="772376"/>
  </node>
  <node id="-1639" visible="true" lat="43.83073246" lon="-72.56670194">
    <tag k="addr:housenumber" v="82"/>
    <tag k="addr:street" v="Ariel Lane"/>
    <tag k="addr:state" v="VT"/>
    <tag k="ref:vcgi:esiteid" v="772377"/>
  </node>
  <node id="-1640" visible="true" lat="43.80325869" lon="-72.58180429">
    <tag k="addr:housenumber" v="1930"/>
    <tag k="addr:street" v="Royalton Hill Road"/>
    <tag k="addr:state" v="VT"/>
    <tag k="ref:vcgi:esiteid" v="772606"/>
  </node>
</osm>
