<?xml version="1.0" encoding="UTF-8"?>
<osm version="0.6" generator="JOSM" upload="false">
  <node id="-6341" visible="true" lat="43.59956946" lon="-72.95612955">
    <tag k="addr:city" v="Rutland"/>
    <tag k="addr:housenumber" v="253"/>
    <tag k="addr:street" v="Stratton Road"/>
    <tag k="addr:state" v="VT"/>
    <tag k="ref:vcgi:esiteid" v="772730"/>
  </node>
  <node id="-6342" visible="true" lat="43.603268" lon="-72.98295515">
    <tag k="addr:city" v="Rutland"/>
    <tag k="addr:housenumber" v="101"/>
    <tag k="addr:street" v="Franklin Street"/>
    <tag k="addr:state" v="VT"/>
    <tag k="ref:vcgi:esiteid" v="772770"/>
  </node>
  <node id="-6343" visible="true" lat="43.60320067" lon="-72.98306153">
    <tag k="addr:city" v="Rutland"/>
    <tag k="addr:housenumber" v="103"/>
    <tag k="addr:street" v="Franklin Street"/>
    <tag k="addr:state" v="VT"/>
    <tag k="ref:vcgi:esiteid" v="772771"/>
  </node>
  <node id="-6344" visible="true" lat="43.60504441" lon="-72.97916124">
    <tag k="addr:city" v="Rutland"/>
    <tag k="addr:housenumber" v="141"/>
    <tag k="addr:street" v="Shopping Plaza Road"/>
    <tag k="addr:state" v="VT"/>
    <tag k="ref:vcgi:esiteid" v="772787"/>
  </node>
  <node id="-6345" visible="true" lat="43.61577996" lon="-72.9536249">
    <tag k="addr:city" v="Rutland"/>
    <tag k="addr:housenumber" v="36"/>
    <tag k="addr:street" v="Victor Place"/>
    <tag k="addr:state" v="VT"/>
    <tag k="ref:vcgi:esiteid" v="772899"/>
  </node>
</osm>
