<?xml version="1.0" encoding="UTF-8"?>
<osm version="0.6" generator="JOSM" upload="false">
  <node id="-508" visible="true" lat="44.18932716" lon="-72.14288108">
    <tag k="addr:housenumber" v="1429"/>
    <tag k="addr:street" v="Creamery Road"/>
    <tag k="addr:state" v="VT"/>
    <tag k="ref:vcgi:esiteid" v="215927"/>
  </node>
  <node id="-698" visible="true" lat="44.16241331" lon="-72.0493653">
    <tag k="addr:housenumber" v="419"/>
    <tag k="addr:street" v="Ryegate Road"/>
    <tag k="addr:state" v="VT"/>
    <tag k="ref:vcgi:esiteid" v="216125"/>
  </node>
  <node id="-804" visible="true" lat="44.20875728" lon="-72.15104422">
    <tag k="addr:housenumber" v="62"/>
    <tag k="addr:street" v="Welch Drive"/>
    <tag k="addr:state" v="VT"/>
    <tag k="ref:vcgi:esiteid" v="646577"/>
  </node>
  <node id="-827" visible="true" lat="44.21302079" lon="-72.08156518">
    <tag k="addr:housenumber" v="550"/>
    <tag k="addr:street" v="Nelson Drive"/>
    <tag k="addr:state" v="VT"/>
    <tag k="ref:vcgi:esiteid" v="771303"/>
  </node>
</osm>
