<?xml version="1.0" encoding="UTF-8"?>
<osm version="0.6" generator="JOSM" upload="false">
  <node id="-1118" visible="true" lat="43.92650634" lon="-73.12997813">
    <tag k="addr:city" v="Salisbury"/>
    <tag k="addr:housenumber" v="362"/>
    <tag k="addr:street" v="Middle Road"/>
    <tag k="addr:state" v="VT"/>
    <tag k="ref:vcgi:esiteid" v="646487"/>
  </node>
  <node id="-1119" visible="true" lat="43.88671586" lon="-73.15715624">
    <tag k="addr:city" v="Salisbury"/>
    <tag k="addr:housenumber" v="2231"/>
    <tag k="addr:street" v="Dewey Road"/>
    <tag k="addr:state" v="VT"/>
    <tag k="ref:vcgi:esiteid" v="646528"/>
  </node>
  <node id="-1120" visible="true" lat="43.88736761" lon="-73.15559361">
    <tag k="addr:city" v="Salisbury"/>
    <tag k="addr:housenumber" v="2233"/>
    <tag k="addr:street" v="Dewey Road"/>
    <tag k="addr:state" v="VT"/>
    <tag k="ref:vcgi:esiteid" v="646529"/>
  </node>
  <node id="-1121" visible="true" lat="43.92527313" lon="-73.08141699">
    <tag k="addr:city" v="Salisbury"/>
    <tag k="addr:housenumber" v="1865"/>
    <tag k="addr:street" v="Lake Dunmore Road"/>
    <tag k="addr:state" v="VT"/>
    <tag k="ref:vcgi:esiteid" v="646643"/>
  </node>
  <node id="-1131" visible="true" lat="43.92125993" lon="-73.14891139">
    <tag k="addr:city" v="Salisbury"/>
    <tag k="addr:housenumber" v="2790"/>
    <tag k="addr:street" v="West Salisbury Road"/>
    <tag k="addr:state" v="VT"/>
    <tag k="ref:vcgi:esiteid" v="656479"/>
  </node>
  <node id="-1187" visible="true" lat="43.90283522" lon="-73.08672767">
    <tag k="addr:city" v="Salisbury"/>
    <tag k="addr:housenumber" v="1255"/>
    <tag k="addr:street" v="West Shore Road"/>
    <tag k="addr:state" v="VT"/>
    <tag k="ref:vcgi:esiteid" v="772288"/>
  </node>
  <node id="-1188" visible="true" lat="43.94265719" lon="-73.11201422">
    <tag k="addr:city" v="Salisbury"/>
    <tag k="addr:housenumber" v="1010"/>
    <tag k="addr:street" v="U.S. Route 7"/>
    <tag k="addr:state" v="VT"/>
    <tag k="ref:vcgi:esiteid" v="772289"/>
  </node>
</osm>
