<?xml version="1.0" encoding="UTF-8"?>
<osm version="0.6" generator="JOSM" upload="false">
  <node id="-901" visible="true" lat="43.9126046" lon="-73.27566225">
    <tag k="addr:housenumber" v="2115"/>
    <tag k="addr:street" v="Quiet Valley Road"/>
    <tag k="addr:state" v="VT"/>
    <tag k="ref:vcgi:esiteid" v="770606"/>
  </node>
  <node id="-904" visible="true" lat="43.92901743" lon="-73.29278015">
    <tag k="addr:housenumber" v="138"/>
    <tag k="addr:street" v="Elmendorf Road"/>
    <tag k="addr:state" v="VT"/>
    <tag k="ref:vcgi:esiteid" v="771434"/>
  </node>
  <node id="-905" visible="true" lat="43.89332476" lon="-73.31490399">
    <tag k="addr:housenumber" v="287"/>
    <tag k="addr:street" v="Main Street"/>
    <tag k="addr:state" v="VT"/>
    <tag k="ref:vcgi:esiteid" v="771721"/>
  </node>
  <node id="-906" visible="true" lat="43.89295881" lon="-73.31300676">
    <tag k="addr:housenumber" v="85"/>
    <tag k="addr:street" v="Firehouse Road"/>
    <tag k="addr:state" v="VT"/>
    <tag k="ref:vcgi:esiteid" v="771722"/>
  </node>
  <node id="-907" visible="true" lat="43.89253645" lon="-73.31316703">
    <tag k="addr:housenumber" v="87"/>
    <tag k="addr:street" v="Firehouse Road"/>
    <tag k="addr:state" v="VT"/>
    <tag k="ref:vcgi:esiteid" v="771723"/>
  </node>
  <node id="-908" visible="true" lat="43.91204785" lon="-73.27572307">
    <tag k="addr:housenumber" v="2113"/>
    <tag k="addr:street" v="Quiet Valley Road"/>
    <tag k="addr:state" v="VT"/>
    <tag k="ref:vcgi:esiteid" v="771776"/>
  </node>
  <node id="-909" visible="true" lat="43.9123156" lon="-73.2759859">
    <tag k="addr:housenumber" v="2111"/>
    <tag k="addr:street" v="Quiet Valley Road"/>
    <tag k="addr:state" v="VT"/>
    <tag k="ref:vcgi:esiteid" v="771777"/>
  </node>
  <node id="-911" visible="true" lat="43.87615332" lon="-73.32441645">
    <tag k="addr:housenumber" v="650"/>
    <tag k="addr:street" v="Harrington Hill Road"/>
    <tag k="addr:state" v="VT"/>
    <tag k="ref:vcgi:esiteid" v="772699"/>
  </node>
</osm>
