<?xml version="1.0" encoding="UTF-8"?>
<osm version="0.6" generator="JOSM" upload="false">
  <node id="-4254" visible="true" lat="43.24977299" lon="-72.50304983">
    <tag k="addr:housenumber" v="565"/>
    <tag k="addr:street" v="Dutton Farm Road"/>
    <tag k="addr:state" v="VT"/>
    <tag k="ref:vcgi:esiteid" v="772768"/>
  </node>
  <node id="-4255" visible="true" lat="43.25272367" lon="-72.50282042">
    <tag k="addr:housenumber" v="375"/>
    <tag k="addr:street" v="Dutton Farm Road"/>
    <tag k="addr:state" v="VT"/>
    <tag k="ref:vcgi:esiteid" v="772769"/>
  </node>
  <node id="-4256" visible="true" lat="43.27948" lon="-72.44069195">
    <tag k="addr:housenumber" v="660"/>
    <tag k="addr:street" v="Spencer Hollow Road"/>
    <tag k="addr:state" v="VT"/>
    <tag k="ref:vcgi:esiteid" v="772798"/>
  </node>
  <node id="-4257" visible="true" lat="43.31560709" lon="-72.50549973">
    <tag k="addr:housenumber" v="109"/>
    <tag k="addr:street" v="Fairground Road"/>
    <tag k="addr:state" v="VT"/>
    <tag k="ref:vcgi:esiteid" v="772921"/>
  </node>
</osm>
