<?xml version="1.0" encoding="UTF-8"?>
<osm version="0.6" generator="JOSM" upload="false">
  <node id="-692" visible="true" lat="44.48854433" lon="-72.73092673">
    <tag k="addr:city" v="Stowe"/>
    <tag k="addr:housenumber" v="44"/>
    <tag k="addr:street" v="Talta Lodge Way"/>
    <tag k="addr:state" v="VT"/>
    <tag k="ref:vcgi:esiteid" v="249998"/>
  </node>
  <node id="-3237" visible="true" lat="44.47773943" lon="-72.66674253">
    <tag k="addr:city" v="Stowe"/>
    <tag k="addr:housenumber" v="7"/>
    <tag k="addr:street" v="Brinkerhoff Lane"/>
    <tag k="addr:state" v="VT"/>
    <tag k="ref:vcgi:esiteid" v="449480"/>
  </node>
  <node id="-3561" visible="true" lat="44.45508325" lon="-72.75778418">
    <tag k="addr:city" v="Stowe"/>
    <tag k="addr:housenumber" v="1171"/>
    <tag k="addr:street" v="Nebraska Valley Road"/>
    <tag k="addr:state" v="VT"/>
    <tag k="ref:vcgi:esiteid" v="646482"/>
  </node>
  <node id="-3562" visible="true" lat="44.44647517" lon="-72.64592783">
    <tag k="addr:city" v="Stowe"/>
    <tag k="addr:housenumber" v="1243"/>
    <tag k="addr:street" v="North Hollow Road"/>
    <tag k="addr:state" v="VT"/>
    <tag k="ref:vcgi:esiteid" v="646509"/>
  </node>
  <node id="-3563" visible="true" lat="44.4986173" lon="-72.72949606">
    <tag k="addr:city" v="Stowe"/>
    <tag k="addr:housenumber" v="738"/>
    <tag k="addr:street" v="Edson Hill Road"/>
    <tag k="addr:state" v="VT"/>
    <tag k="ref:vcgi:esiteid" v="646518"/>
  </node>
  <node id="-3564" visible="true" lat="44.50289833" lon="-72.65566259">
    <tag k="addr:city" v="Stowe"/>
    <tag k="addr:housenumber" v="1463"/>
    <tag k="addr:street" v="Stagecoach Road"/>
    <tag k="addr:state" v="VT"/>
    <tag k="ref:vcgi:esiteid" v="646573"/>
  </node>
  <node id="-3565" visible="true" lat="44.4968181" lon="-72.74861499">
    <tag k="addr:city" v="Stowe"/>
    <tag k="addr:housenumber" v="186"/>
    <tag k="addr:street" v="West Branch Lane Extension"/>
    <tag k="addr:state" v="VT"/>
    <tag k="ref:vcgi:esiteid" v="646576"/>
  </node>
  <node id="-3566" visible="true" lat="44.47817902" lon="-72.65591335">
    <tag k="addr:city" v="Stowe"/>
    <tag k="addr:housenumber" v="335"/>
    <tag k="addr:street" v="Dogwood Springs"/>
    <tag k="addr:state" v="VT"/>
    <tag k="ref:vcgi:esiteid" v="646581"/>
  </node>
  <node id="-3567" visible="true" lat="44.4602717" lon="-72.76142743">
    <tag k="addr:city" v="Stowe"/>
    <tag k="addr:housenumber" v="84"/>
    <tag k="addr:street" v="Sugar Bush Lane"/>
    <tag k="addr:state" v="VT"/>
    <tag k="ref:vcgi:esiteid" v="646620"/>
  </node>
  <node id="-3579" visible="true" lat="44.47734386" lon="-72.68893279">
    <tag k="addr:city" v="Stowe"/>
    <tag k="addr:housenumber" v="41"/>
    <tag k="addr:street" v="Mayo Farm Road"/>
    <tag k="addr:state" v="VT"/>
    <tag k="ref:vcgi:esiteid" v="654884"/>
  </node>
  <node id="-3608" visible="true" lat="44.4511751" lon="-72.70403231">
    <tag k="addr:city" v="Stowe"/>
    <tag k="addr:housenumber" v="23"/>
    <tag k="addr:street" v="Willow Tree Lane"/>
    <tag k="addr:state" v="VT"/>
    <tag k="ref:vcgi:esiteid" v="655851"/>
  </node>
  <node id="-3879" visible="true" lat="44.47922599" lon="-72.72273646">
    <tag k="addr:city" v="Stowe"/>
    <tag k="addr:housenumber" v="52"/>
    <tag k="addr:street" v="Slate Hill"/>
    <tag k="addr:state" v="VT"/>
    <tag k="ref:vcgi:esiteid" v="769328"/>
  </node>
  <node id="-3880" visible="true" lat="44.47976199" lon="-72.72299546">
    <tag k="addr:city" v="Stowe"/>
    <tag k="addr:housenumber" v="87"/>
    <tag k="addr:street" v="Slate Hill"/>
    <tag k="addr:state" v="VT"/>
    <tag k="ref:vcgi:esiteid" v="769329"/>
  </node>
  <node id="-3886" visible="true" lat="44.48837018" lon="-72.7302668">
    <tag k="addr:city" v="Stowe"/>
    <tag k="addr:housenumber" v="92"/>
    <tag k="addr:street" v="Talta Lodge Way"/>
    <tag k="addr:state" v="VT"/>
    <tag k="ref:vcgi:esiteid" v="770753"/>
  </node>
  <node id="-3887" visible="true" lat="44.48832853" lon="-72.7302044">
    <tag k="addr:city" v="Stowe"/>
    <tag k="addr:housenumber" v="96"/>
    <tag k="addr:street" v="Talta Lodge Way"/>
    <tag k="addr:state" v="VT"/>
    <tag k="ref:vcgi:esiteid" v="770754"/>
  </node>
  <node id="-3888" visible="true" lat="44.48829582" lon="-72.73012122">
    <tag k="addr:city" v="Stowe"/>
    <tag k="addr:housenumber" v="100"/>
    <tag k="addr:street" v="Talta Lodge Way"/>
    <tag k="addr:state" v="VT"/>
    <tag k="ref:vcgi:esiteid" v="770755"/>
  </node>
  <node id="-3889" visible="true" lat="44.48824227" lon="-72.73005466">
    <tag k="addr:city" v="Stowe"/>
    <tag k="addr:housenumber" v="104"/>
    <tag k="addr:street" v="Talta Lodge Way"/>
    <tag k="addr:state" v="VT"/>
    <tag k="ref:vcgi:esiteid" v="770756"/>
  </node>
  <node id="-3890" visible="true" lat="44.48823337" lon="-72.72995071">
    <tag k="addr:city" v="Stowe"/>
    <tag k="addr:housenumber" v="108"/>
    <tag k="addr:street" v="Talta Lodge Way"/>
    <tag k="addr:state" v="VT"/>
    <tag k="ref:vcgi:esiteid" v="770757"/>
  </node>
  <node id="-3891" visible="true" lat="44.48810838" lon="-72.72991321">
    <tag k="addr:city" v="Stowe"/>
    <tag k="addr:housenumber" v="130"/>
    <tag k="addr:street" v="Talta Lodge Way"/>
    <tag k="addr:state" v="VT"/>
    <tag k="ref:vcgi:esiteid" v="770758"/>
  </node>
  <node id="-3892" visible="true" lat="44.48804885" lon="-72.72992149">
    <tag k="addr:city" v="Stowe"/>
    <tag k="addr:housenumber" v="134"/>
    <tag k="addr:street" v="Talta Lodge Way"/>
    <tag k="addr:state" v="VT"/>
    <tag k="ref:vcgi:esiteid" v="770759"/>
  </node>
  <node id="-3893" visible="true" lat="44.48798634" lon="-72.7299256">
    <tag k="addr:city" v="Stowe"/>
    <tag k="addr:housenumber" v="138"/>
    <tag k="addr:street" v="Talta Lodge Way"/>
    <tag k="addr:state" v="VT"/>
    <tag k="ref:vcgi:esiteid" v="770760"/>
  </node>
  <node id="-3894" visible="true" lat="44.48793276" lon="-72.72993388">
    <tag k="addr:city" v="Stowe"/>
    <tag k="addr:housenumber" v="142"/>
    <tag k="addr:street" v="Talta Lodge Way"/>
    <tag k="addr:state" v="VT"/>
    <tag k="ref:vcgi:esiteid" v="770761"/>
  </node>
  <node id="-3896" visible="true" lat="44.45153614" lon="-72.68760937">
    <tag k="addr:city" v="Stowe"/>
    <tag k="addr:housenumber" v="340"/>
    <tag k="addr:street" v="Summit View Drive"/>
    <tag k="addr:state" v="VT"/>
    <tag k="ref:vcgi:esiteid" v="771102"/>
  </node>
  <node id="-3897" visible="true" lat="44.47786253" lon="-72.69332914">
    <tag k="addr:city" v="Stowe"/>
    <tag k="addr:housenumber" v="135"/>
    <tag k="addr:street" v="Cape Cod Road"/>
    <tag k="addr:state" v="VT"/>
    <tag k="ref:vcgi:esiteid" v="771114"/>
  </node>
  <node id="-3908" visible="true" lat="44.43723924" lon="-72.7117816">
    <tag k="addr:city" v="Stowe"/>
    <tag k="addr:housenumber" v="88"/>
    <tag k="addr:street" v="Salvas Lane"/>
    <tag k="addr:state" v="VT"/>
    <tag k="ref:vcgi:esiteid" v="771553"/>
  </node>
  <node id="-3909" visible="true" lat="44.47758496" lon="-72.69756355">
    <tag k="addr:city" v="Stowe"/>
    <tag k="addr:housenumber" v="24"/>
    <tag k="addr:street" v="Rivers Edge Lane"/>
    <tag k="addr:state" v="VT"/>
    <tag k="ref:vcgi:esiteid" v="772012"/>
  </node>
  <node id="-3910" visible="true" lat="44.47758166" lon="-72.69732637">
    <tag k="addr:city" v="Stowe"/>
    <tag k="addr:housenumber" v="34"/>
    <tag k="addr:street" v="Rivers Edge Lane"/>
    <tag k="addr:state" v="VT"/>
    <tag k="ref:vcgi:esiteid" v="772013"/>
  </node>
  <node id="-3920" visible="true" lat="44.43585709" lon="-72.70893137">
    <tag k="addr:city" v="Stowe"/>
    <tag k="addr:housenumber" v="2311"/>
    <tag k="addr:street" v="Waterbury Road"/>
    <tag k="addr:state" v="VT"/>
    <tag k="ref:vcgi:esiteid" v="772276"/>
  </node>
  <node id="-3921" visible="true" lat="44.53197309" lon="-72.77702613">
    <tag k="addr:city" v="Stowe"/>
    <tag k="addr:housenumber" v="93"/>
    <tag k="addr:street" v="National Drive"/>
    <tag k="addr:state" v="VT"/>
    <tag k="ref:vcgi:esiteid" v="772277"/>
  </node>
  <node id="-3922" visible="true" lat="44.4780785" lon="-72.66706353">
    <tag k="addr:city" v="Stowe"/>
    <tag k="addr:housenumber" v="22"/>
    <tag k="addr:street" v="Brinkerhoff Lane"/>
    <tag k="addr:state" v="VT"/>
    <tag k="ref:vcgi:esiteid" v="772318"/>
  </node>
  <node id="-3923" visible="true" lat="44.47236764" lon="-72.69119866">
    <tag k="addr:city" v="Stowe"/>
    <tag k="addr:housenumber" v="84"/>
    <tag k="addr:street" v="Double Track Trail"/>
    <tag k="addr:state" v="VT"/>
    <tag k="ref:vcgi:esiteid" v="772524"/>
  </node>
  <node id="-3924" visible="true" lat="44.47231942" lon="-72.69112715">
    <tag k="addr:city" v="Stowe"/>
    <tag k="addr:housenumber" v="92"/>
    <tag k="addr:street" v="Double Track Trail"/>
    <tag k="addr:state" v="VT"/>
    <tag k="ref:vcgi:esiteid" v="772525"/>
  </node>
  <node id="-3925" visible="true" lat="44.47224583" lon="-72.69108873">
    <tag k="addr:city" v="Stowe"/>
    <tag k="addr:housenumber" v="102"/>
    <tag k="addr:street" v="Double Track Trail"/>
    <tag k="addr:state" v="VT"/>
    <tag k="ref:vcgi:esiteid" v="772526"/>
  </node>
  <node id="-3926" visible="true" lat="44.4721829" lon="-72.69102828">
    <tag k="addr:city" v="Stowe"/>
    <tag k="addr:housenumber" v="108"/>
    <tag k="addr:street" v="Double Track Trail"/>
    <tag k="addr:state" v="VT"/>
    <tag k="ref:vcgi:esiteid" v="772527"/>
  </node>
  <node id="-3927" visible="true" lat="44.47210848" lon="-72.69099195">
    <tag k="addr:city" v="Stowe"/>
    <tag k="addr:housenumber" v="112"/>
    <tag k="addr:street" v="Double Track Trail"/>
    <tag k="addr:state" v="VT"/>
    <tag k="ref:vcgi:esiteid" v="772528"/>
  </node>
  <node id="-3928" visible="true" lat="44.47204854" lon="-72.69096931">
    <tag k="addr:city" v="Stowe"/>
    <tag k="addr:housenumber" v="118"/>
    <tag k="addr:street" v="Trailhead Pass"/>
    <tag k="addr:state" v="VT"/>
    <tag k="ref:vcgi:esiteid" v="772529"/>
  </node>
  <node id="-3929" visible="true" lat="44.45750679" lon="-72.66068803">
    <tag k="addr:city" v="Stowe"/>
    <tag k="addr:housenumber" v="1215"/>
    <tag k="addr:street" v="Taber Hill Road"/>
    <tag k="addr:state" v="VT"/>
    <tag k="ref:vcgi:esiteid" v="772535"/>
  </node>
  <node id="-3930" visible="true" lat="44.48899643" lon="-72.67319093">
    <tag k="addr:city" v="Stowe"/>
    <tag k="addr:housenumber" v="459"/>
    <tag k="addr:street" v="Baird Road"/>
    <tag k="addr:state" v="VT"/>
    <tag k="ref:vcgi:esiteid" v="772607"/>
  </node>
  <node id="-3931" visible="true" lat="44.47976356" lon="-72.65501195">
    <tag k="addr:city" v="Stowe"/>
    <tag k="addr:housenumber" v="315"/>
    <tag k="addr:street" v="Dogwood Springs"/>
    <tag k="addr:state" v="VT"/>
    <tag k="ref:vcgi:esiteid" v="772609"/>
  </node>
  <node id="-3932" visible="true" lat="44.49080699" lon="-72.67363433">
    <tag k="addr:city" v="Stowe"/>
    <tag k="addr:housenumber" v="457"/>
    <tag k="addr:street" v="Baird Road"/>
    <tag k="addr:state" v="VT"/>
    <tag k="ref:vcgi:esiteid" v="772611"/>
  </node>
</osm>
