<?xml version="1.0" encoding="UTF-8"?>
<osm version="0.6" generator="JOSM" upload="false">
  <node id="-734" visible="true" lat="43.09326713" lon="-72.88050406">
    <tag k="addr:city" v="Stratton"/>
    <tag k="addr:housenumber" v="254"/>
    <tag k="addr:street" v="Mountain Road"/>
    <tag k="addr:state" v="VT"/>
    <tag k="ref:vcgi:esiteid" v="610579"/>
  </node>
  <node id="-790" visible="true" lat="43.1094212" lon="-72.88822601">
    <tag k="addr:city" v="Stratton"/>
    <tag k="addr:housenumber" v="23"/>
    <tag k="addr:street" v="Margeaux Lane"/>
    <tag k="addr:state" v="VT"/>
    <tag k="ref:vcgi:esiteid" v="772831"/>
  </node>
  <node id="-791" visible="true" lat="43.11021285" lon="-72.88873318">
    <tag k="addr:city" v="Stratton"/>
    <tag k="addr:housenumber" v="25"/>
    <tag k="addr:street" v="Margeaux Lane"/>
    <tag k="addr:state" v="VT"/>
    <tag k="ref:vcgi:esiteid" v="772832"/>
  </node>
  <node id="-792" visible="true" lat="43.11267672" lon="-72.87968367">
    <tag k="addr:city" v="Stratton"/>
    <tag k="addr:housenumber" v="449"/>
    <tag k="addr:street" v="Pikes Falls Road"/>
    <tag k="addr:state" v="VT"/>
    <tag k="ref:vcgi:esiteid" v="772833"/>
  </node>
</osm>
