<?xml version="1.0" encoding="UTF-8"?>
<osm version="0.6" generator="JOSM" upload="false">
  <node id="-770" visible="true" lat="43.05825141" lon="-73.13299252">
    <tag k="addr:housenumber" v="305"/>
    <tag k="addr:street" v="Kansas Road"/>
    <tag k="addr:state" v="VT"/>
    <tag k="ref:vcgi:esiteid" v="771100"/>
  </node>
  <node id="-771" visible="true" lat="43.09262425" lon="-73.13403798">
    <tag k="addr:housenumber" v="444"/>
    <tag k="addr:street" v="Hideaway Lane"/>
    <tag k="addr:state" v="VT"/>
    <tag k="ref:vcgi:esiteid" v="771525"/>
  </node>
  <node id="-772" visible="true" lat="43.0779007" lon="-73.10895946">
    <tag k="addr:housenumber" v="1526"/>
    <tag k="addr:street" v="North Road"/>
    <tag k="addr:state" v="VT"/>
    <tag k="ref:vcgi:esiteid" v="771771"/>
  </node>
  <node id="-788" visible="true" lat="43.10277473" lon="-73.10402829">
    <tag k="addr:housenumber" v="227"/>
    <tag k="addr:street" v="Alden Lane"/>
    <tag k="addr:state" v="VT"/>
    <tag k="ref:vcgi:esiteid" v="772058"/>
  </node>
  <node id="-789" visible="true" lat="43.05952959" lon="-73.12328103">
    <tag k="addr:housenumber" v="815"/>
    <tag k="addr:street" v="Kansas Road"/>
    <tag k="addr:state" v="VT"/>
    <tag k="ref:vcgi:esiteid" v="772059"/>
  </node>
  <node id="-790" visible="true" lat="43.09775696" lon="-73.10092021">
    <tag k="addr:housenumber" v="616"/>
    <tag k="addr:street" v="Alden Lane"/>
    <tag k="addr:state" v="VT"/>
    <tag k="ref:vcgi:esiteid" v="772074"/>
  </node>
</osm>
