<?xml version="1.0" encoding="UTF-8"?>
<osm version="0.6" generator="JOSM" upload="false">
  <node id="-894" visible="true" lat="44.08138032" lon="-72.22652616">
    <tag k="addr:housenumber" v="36"/>
    <tag k="addr:street" v="Stryker Road"/>
    <tag k="addr:state" v="VT"/>
    <tag k="ref:vcgi:esiteid" v="771192"/>
  </node>
  <node id="-895" visible="true" lat="44.1186659" lon="-72.3021872">
    <tag k="addr:housenumber" v="38"/>
    <tag k="addr:street" v="Zion Hill Road"/>
    <tag k="addr:state" v="VT"/>
    <tag k="ref:vcgi:esiteid" v="771193"/>
  </node>
  <node id="-896" visible="true" lat="44.12481598" lon="-72.21056712">
    <tag k="addr:housenumber" v="29"/>
    <tag k="addr:street" v="Clayton Mickels Drive"/>
    <tag k="addr:state" v="VT"/>
    <tag k="ref:vcgi:esiteid" v="771209"/>
  </node>
  <node id="-897" visible="true" lat="44.10227291" lon="-72.26081584">
    <tag k="addr:housenumber" v="13"/>
    <tag k="addr:street" v="Spooner Road"/>
    <tag k="addr:state" v="VT"/>
    <tag k="ref:vcgi:esiteid" v="771255"/>
  </node>
  <node id="-899" visible="true" lat="44.13205701" lon="-72.30876524">
    <tag k="addr:housenumber" v="97"/>
    <tag k="addr:street" v="Crossroad"/>
    <tag k="addr:state" v="VT"/>
    <tag k="ref:vcgi:esiteid" v="771738"/>
  </node>
  <node id="-900" visible="true" lat="44.1305559" lon="-72.21392885">
    <tag k="addr:housenumber" v="18"/>
    <tag k="addr:street" v="Johnny Road"/>
    <tag k="addr:state" v="VT"/>
    <tag k="ref:vcgi:esiteid" v="771739"/>
  </node>
  <node id="-901" visible="true" lat="44.14593559" lon="-72.28872546">
    <tag k="addr:housenumber" v="142"/>
    <tag k="addr:street" v="Willey Hill Road"/>
    <tag k="addr:state" v="VT"/>
    <tag k="ref:vcgi:esiteid" v="771780"/>
  </node>
  <node id="-902" visible="true" lat="44.08547056" lon="-72.27073102">
    <tag k="addr:housenumber" v="18"/>
    <tag k="addr:street" v="Watson Hill Road"/>
    <tag k="addr:state" v="VT"/>
    <tag k="ref:vcgi:esiteid" v="771881"/>
  </node>
  <node id="-903" visible="true" lat="44.08445507" lon="-72.2721473">
    <tag k="addr:housenumber" v="80"/>
    <tag k="addr:street" v="Vermont Route 25"/>
    <tag k="addr:state" v="VT"/>
    <tag k="ref:vcgi:esiteid" v="771882"/>
  </node>
  <node id="-904" visible="true" lat="44.1174713" lon="-72.31019813">
    <tag k="addr:housenumber" v="15"/>
    <tag k="addr:street" v="Halls Hill"/>
    <tag k="addr:state" v="VT"/>
    <tag k="ref:vcgi:esiteid" v="771883"/>
  </node>
  <node id="-905" visible="true" lat="44.14594538" lon="-72.2542413">
    <tag k="addr:housenumber" v="140"/>
    <tag k="addr:street" v="Downing Road"/>
    <tag k="addr:state" v="VT"/>
    <tag k="ref:vcgi:esiteid" v="771884"/>
  </node>
  <node id="-906" visible="true" lat="44.07831007" lon="-72.22664421">
    <tag k="addr:housenumber" v="15"/>
    <tag k="addr:street" v="Stryker Road"/>
    <tag k="addr:state" v="VT"/>
    <tag k="ref:vcgi:esiteid" v="772365"/>
  </node>
  <node id="-907" visible="true" lat="44.14522675" lon="-72.27798852">
    <tag k="addr:housenumber" v="24"/>
    <tag k="addr:street" v="Territory Road"/>
    <tag k="addr:state" v="VT"/>
    <tag k="ref:vcgi:esiteid" v="772366"/>
  </node>
  <node id="-908" visible="true" lat="44.12576777" lon="-72.25543864">
    <tag k="addr:housenumber" v="197"/>
    <tag k="addr:street" v="Ben Dexter Road"/>
    <tag k="addr:state" v="VT"/>
    <tag k="ref:vcgi:esiteid" v="772367"/>
  </node>
</osm>
