<?xml version="1.0" encoding="UTF-8"?>
<osm version="0.6" generator="JOSM" upload="false">
  <node id="-824" visible="true" lat="43.03525461" lon="-72.64183974">
    <tag k="addr:housenumber" v="214"/>
    <tag k="addr:street" v="Pine Acres Road"/>
    <tag k="addr:state" v="VT"/>
    <tag k="ref:vcgi:esiteid" v="261708"/>
  </node>
  <node id="-914" visible="true" lat="43.0374485" lon="-72.66931694">
    <tag k="addr:housenumber" v="279"/>
    <tag k="addr:street" v="Depot Road"/>
    <tag k="addr:state" v="VT"/>
    <tag k="ref:vcgi:esiteid" v="365689"/>
  </node>
  <node id="-949" visible="true" lat="43.02628459" lon="-72.66434659">
    <tag k="addr:housenumber" v="491"/>
    <tag k="addr:street" v="State Forest Road"/>
    <tag k="addr:state" v="VT"/>
    <tag k="ref:vcgi:esiteid" v="646537"/>
  </node>
  <node id="-950" visible="true" lat="43.0286203" lon="-72.63566243">
    <tag k="addr:housenumber" v="47"/>
    <tag k="addr:street" v="Jamie Lane"/>
    <tag k="addr:state" v="VT"/>
    <tag k="ref:vcgi:esiteid" v="646641"/>
  </node>
  <node id="-951" visible="true" lat="43.05523367" lon="-72.66803456">
    <tag k="addr:housenumber" v="164"/>
    <tag k="addr:street" v="Ober Hill Road"/>
    <tag k="addr:state" v="VT"/>
    <tag k="ref:vcgi:esiteid" v="646703"/>
  </node>
  <node id="-952" visible="true" lat="43.04576499" lon="-72.66314306">
    <tag k="addr:housenumber" v="116"/>
    <tag k="addr:street" v="Bellstrom Lane"/>
    <tag k="addr:state" v="VT"/>
    <tag k="ref:vcgi:esiteid" v="646704"/>
  </node>
  <node id="-956" visible="true" lat="43.09991584" lon="-72.70658118">
    <tag k="addr:housenumber" v="159"/>
    <tag k="addr:street" v="Lawrence Drive"/>
    <tag k="addr:state" v="VT"/>
    <tag k="ref:vcgi:esiteid" v="656445"/>
  </node>
  <node id="-1300" visible="true" lat="43.12803002" lon="-72.64032415">
    <tag k="addr:housenumber" v="3500"/>
    <tag k="addr:street" v="Townshend Road"/>
    <tag k="addr:state" v="VT"/>
    <tag k="ref:vcgi:esiteid" v="770916"/>
  </node>
  <node id="-1303" visible="true" lat="43.03786733" lon="-72.62282477">
    <tag k="addr:housenumber" v="225"/>
    <tag k="addr:street" v="Quackenbush Lane"/>
    <tag k="addr:state" v="VT"/>
    <tag k="ref:vcgi:esiteid" v="772109"/>
  </node>
  <node id="-1304" visible="true" lat="43.03680407" lon="-72.6414492">
    <tag k="addr:housenumber" v="122"/>
    <tag k="addr:street" v="Pine Acres Road"/>
    <tag k="addr:state" v="VT"/>
    <tag k="ref:vcgi:esiteid" v="772317"/>
  </node>
  <node id="-1305" visible="true" lat="43.02613658" lon="-72.65949726">
    <tag k="addr:housenumber" v="300"/>
    <tag k="addr:street" v="Riverdale Road"/>
    <tag k="addr:state" v="VT"/>
    <tag k="ref:vcgi:esiteid" v="772610"/>
  </node>
</osm>
