<?xml version="1.0" encoding="UTF-8"?>
<osm version="0.6" generator="JOSM" upload="false">
  <node id="-1042" visible="true" lat="44.99861497" lon="-72.36645611">
    <tag k="addr:housenumber" v="1331"/>
    <tag k="addr:street" v="Bear Mountain Road"/>
    <tag k="addr:state" v="VT"/>
    <tag k="ref:vcgi:esiteid" v="771501"/>
  </node>
  <node id="-1043" visible="true" lat="44.90521888" lon="-72.40673678">
    <tag k="addr:housenumber" v="52"/>
    <tag k="addr:street" v="South Pleasant Street"/>
    <tag k="addr:state" v="VT"/>
    <tag k="ref:vcgi:esiteid" v="771576"/>
  </node>
  <node id="-1044" visible="true" lat="44.91453863" lon="-72.3841657">
    <tag k="addr:housenumber" v="5576"/>
    <tag k="addr:street" v="Vermont Route 100"/>
    <tag k="addr:state" v="VT"/>
    <tag k="ref:vcgi:esiteid" v="771783"/>
  </node>
  <node id="-1045" visible="true" lat="44.95313476" lon="-72.37932602">
    <tag k="addr:housenumber" v="699"/>
    <tag k="addr:street" v="Bergeron Road"/>
    <tag k="addr:state" v="VT"/>
    <tag k="ref:vcgi:esiteid" v="771860"/>
  </node>
  <node id="-1046" visible="true" lat="44.95248754" lon="-72.37416416">
    <tag k="addr:housenumber" v="990"/>
    <tag k="addr:street" v="Bergeron Road"/>
    <tag k="addr:state" v="VT"/>
    <tag k="ref:vcgi:esiteid" v="771861"/>
  </node>
  <node id="-1047" visible="true" lat="44.96372077" lon="-72.40650689">
    <tag k="addr:housenumber" v="353"/>
    <tag k="addr:street" v="Veilleux Road"/>
    <tag k="addr:state" v="VT"/>
    <tag k="ref:vcgi:esiteid" v="771921"/>
  </node>
  <node id="-1048" visible="true" lat="44.98167041" lon="-72.40505697">
    <tag k="addr:housenumber" v="321"/>
    <tag k="addr:street" v="Vincent Road"/>
    <tag k="addr:state" v="VT"/>
    <tag k="ref:vcgi:esiteid" v="772111"/>
  </node>
</osm>
