<?xml version="1.0" encoding="UTF-8"?>
<osm version="0.6" generator="JOSM" upload="false">
  <node id="-1001" visible="true" lat="43.88240986" lon="-72.48795455">
    <tag k="addr:housenumber" v="43"/>
    <tag k="addr:street" v="Potash Hill Road"/>
    <tag k="addr:state" v="VT"/>
    <tag k="ref:vcgi:esiteid" v="772747"/>
  </node>
  <node id="-1002" visible="true" lat="43.92878366" lon="-72.41292536">
    <tag k="addr:housenumber" v="78"/>
    <tag k="addr:street" v="Quarry Road"/>
    <tag k="addr:state" v="VT"/>
    <tag k="ref:vcgi:esiteid" v="772748"/>
  </node>
  <node id="-1003" visible="true" lat="43.88318997" lon="-72.53732586">
    <tag k="addr:housenumber" v="160"/>
    <tag k="addr:street" v="Ward Hill Road"/>
    <tag k="addr:state" v="VT"/>
    <tag k="ref:vcgi:esiteid" v="772749"/>
  </node>
  <node id="-1004" visible="true" lat="43.86746805" lon="-72.49222272">
    <tag k="addr:housenumber" v="43"/>
    <tag k="addr:street" v="Belknap Brook Road"/>
    <tag k="addr:state" v="VT"/>
    <tag k="ref:vcgi:esiteid" v="772750"/>
  </node>
  <node id="-1005" visible="true" lat="43.87747636" lon="-72.55257241">
    <tag k="addr:housenumber" v="73"/>
    <tag k="addr:street" v="Clay White Hill Road"/>
    <tag k="addr:state" v="VT"/>
    <tag k="ref:vcgi:esiteid" v="772751"/>
  </node>
  <node id="-1006" visible="true" lat="43.90351117" lon="-72.49177334">
    <tag k="addr:housenumber" v="58"/>
    <tag k="addr:street" v="Monarch Hill Road"/>
    <tag k="addr:state" v="VT"/>
    <tag k="ref:vcgi:esiteid" v="772752"/>
  </node>
  <node id="-1007" visible="true" lat="43.90652553" lon="-72.49703078">
    <tag k="addr:housenumber" v="86"/>
    <tag k="addr:street" v="Monarch Hill Road"/>
    <tag k="addr:state" v="VT"/>
    <tag k="ref:vcgi:esiteid" v="772753"/>
  </node>
  <node id="-1008" visible="true" lat="43.9381898" lon="-72.49027301">
    <tag k="addr:housenumber" v="250"/>
    <tag k="addr:street" v="Whitney Hill Road"/>
    <tag k="addr:state" v="VT"/>
    <tag k="ref:vcgi:esiteid" v="772843"/>
  </node>
  <node id="-1009" visible="true" lat="43.92290212" lon="-72.51453339">
    <tag k="addr:housenumber" v="235"/>
    <tag k="addr:street" v="Monarch Hill Road"/>
    <tag k="addr:state" v="VT"/>
    <tag k="ref:vcgi:esiteid" v="772919"/>
  </node>
</osm>
