<?xml version="1.0" encoding="UTF-8"?>
<osm version="0.6" generator="JOSM" upload="false">
  <node id="-1007" visible="true" lat="44.20276592" lon="-72.80282656">
    <tag k="addr:city" v="Waitsfield"/>
    <tag k="addr:housenumber" v="320"/>
    <tag k="addr:street" v="Tremblay Road"/>
    <tag k="addr:state" v="VT"/>
    <tag k="ref:vcgi:esiteid" v="268339"/>
  </node>
  <node id="-1169" visible="true" lat="44.19227086" lon="-72.82640363">
    <tag k="addr:city" v="Waitsfield"/>
    <tag k="addr:housenumber" v="153"/>
    <tag k="addr:street" v="Mehuron Drive"/>
    <tag k="addr:state" v="VT"/>
    <tag k="ref:vcgi:esiteid" v="646489"/>
  </node>
  <node id="-1275" visible="true" lat="44.20790383" lon="-72.80572444">
    <tag k="addr:city" v="Waitsfield"/>
    <tag k="addr:housenumber" v="72"/>
    <tag k="addr:street" v="Logan Lane"/>
    <tag k="addr:state" v="VT"/>
    <tag k="ref:vcgi:esiteid" v="767124"/>
  </node>
  <node id="-1276" visible="true" lat="44.20793404" lon="-72.80663134">
    <tag k="addr:city" v="Waitsfield"/>
    <tag k="addr:housenumber" v="96"/>
    <tag k="addr:street" v="Logan Lane"/>
    <tag k="addr:state" v="VT"/>
    <tag k="ref:vcgi:esiteid" v="767125"/>
  </node>
  <node id="-1277" visible="true" lat="44.20703689" lon="-72.80489879">
    <tag k="addr:city" v="Waitsfield"/>
    <tag k="addr:housenumber" v="21"/>
    <tag k="addr:street" v="Logan Lane"/>
    <tag k="addr:state" v="VT"/>
    <tag k="ref:vcgi:esiteid" v="767126"/>
  </node>
  <node id="-1278" visible="true" lat="44.20745281" lon="-72.80496614">
    <tag k="addr:city" v="Waitsfield"/>
    <tag k="addr:housenumber" v="37"/>
    <tag k="addr:street" v="Logan Lane"/>
    <tag k="addr:state" v="VT"/>
    <tag k="ref:vcgi:esiteid" v="767127"/>
  </node>
  <node id="-1291" visible="true" lat="44.22145002" lon="-72.78311246">
    <tag k="addr:city" v="Waitsfield"/>
    <tag k="addr:housenumber" v="2411"/>
    <tag k="addr:street" v="North Road"/>
    <tag k="addr:state" v="VT"/>
    <tag k="ref:vcgi:esiteid" v="771807"/>
  </node>
  <node id="-1292" visible="true" lat="44.20535339" lon="-72.80871515">
    <tag k="addr:city" v="Waitsfield"/>
    <tag k="addr:housenumber" v="3104"/>
    <tag k="addr:street" v="Main Street"/>
    <tag k="addr:state" v="VT"/>
    <tag k="ref:vcgi:esiteid" v="772000"/>
  </node>
  <node id="-1293" visible="true" lat="44.20562376" lon="-72.80806399">
    <tag k="addr:city" v="Waitsfield"/>
    <tag k="addr:housenumber" v="3106"/>
    <tag k="addr:street" v="Main Street"/>
    <tag k="addr:state" v="VT"/>
    <tag k="ref:vcgi:esiteid" v="772001"/>
  </node>
</osm>
