<?xml version="1.0" encoding="UTF-8"?>
<osm version="0.6" generator="JOSM" upload="false">
  <node id="-607" visible="true" lat="44.08546833" lon="-72.44938406">
    <tag k="addr:housenumber" v="784"/>
    <tag k="addr:street" v="Cyr Heights"/>
    <tag k="addr:state" v="VT"/>
    <tag k="ref:vcgi:esiteid" v="273200"/>
  </node>
  <node id="-732" visible="true" lat="44.05474701" lon="-72.42566128">
    <tag k="addr:housenumber" v="2518"/>
    <tag k="addr:street" v="Pepper Road"/>
    <tag k="addr:state" v="VT"/>
    <tag k="ref:vcgi:esiteid" v="646666"/>
  </node>
  <node id="-767" visible="true" lat="44.07932486" lon="-72.43863899">
    <tag k="addr:housenumber" v="1847"/>
    <tag k="addr:street" v="Turnpike Road"/>
    <tag k="addr:state" v="VT"/>
    <tag k="ref:vcgi:esiteid" v="771137"/>
  </node>
  <node id="-768" visible="true" lat="44.10577689" lon="-72.39590677">
    <tag k="addr:housenumber" v="1821"/>
    <tag k="addr:street" v="Woodchuck Hollow Road"/>
    <tag k="addr:state" v="VT"/>
    <tag k="ref:vcgi:esiteid" v="771993"/>
  </node>
  <node id="-769" visible="true" lat="44.09582008" lon="-72.43067967">
    <tag k="addr:housenumber" v="358"/>
    <tag k="addr:street" v="Hart Hollow Road"/>
    <tag k="addr:state" v="VT"/>
    <tag k="ref:vcgi:esiteid" v="772308"/>
  </node>
</osm>
