<?xml version="1.0" encoding="UTF-8"?>
<osm version="0.6" generator="JOSM" upload="false">
  <node id="-475" visible="true" lat="44.7162701" lon="-72.76094641">
    <tag k="addr:housenumber" v="224"/>
    <tag k="addr:street" v="Cutting Hill"/>
    <tag k="addr:state" v="VT"/>
    <tag k="ref:vcgi:esiteid" v="771467"/>
  </node>
  <node id="-476" visible="true" lat="44.68840439" lon="-72.77971503">
    <tag k="addr:housenumber" v="249"/>
    <tag k="addr:street" v="Twiss Hill"/>
    <tag k="addr:state" v="VT"/>
    <tag k="ref:vcgi:esiteid" v="771580"/>
  </node>
  <node id="-477" visible="true" lat="44.72769266" lon="-72.74060672">
    <tag k="addr:housenumber" v="1098"/>
    <tag k="addr:street" v="Clark Road"/>
    <tag k="addr:state" v="VT"/>
    <tag k="ref:vcgi:esiteid" v="771996"/>
  </node>
  <node id="-479" visible="true" lat="44.71457466" lon="-72.75870515">
    <tag k="addr:housenumber" v="222"/>
    <tag k="addr:street" v="Cutting Hill"/>
    <tag k="addr:state" v="VT"/>
    <tag k="ref:vcgi:esiteid" v="1050806"/>
  </node>
</osm>
