<?xml version="1.0" encoding="UTF-8"?>
<osm version="0.6" generator="JOSM" upload="false">
  <node id="-846" visible="true" lat="44.38564052" lon="-71.93898705">
    <tag k="addr:city" v="Waterford"/>
    <tag k="addr:housenumber" v="358"/>
    <tag k="addr:street" v="Woodland Road"/>
    <tag k="addr:state" v="VT"/>
    <tag k="ref:vcgi:esiteid" v="771297"/>
  </node>
  <node id="-885" visible="true" lat="44.39712986" lon="-71.98254108">
    <tag k="addr:city" v="Waterford"/>
    <tag k="addr:housenumber" v="2301"/>
    <tag k="addr:street" v="Daniels Farm Road"/>
    <tag k="addr:state" v="VT"/>
    <tag k="ref:vcgi:esiteid" v="771893"/>
  </node>
  <node id="-886" visible="true" lat="44.39274778" lon="-71.99635653">
    <tag k="addr:city" v="Waterford"/>
    <tag k="addr:housenumber" v="171"/>
    <tag k="addr:street" v="Hastings Road"/>
    <tag k="addr:state" v="VT"/>
    <tag k="ref:vcgi:esiteid" v="771894"/>
  </node>
  <node id="-887" visible="true" lat="44.39828048" lon="-71.97995864">
    <tag k="addr:city" v="Waterford"/>
    <tag k="addr:housenumber" v="2256"/>
    <tag k="addr:street" v="Daniels Farm Road"/>
    <tag k="addr:state" v="VT"/>
    <tag k="ref:vcgi:esiteid" v="772135"/>
  </node>
  <node id="-888" visible="true" lat="44.35427418" lon="-71.90171806">
    <tag k="addr:city" v="Waterford"/>
    <tag k="addr:housenumber" v="6573"/>
    <tag k="addr:street" v="Vermont Route 18"/>
    <tag k="addr:state" v="VT"/>
    <tag k="ref:vcgi:esiteid" v="772271"/>
  </node>
</osm>
