<?xml version="1.0" encoding="UTF-8"?>
<osm version="0.6" generator="JOSM" upload="false">
  <node id="-248" visible="true" lat="43.41763305" lon="-72.51058197">
    <tag k="addr:housenumber" v="1087"/>
    <tag k="addr:street" v="Little Ascutney Road"/>
    <tag k="addr:state" v="VT"/>
    <tag k="ref:vcgi:esiteid" v="276467"/>
  </node>
  <node id="-1675" visible="true" lat="43.39698732" lon="-72.40764497">
    <tag k="addr:housenumber" v="189"/>
    <tag k="addr:street" v="Lawrence Farm Road"/>
    <tag k="addr:state" v="VT"/>
    <tag k="ref:vcgi:esiteid" v="646654"/>
  </node>
  <node id="-1762" visible="true" lat="43.34893036" lon="-72.46495969">
    <tag k="addr:housenumber" v="29"/>
    <tag k="addr:street" v="West Camp Hill Road"/>
    <tag k="addr:state" v="VT"/>
    <tag k="ref:vcgi:esiteid" v="771975"/>
  </node>
  <node id="-1763" visible="true" lat="43.41979668" lon="-72.4946409">
    <tag k="addr:housenumber" v="134"/>
    <tag k="addr:street" v="Little Ascutney Road"/>
    <tag k="addr:state" v="VT"/>
    <tag k="ref:vcgi:esiteid" v="772640"/>
  </node>
  <node id="-1764" visible="true" lat="43.40319075" lon="-72.42577464">
    <tag k="addr:housenumber" v="46"/>
    <tag k="addr:street" v="Victory Drive"/>
    <tag k="addr:state" v="VT"/>
    <tag k="ref:vcgi:esiteid" v="772695"/>
  </node>
  <node id="-1765" visible="true" lat="43.3980214" lon="-72.48712214">
    <tag k="addr:housenumber" v="1547"/>
    <tag k="addr:street" v="Plains Road"/>
    <tag k="addr:state" v="VT"/>
    <tag k="ref:vcgi:esiteid" v="772696"/>
  </node>
</osm>
