<?xml version="1.0" encoding="UTF-8"?>
<osm version="0.6" generator="JOSM" upload="false">
  <node id="-1407" visible="true" lat="44.56070072" lon="-73.00138525">
    <tag k="addr:housenumber" v="619"/>
    <tag k="addr:street" v="Osgood Hill Road"/>
    <tag k="addr:state" v="VT"/>
    <tag k="ref:vcgi:esiteid" v="646632"/>
  </node>
  <node id="-1454" visible="true" lat="44.5564578" lon="-72.97867234">
    <tag k="addr:housenumber" v="353"/>
    <tag k="addr:street" v="Cilley Hill Road"/>
    <tag k="addr:state" v="VT"/>
    <tag k="ref:vcgi:esiteid" v="771533"/>
  </node>
  <node id="-1455" visible="true" lat="44.58943598" lon="-73.00729816">
    <tag k="addr:housenumber" v="1367"/>
    <tag k="addr:street" v="Vermont Route 128"/>
    <tag k="addr:state" v="VT"/>
    <tag k="ref:vcgi:esiteid" v="771534"/>
  </node>
  <node id="-1458" visible="true" lat="44.57835906" lon="-72.97930007">
    <tag k="addr:housenumber" v="255"/>
    <tag k="addr:street" v="Goodrich Trail"/>
    <tag k="addr:state" v="VT"/>
    <tag k="ref:vcgi:esiteid" v="771826"/>
  </node>
  <node id="-1459" visible="true" lat="44.57997908" lon="-72.96189407">
    <tag k="addr:housenumber" v="326"/>
    <tag k="addr:street" v="Goodrich Trail"/>
    <tag k="addr:state" v="VT"/>
    <tag k="ref:vcgi:esiteid" v="771827"/>
  </node>
  <node id="-1461" visible="true" lat="44.63077346" lon="-72.97909042">
    <tag k="addr:housenumber" v="114"/>
    <tag k="addr:street" v="Kody Way"/>
    <tag k="addr:state" v="VT"/>
    <tag k="ref:vcgi:esiteid" v="772029"/>
  </node>
  <node id="-1462" visible="true" lat="44.63013661" lon="-72.97929292">
    <tag k="addr:housenumber" v="113"/>
    <tag k="addr:street" v="Kody Way"/>
    <tag k="addr:state" v="VT"/>
    <tag k="ref:vcgi:esiteid" v="772030"/>
  </node>
  <node id="-1463" visible="true" lat="44.63017193" lon="-72.97887495">
    <tag k="addr:housenumber" v="107"/>
    <tag k="addr:street" v="Kody Way"/>
    <tag k="addr:state" v="VT"/>
    <tag k="ref:vcgi:esiteid" v="772031"/>
  </node>
</osm>
