<?xml version="1.0" encoding="UTF-8"?>
<osm version="0.6" generator="JOSM" upload="false">
  <node id="-1496" visible="true" lat="43.11435773" lon="-72.46451045">
    <tag k="addr:housenumber" v="1931"/>
    <tag k="addr:street" v="Back Westminster Road"/>
    <tag k="addr:state" v="VT"/>
    <tag k="ref:vcgi:esiteid" v="283851"/>
  </node>
  <node id="-1739" visible="true" lat="43.08183986" lon="-72.5132988">
    <tag k="addr:housenumber" v="248"/>
    <tag k="addr:street" v="Kurkul Road"/>
    <tag k="addr:state" v="VT"/>
    <tag k="ref:vcgi:esiteid" v="646618"/>
  </node>
  <node id="-1788" visible="true" lat="43.11535738" lon="-72.46469225">
    <tag k="addr:housenumber" v="1933"/>
    <tag k="addr:street" v="Back Westminster Road"/>
    <tag k="addr:state" v="VT"/>
    <tag k="ref:vcgi:esiteid" v="771228"/>
  </node>
  <node id="-1789" visible="true" lat="43.12096583" lon="-72.45856989">
    <tag k="addr:housenumber" v="152"/>
    <tag k="addr:street" v="Sunny Meadow Drive"/>
    <tag k="addr:state" v="VT"/>
    <tag k="ref:vcgi:esiteid" v="772098"/>
  </node>
  <node id="-1790" visible="true" lat="43.1230157" lon="-72.47962011">
    <tag k="addr:housenumber" v="331"/>
    <tag k="addr:street" v="Davidson Hill Road"/>
    <tag k="addr:state" v="VT"/>
    <tag k="ref:vcgi:esiteid" v="772117"/>
  </node>
  <node id="-1791" visible="true" lat="43.09050833" lon="-72.53704376">
    <tag k="addr:housenumber" v="5249"/>
    <tag k="addr:street" v="Westminster West Road"/>
    <tag k="addr:state" v="VT"/>
    <tag k="ref:vcgi:esiteid" v="772335"/>
  </node>
  <node id="-1792" visible="true" lat="43.04758809" lon="-72.48429665">
    <tag k="addr:housenumber" v="530"/>
    <tag k="addr:street" v="Sweetwood Hill"/>
    <tag k="addr:state" v="VT"/>
    <tag k="ref:vcgi:esiteid" v="772385"/>
  </node>
</osm>
