<?xml version="1.0" encoding="UTF-8"?>
<osm version="0.6" generator="JOSM" upload="false">
  <node id="-873" visible="true" lat="43.52746385" lon="-72.48817693">
    <tag k="addr:housenumber" v="2292"/>
    <tag k="addr:street" v="Blood Hill Road"/>
    <tag k="addr:state" v="VT"/>
    <tag k="ref:vcgi:esiteid" v="618256"/>
  </node>
  <node id="-939" visible="true" lat="43.4573572" lon="-72.47082687">
    <tag k="addr:housenumber" v="992"/>
    <tag k="addr:street" v="Ski Tow Road"/>
    <tag k="addr:state" v="VT"/>
    <tag k="ref:vcgi:esiteid" v="771309"/>
  </node>
  <node id="-940" visible="true" lat="43.45210636" lon="-72.51815953">
    <tag k="addr:housenumber" v="388"/>
    <tag k="addr:street" v="Churchill Road"/>
    <tag k="addr:state" v="VT"/>
    <tag k="ref:vcgi:esiteid" v="771573"/>
  </node>
  <node id="-941" visible="true" lat="43.48126727" lon="-72.47360656">
    <tag k="addr:housenumber" v="894"/>
    <tag k="addr:street" v="Brownsville-Hartland Road"/>
    <tag k="addr:state" v="VT"/>
    <tag k="ref:vcgi:esiteid" v="772086"/>
  </node>
  <node id="-942" visible="true" lat="43.51445704" lon="-72.50251511">
    <tag k="addr:housenumber" v="955"/>
    <tag k="addr:street" v="Bryant Road"/>
    <tag k="addr:state" v="VT"/>
    <tag k="ref:vcgi:esiteid" v="772141"/>
  </node>
  <node id="-943" visible="true" lat="43.48754766" lon="-72.5090887">
    <tag k="addr:housenumber" v="733"/>
    <tag k="addr:street" v="Banister Road"/>
    <tag k="addr:state" v="VT"/>
    <tag k="ref:vcgi:esiteid" v="772177"/>
  </node>
</osm>
