<?xml version="1.0" encoding="UTF-8"?>
<osm version="0.6" generator="JOSM" upload="false">
  <node id="-668" visible="true" lat="44.58152452" lon="-72.09024945">
    <tag k="addr:housenumber" v="154"/>
    <tag k="addr:street" v="Hudson Drive"/>
    <tag k="addr:state" v="VT"/>
    <tag k="ref:vcgi:esiteid" v="770656"/>
  </node>
  <node id="-673" visible="true" lat="44.5835218" lon="-72.07845606">
    <tag k="addr:housenumber" v="767"/>
    <tag k="addr:street" v="Vermont Route 122"/>
    <tag k="addr:state" v="VT"/>
    <tag k="ref:vcgi:esiteid" v="771711"/>
  </node>
  <node id="-674" visible="true" lat="44.55676268" lon="-72.07054477">
    <tag k="addr:housenumber" v="387"/>
    <tag k="addr:street" v="Townsend Road"/>
    <tag k="addr:state" v="VT"/>
    <tag k="ref:vcgi:esiteid" v="772532"/>
  </node>
  <node id="-675" visible="true" lat="44.58840058" lon="-72.21957696">
    <tag k="addr:housenumber" v="778"/>
    <tag k="addr:street" v="Sparhawk Road"/>
    <tag k="addr:state" v="VT"/>
    <tag k="ref:vcgi:esiteid" v="772712"/>
  </node>
  <node id="-676" visible="true" lat="44.58452666" lon="-72.08736852">
    <tag k="addr:housenumber" v="330"/>
    <tag k="addr:street" v="Peak Road"/>
    <tag k="addr:state" v="VT"/>
    <tag k="ref:vcgi:esiteid" v="772713"/>
  </node>
</osm>
