<?xml version="1.0" encoding="UTF-8"?>
<osm version="0.6" generator="JOSM" upload="false">
  <node id="-233" visible="true" lat="43.83897952" lon="-73.1967412">
    <tag k="addr:city" v="Whiting"/>
    <tag k="addr:housenumber" v="98"/>
    <tag k="addr:street" v="Leno Lane"/>
    <tag k="addr:state" v="VT"/>
    <tag k="ref:vcgi:esiteid" v="286200"/>
  </node>
  <node id="-285" visible="true" lat="43.83917805" lon="-73.19573341">
    <tag k="addr:city" v="Whiting"/>
    <tag k="addr:housenumber" v="50"/>
    <tag k="addr:street" v="Leno Lane"/>
    <tag k="addr:state" v="VT"/>
    <tag k="ref:vcgi:esiteid" v="646491"/>
  </node>
  <node id="-286" visible="true" lat="43.8384352" lon="-73.195615">
    <tag k="addr:city" v="Whiting"/>
    <tag k="addr:housenumber" v="43"/>
    <tag k="addr:street" v="Leno Lane"/>
    <tag k="addr:state" v="VT"/>
    <tag k="ref:vcgi:esiteid" v="646492"/>
  </node>
  <node id="-288" visible="true" lat="43.90409447" lon="-73.2197608">
    <tag k="addr:city" v="Whiting"/>
    <tag k="addr:housenumber" v="74"/>
    <tag k="addr:street" v="Galvin Road"/>
    <tag k="addr:state" v="VT"/>
    <tag k="ref:vcgi:esiteid" v="655813"/>
  </node>
  <node id="-304" visible="true" lat="43.90340894" lon="-73.21956444">
    <tag k="addr:city" v="Whiting"/>
    <tag k="addr:housenumber" v="68"/>
    <tag k="addr:street" v="Galvin Road"/>
    <tag k="addr:state" v="VT"/>
    <tag k="ref:vcgi:esiteid" v="772079"/>
  </node>
  <node id="-305" visible="true" lat="43.90251138" lon="-73.21961003">
    <tag k="addr:city" v="Whiting"/>
    <tag k="addr:housenumber" v="58"/>
    <tag k="addr:street" v="Galvin Road"/>
    <tag k="addr:state" v="VT"/>
    <tag k="ref:vcgi:esiteid" v="772080"/>
  </node>
  <node id="-306" visible="true" lat="43.88729701" lon="-73.23139194">
    <tag k="addr:city" v="Whiting"/>
    <tag k="addr:housenumber" v="316"/>
    <tag k="addr:street" v="Stickney Road"/>
    <tag k="addr:state" v="VT"/>
    <tag k="ref:vcgi:esiteid" v="772596"/>
  </node>
</osm>
