<?xml version="1.0" encoding="UTF-8"?>
<osm version="0.6" generator="JOSM" upload="false">
  <node id="-2455" visible="true" lat="42.92194082" lon="-72.82622786">
    <tag k="addr:city" v="Wilmington"/>
    <tag k="addr:housenumber" v="204"/>
    <tag k="addr:street" v="Smith Road"/>
    <tag k="addr:state" v="VT"/>
    <tag k="ref:vcgi:esiteid" v="453070"/>
  </node>
  <node id="-2489" visible="true" lat="42.91038348" lon="-72.81286211">
    <tag k="addr:city" v="Wilmington"/>
    <tag k="addr:housenumber" v="148"/>
    <tag k="addr:street" v="Brown Road"/>
    <tag k="addr:state" v="VT"/>
    <tag k="ref:vcgi:esiteid" v="454711"/>
  </node>
  <node id="-2519" visible="true" lat="42.90116359" lon="-72.8348991">
    <tag k="addr:city" v="Wilmington"/>
    <tag k="addr:housenumber" v="198"/>
    <tag k="addr:street" v="Higley Hill Road"/>
    <tag k="addr:state" v="VT"/>
    <tag k="ref:vcgi:esiteid" v="617857"/>
  </node>
  <node id="-2520" visible="true" lat="42.90117351" lon="-72.83456304">
    <tag k="addr:city" v="Wilmington"/>
    <tag k="addr:housenumber" v="200"/>
    <tag k="addr:street" v="Higley Hill Road"/>
    <tag k="addr:state" v="VT"/>
    <tag k="ref:vcgi:esiteid" v="617858"/>
  </node>
  <node id="-2532" visible="true" lat="42.88012445" lon="-72.80495625">
    <tag k="addr:city" v="Wilmington"/>
    <tag k="addr:housenumber" v="27"/>
    <tag k="addr:street" v="Old Stage Road Extension"/>
    <tag k="addr:state" v="VT"/>
    <tag k="ref:vcgi:esiteid" v="656439"/>
  </node>
  <node id="-2692" visible="true" lat="42.9201295" lon="-72.88962088">
    <tag k="addr:city" v="Wilmington"/>
    <tag k="addr:housenumber" v="27"/>
    <tag k="addr:street" v="Stags Leap Lane"/>
    <tag k="addr:state" v="VT"/>
    <tag k="ref:vcgi:esiteid" v="771281"/>
  </node>
  <node id="-2693" visible="true" lat="42.88977154" lon="-72.88543449">
    <tag k="addr:city" v="Wilmington"/>
    <tag k="addr:housenumber" v="372"/>
    <tag k="addr:street" v="Ray Hill Road"/>
    <tag k="addr:state" v="VT"/>
    <tag k="ref:vcgi:esiteid" v="771410"/>
  </node>
  <node id="-2694" visible="true" lat="42.83867283" lon="-72.86086752">
    <tag k="addr:city" v="Wilmington"/>
    <tag k="addr:housenumber" v="55"/>
    <tag k="addr:street" v="Riley Boyd Road"/>
    <tag k="addr:state" v="VT"/>
    <tag k="ref:vcgi:esiteid" v="771535"/>
  </node>
  <node id="-2695" visible="true" lat="42.88102851" lon="-72.81596697">
    <tag k="addr:city" v="Wilmington"/>
    <tag k="addr:housenumber" v="411"/>
    <tag k="addr:street" v="Lake Raponda Road"/>
    <tag k="addr:state" v="VT"/>
    <tag k="ref:vcgi:esiteid" v="771709"/>
  </node>
  <node id="-2697" visible="true" lat="42.85422588" lon="-72.82749173">
    <tag k="addr:city" v="Wilmington"/>
    <tag k="addr:housenumber" v="555"/>
    <tag k="addr:street" v="Vermont Route 9 East"/>
    <tag k="addr:state" v="VT"/>
    <tag k="ref:vcgi:esiteid" v="771779"/>
  </node>
  <node id="-2698" visible="true" lat="42.86795469" lon="-72.87765889">
    <tag k="addr:city" v="Wilmington"/>
    <tag k="addr:housenumber" v="25"/>
    <tag k="addr:street" v="Fairview Avenue"/>
    <tag k="addr:state" v="VT"/>
    <tag k="ref:vcgi:esiteid" v="772586"/>
  </node>
  <node id="-2699" visible="true" lat="42.86803011" lon="-72.87774935">
    <tag k="addr:city" v="Wilmington"/>
    <tag k="addr:housenumber" v="27"/>
    <tag k="addr:street" v="Fairview Avenue"/>
    <tag k="addr:state" v="VT"/>
    <tag k="ref:vcgi:esiteid" v="772587"/>
  </node>
  <node id="-2701" visible="true" lat="42.86032764" lon="-72.82742336">
    <tag k="addr:city" v="Wilmington"/>
    <tag k="addr:housenumber" v="64"/>
    <tag k="addr:street" v="Cornell Way"/>
    <tag k="addr:state" v="VT"/>
    <tag k="ref:vcgi:esiteid" v="772721"/>
  </node>
</osm>
