<?xml version="1.0" encoding="UTF-8"?>
<osm version="0.6" generator="JOSM" upload="false">
  <node id="-1336" visible="true" lat="44.49476944" lon="-73.19569879">
    <tag k="addr:city" v="Winooski"/>
    <tag k="addr:housenumber" v="91"/>
    <tag k="addr:street" v="West Street"/>
    <tag k="addr:state" v="VT"/>
    <tag k="ref:vcgi:esiteid" v="299862"/>
  </node>
  <node id="-1520" visible="true" lat="44.49767212" lon="-73.19654803">
    <tag k="addr:city" v="Winooski"/>
    <tag k="addr:housenumber" v="237"/>
    <tag k="addr:street" v="Hickok Street"/>
    <tag k="addr:state" v="VT"/>
    <tag k="ref:vcgi:esiteid" v="300049"/>
  </node>
  <node id="-1963" visible="true" lat="44.49478057" lon="-73.19532245">
    <tag k="addr:city" v="Winooski"/>
    <tag k="addr:housenumber" v="83"/>
    <tag k="addr:street" v="West Street"/>
    <tag k="addr:state" v="VT"/>
    <tag k="ref:vcgi:esiteid" v="771188"/>
  </node>
  <node id="-1964" visible="true" lat="44.49490758" lon="-73.18159901">
    <tag k="addr:city" v="Winooski"/>
    <tag k="addr:housenumber" v="12"/>
    <tag k="addr:street" v="Franklin Street"/>
    <tag k="addr:state" v="VT"/>
    <tag k="ref:vcgi:esiteid" v="771189"/>
  </node>
  <node id="-1965" visible="true" lat="44.49789461" lon="-73.17868754">
    <tag k="addr:city" v="Winooski"/>
    <tag k="addr:housenumber" v="165"/>
    <tag k="addr:street" v="Franklin Street"/>
    <tag k="addr:state" v="VT"/>
    <tag k="ref:vcgi:esiteid" v="771190"/>
  </node>
  <node id="-1966" visible="true" lat="44.49347114" lon="-73.19335361">
    <tag k="addr:city" v="Winooski"/>
    <tag k="addr:housenumber" v="76"/>
    <tag k="addr:street" v="Hickok Street"/>
    <tag k="addr:state" v="VT"/>
    <tag k="ref:vcgi:esiteid" v="771518"/>
  </node>
  <node id="-1967" visible="true" lat="44.49036604" lon="-73.1815332">
    <tag k="addr:city" v="Winooski"/>
    <tag k="addr:housenumber" v="111"/>
    <tag k="addr:street" v="Winooski Falls Way"/>
    <tag k="addr:state" v="VT"/>
    <tag k="ref:vcgi:esiteid" v="771832"/>
  </node>
  <node id="-1968" visible="true" lat="44.49087619" lon="-73.18175513">
    <tag k="addr:city" v="Winooski"/>
    <tag k="addr:housenumber" v="2"/>
    <tag k="addr:street" v="Community Way"/>
    <tag k="addr:state" v="VT"/>
    <tag k="ref:vcgi:esiteid" v="771833"/>
  </node>
  <node id="-1969" visible="true" lat="44.49039335" lon="-73.18133091">
    <tag k="addr:city" v="Winooski"/>
    <tag k="addr:housenumber" v="115"/>
    <tag k="addr:street" v="Winooski Falls Way"/>
    <tag k="addr:state" v="VT"/>
    <tag k="ref:vcgi:esiteid" v="771841"/>
  </node>
  <node id="-1970" visible="true" lat="44.49088054" lon="-73.18127715">
    <tag k="addr:city" v="Winooski"/>
    <tag k="addr:housenumber" v="30"/>
    <tag k="addr:street" v="Community Way"/>
    <tag k="addr:state" v="VT"/>
    <tag k="ref:vcgi:esiteid" v="771842"/>
  </node>
  <node id="-1971" visible="true" lat="44.49059866" lon="-73.18181278">
    <tag k="addr:city" v="Winooski"/>
    <tag k="addr:housenumber" v="59"/>
    <tag k="addr:street" v="Abenaki Way"/>
    <tag k="addr:state" v="VT"/>
    <tag k="ref:vcgi:esiteid" v="771871"/>
  </node>
  <node id="-1972" visible="true" lat="44.49647476" lon="-73.18902745">
    <tag k="addr:city" v="Winooski"/>
    <tag k="addr:housenumber" v="53"/>
    <tag k="addr:street" v="Saint Peter Street"/>
    <tag k="addr:state" v="VT"/>
    <tag k="ref:vcgi:esiteid" v="772500"/>
  </node>
  <node id="-1973" visible="true" lat="44.49452932" lon="-73.18174852">
    <tag k="addr:city" v="Winooski"/>
    <tag k="addr:housenumber" v="5"/>
    <tag k="addr:street" v="Gabes Way"/>
    <tag k="addr:state" v="VT"/>
    <tag k="ref:vcgi:esiteid" v="772501"/>
  </node>
  <node id="-1976" visible="true" lat="44.49458501" lon="-73.18194858">
    <tag k="addr:city" v="Winooski"/>
    <tag k="addr:housenumber" v="17"/>
    <tag k="addr:street" v="Gabes Way"/>
    <tag k="addr:state" v="VT"/>
    <tag k="ref:vcgi:esiteid" v="772504"/>
  </node>
  <node id="-1977" visible="true" lat="44.49667827" lon="-73.18908196">
    <tag k="addr:city" v="Winooski"/>
    <tag k="addr:housenumber" v="51"/>
    <tag k="addr:street" v="Saint Peter Street"/>
    <tag k="addr:state" v="VT"/>
    <tag k="ref:vcgi:esiteid" v="772523"/>
  </node>
  <node id="-1978" visible="true" lat="44.49889242" lon="-73.17996216">
    <tag k="addr:city" v="Winooski"/>
    <tag k="addr:housenumber" v="16A"/>
    <tag k="addr:street" v="George Street"/>
    <tag k="addr:state" v="VT"/>
    <tag k="ref:vcgi:esiteid" v="772531"/>
  </node>
  <node id="-1979" visible="true" lat="44.49417097" lon="-73.1773299">
    <tag k="addr:city" v="Winooski"/>
    <tag k="addr:housenumber" v="39"/>
    <tag k="addr:street" v="Manseau Street"/>
    <tag k="addr:state" v="VT"/>
    <tag k="ref:vcgi:esiteid" v="772726"/>
  </node>
</osm>
