<?xml version="1.0" encoding="UTF-8"?>
<osm version="0.6" generator="JOSM" upload="false">
  <node id="-1061" visible="true" lat="44.62135878" lon="-72.47437851">
    <tag k="addr:city" v="Wolcott"/>
    <tag k="addr:housenumber" v="1046"/>
    <tag k="addr:street" v="Morey Hill Road"/>
    <tag k="addr:state" v="VT"/>
    <tag k="ref:vcgi:esiteid" v="771519"/>
  </node>
  <node id="-1062" visible="true" lat="44.59690883" lon="-72.38585271">
    <tag k="addr:city" v="Wolcott"/>
    <tag k="addr:housenumber" v="215"/>
    <tag k="addr:street" v="Hines Road"/>
    <tag k="addr:state" v="VT"/>
    <tag k="ref:vcgi:esiteid" v="771856"/>
  </node>
  <node id="-1063" visible="true" lat="44.55687" lon="-72.52494304">
    <tag k="addr:city" v="Wolcott"/>
    <tag k="addr:housenumber" v="89"/>
    <tag k="addr:street" v="Walnut Lane"/>
    <tag k="addr:state" v="VT"/>
    <tag k="ref:vcgi:esiteid" v="771857"/>
  </node>
  <node id="-1064" visible="true" lat="44.58258712" lon="-72.47659342">
    <tag k="addr:city" v="Wolcott"/>
    <tag k="addr:housenumber" v="116"/>
    <tag k="addr:street" v="Heath Road"/>
    <tag k="addr:state" v="VT"/>
    <tag k="ref:vcgi:esiteid" v="771999"/>
  </node>
  <node id="-1065" visible="true" lat="44.58962978" lon="-72.49710323">
    <tag k="addr:city" v="Wolcott"/>
    <tag k="addr:housenumber" v="16"/>
    <tag k="addr:street" v="Another Way"/>
    <tag k="addr:state" v="VT"/>
    <tag k="ref:vcgi:esiteid" v="772324"/>
  </node>
  <node id="-1066" visible="true" lat="44.54609188" lon="-72.41189064">
    <tag k="addr:city" v="Wolcott"/>
    <tag k="addr:housenumber" v="210"/>
    <tag k="addr:street" v="Simmons Road"/>
    <tag k="addr:state" v="VT"/>
    <tag k="ref:vcgi:esiteid" v="772351"/>
  </node>
  <node id="-1067" visible="true" lat="44.55351691" lon="-72.51708043">
    <tag k="addr:city" v="Wolcott"/>
    <tag k="addr:housenumber" v="475"/>
    <tag k="addr:street" v="Brookview Lane"/>
    <tag k="addr:state" v="VT"/>
    <tag k="ref:vcgi:esiteid" v="772403"/>
  </node>
</osm>
