<?xml version="1.0" encoding="UTF-8"?>
<osm version="0.6" generator="JOSM" upload="false">
  <node id="-1482" visible="true" lat="43.56781775" lon="-72.62202112">
    <tag k="addr:housenumber" v="1590"/>
    <tag k="addr:street" v="Curtis Hollow Road"/>
    <tag k="addr:state" v="VT"/>
    <tag k="ref:vcgi:esiteid" v="304035"/>
  </node>
  <node id="-1806" visible="true" lat="43.60725678" lon="-72.60180269">
    <tag k="addr:housenumber" v="966"/>
    <tag k="addr:street" v="Deer Brook Way"/>
    <tag k="addr:state" v="VT"/>
    <tag k="ref:vcgi:esiteid" v="328702"/>
  </node>
  <node id="-2092" visible="true" lat="43.59054905" lon="-72.6104534">
    <tag k="addr:housenumber" v="5254"/>
    <tag k="addr:street" v="West Woodstock Road"/>
    <tag k="addr:state" v="VT"/>
    <tag k="ref:vcgi:esiteid" v="330229"/>
  </node>
  <node id="-2094" visible="true" lat="43.59099819" lon="-72.61021012">
    <tag k="addr:housenumber" v="5256"/>
    <tag k="addr:street" v="West Woodstock Road"/>
    <tag k="addr:state" v="VT"/>
    <tag k="ref:vcgi:esiteid" v="330231"/>
  </node>
  <node id="-2185" visible="true" lat="43.56276744" lon="-72.53258219">
    <tag k="addr:housenumber" v="4949"/>
    <tag k="addr:street" v="South Road"/>
    <tag k="addr:state" v="VT"/>
    <tag k="ref:vcgi:esiteid" v="330354"/>
  </node>
  <node id="-2193" visible="true" lat="43.55611268" lon="-72.53755484">
    <tag k="addr:housenumber" v="5497"/>
    <tag k="addr:street" v="South Road"/>
    <tag k="addr:state" v="VT"/>
    <tag k="ref:vcgi:esiteid" v="330362"/>
  </node>
  <node id="-2361" visible="true" lat="43.62545548" lon="-72.48116802">
    <tag k="addr:housenumber" v="418"/>
    <tag k="addr:street" v="Sugar Hill Road"/>
    <tag k="addr:state" v="VT"/>
    <tag k="ref:vcgi:esiteid" v="330597"/>
  </node>
  <node id="-2443" visible="true" lat="43.60978689" lon="-72.5299333">
    <tag k="addr:housenumber" v="968"/>
    <tag k="addr:street" v="Church Hill Road"/>
    <tag k="addr:state" v="VT"/>
    <tag k="ref:vcgi:esiteid" v="330710"/>
  </node>
  <node id="-2449" visible="true" lat="43.60047048" lon="-72.54470141">
    <tag k="addr:housenumber" v="169"/>
    <tag k="addr:street" v="Grove Hill Road"/>
    <tag k="addr:state" v="VT"/>
    <tag k="ref:vcgi:esiteid" v="330722"/>
  </node>
  <node id="-2773" visible="true" lat="43.55599066" lon="-72.54230826">
    <tag k="addr:housenumber" v="5709"/>
    <tag k="addr:street" v="South Road"/>
    <tag k="addr:state" v="VT"/>
    <tag k="ref:vcgi:esiteid" v="771504"/>
  </node>
  <node id="-2774" visible="true" lat="43.57622649" lon="-72.62146011">
    <tag k="addr:housenumber" v="1028"/>
    <tag k="addr:street" v="Curtis Hollow Road"/>
    <tag k="addr:state" v="VT"/>
    <tag k="ref:vcgi:esiteid" v="771508"/>
  </node>
  <node id="-2775" visible="true" lat="43.57505491" lon="-72.62163351">
    <tag k="addr:housenumber" v="1032"/>
    <tag k="addr:street" v="Curtis Hollow Road"/>
    <tag k="addr:state" v="VT"/>
    <tag k="ref:vcgi:esiteid" v="771509"/>
  </node>
  <node id="-2776" visible="true" lat="43.58689545" lon="-72.60479306">
    <tag k="addr:housenumber" v="520"/>
    <tag k="addr:street" v="Quinn Road"/>
    <tag k="addr:state" v="VT"/>
    <tag k="ref:vcgi:esiteid" v="771683"/>
  </node>
  <node id="-2777" visible="true" lat="43.56157425" lon="-72.5687352">
    <tag k="addr:housenumber" v="1185"/>
    <tag k="addr:street" v="Long Hill Road"/>
    <tag k="addr:state" v="VT"/>
    <tag k="ref:vcgi:esiteid" v="772060"/>
  </node>
  <node id="-2778" visible="true" lat="43.60908002" lon="-72.52945682">
    <tag k="addr:housenumber" v="1104"/>
    <tag k="addr:street" v="Church Hill Road"/>
    <tag k="addr:state" v="VT"/>
    <tag k="ref:vcgi:esiteid" v="772144"/>
  </node>
  <node id="-2779" visible="true" lat="43.58168724" lon="-72.50779225">
    <tag k="addr:housenumber" v="3610"/>
    <tag k="addr:street" v="Densmore Hill Road"/>
    <tag k="addr:state" v="VT"/>
    <tag k="ref:vcgi:esiteid" v="772389"/>
  </node>
  <node id="-2780" visible="true" lat="43.55861673" lon="-72.58670145">
    <tag k="addr:housenumber" v="990"/>
    <tag k="addr:street" v="Darling Road"/>
    <tag k="addr:state" v="VT"/>
    <tag k="ref:vcgi:esiteid" v="772397"/>
  </node>
  <node id="-2781" visible="true" lat="43.58553902" lon="-72.60574634">
    <tag k="addr:housenumber" v="830"/>
    <tag k="addr:street" v="Quinn Road"/>
    <tag k="addr:state" v="VT"/>
    <tag k="ref:vcgi:esiteid" v="772579"/>
  </node>
  <node id="-2782" visible="true" lat="43.62640963" lon="-72.51310604">
    <tag k="addr:housenumber" v="31"/>
    <tag k="addr:street" v="Pleasant Street"/>
    <tag k="addr:state" v="VT"/>
    <tag k="ref:vcgi:esiteid" v="772645"/>
  </node>
</osm>
