<?xml version="1.0" encoding="UTF-8"?>
<osm version="0.6" generator="JOSM" upload="false">
  <node id="-569" visible="true" lat="42.90593755" lon="-73.12297477">
    <tag k="addr:city" v="Woodford"/>
    <tag k="addr:housenumber" v="769"/>
    <tag k="addr:street" v="Old Harbour Road"/>
    <tag k="addr:state" v="VT"/>
    <tag k="ref:vcgi:esiteid" v="619376"/>
  </node>
  <node id="-570" visible="true" lat="42.90575658" lon="-73.12489103">
    <tag k="addr:city" v="Woodford"/>
    <tag k="addr:housenumber" v="789"/>
    <tag k="addr:street" v="Old Harbour Road"/>
    <tag k="addr:state" v="VT"/>
    <tag k="ref:vcgi:esiteid" v="619377"/>
  </node>
  <node id="-585" visible="true" lat="42.86579696" lon="-73.14741868">
    <tag k="addr:city" v="Woodford"/>
    <tag k="addr:housenumber" v="1830"/>
    <tag k="addr:street" v="Burgess Road"/>
    <tag k="addr:state" v="VT"/>
    <tag k="ref:vcgi:esiteid" v="619393"/>
  </node>
  <node id="-605" visible="true" lat="42.88947893" lon="-73.14147709">
    <tag k="addr:city" v="Woodford"/>
    <tag k="addr:housenumber" v="609"/>
    <tag k="addr:street" v="Vermont Route 9"/>
    <tag k="addr:state" v="VT"/>
    <tag k="ref:vcgi:esiteid" v="771202"/>
  </node>
  <node id="-606" visible="true" lat="42.91019517" lon="-73.1149436">
    <tag k="addr:city" v="Woodford"/>
    <tag k="addr:housenumber" v="1308"/>
    <tag k="addr:street" v="Old Harbour Road"/>
    <tag k="addr:state" v="VT"/>
    <tag k="ref:vcgi:esiteid" v="772382"/>
  </node>
</osm>
