<?xml version="1.0" encoding="UTF-8"?>
<osm version="0.6" generator="JOSM" upload="false">
  <node id="-142" visible="true" lat="44.2315391" lon="-72.47771305">
    <!-- multiple: "109 Mitchell Road, , VT" Multiple exact matches in OSM. -->
    <tag k="addr:housenumber" v="109"/>
    <tag k="addr:street" v="Mitchell Road"/>
    <tag k="addr:state" v="VT"/>
    <tag k="ref:vcgi:esiteid" v="10948"/>
  </node>
  <node id="-394" visible="true" lat="44.21763497" lon="-72.45798193">
    <!-- multiple: "159 Sunset Road, , VT" Multiple exact matches in OSM. -->
    <tag k="addr:housenumber" v="159"/>
    <tag k="addr:street" v="Sunset Road"/>
    <tag k="addr:state" v="VT"/>
    <tag k="ref:vcgi:esiteid" v="11202"/>
  </node>
  <node id="-409" visible="true" lat="44.21742101" lon="-72.45727734">
    <!-- multiple: "159 Sunset Road, , VT" Multiple exact matches in OSM. -->
    <tag k="addr:housenumber" v="159"/>
    <tag k="addr:street" v="Sunset Road"/>
    <tag k="addr:state" v="VT"/>
    <tag k="ref:vcgi:esiteid" v="11218"/>
  </node>
  <node id="-519" visible="true" lat="44.21513007" lon="-72.51863678">
    <!-- multiple: "61 Richardson Road, , VT" Multiple exact matches in OSM. -->
    <tag k="addr:housenumber" v="61"/>
    <tag k="addr:street" v="Richardson Road"/>
    <tag k="addr:state" v="VT"/>
    <tag k="ref:vcgi:esiteid" v="11329"/>
  </node>
  <node id="-745" visible="true" lat="44.20324818" lon="-72.48810591">
    <!-- multiple: "49 Cassie Street, , VT" Multiple exact matches in OSM. -->
    <tag k="addr:housenumber" v="49"/>
    <tag k="addr:street" v="Cassie Street"/>
    <tag k="addr:state" v="VT"/>
    <tag k="ref:vcgi:esiteid" v="11561"/>
  </node>
  <node id="-1032" visible="true" lat="44.19223212" lon="-72.47767934">
    <!-- multiple: "304 Hill Street, , VT" Multiple exact matches in OSM. -->
    <tag k="addr:housenumber" v="304"/>
    <tag k="addr:street" v="Hill Street"/>
    <tag k="addr:state" v="VT"/>
    <tag k="ref:vcgi:esiteid" v="11853"/>
  </node>
  <node id="-1368" visible="true" lat="44.1821832" lon="-72.49356594">
    <!-- multiple: "114 Quarry Hill Road, , VT" Multiple exact matches in OSM. -->
    <tag k="addr:housenumber" v="114"/>
    <tag k="addr:street" v="Quarry Hill Road"/>
    <tag k="addr:state" v="VT"/>
    <tag k="ref:vcgi:esiteid" v="12204"/>
  </node>
  <node id="-1369" visible="true" lat="44.18193054" lon="-72.51526641">
    <!-- multiple: "3 Lower Usle Road, , VT" Multiple exact matches in OSM. -->
    <tag k="addr:housenumber" v="3"/>
    <tag k="addr:street" v="Lower Usle Road"/>
    <tag k="addr:state" v="VT"/>
    <tag k="ref:vcgi:esiteid" v="12205"/>
  </node>
  <node id="-1370" visible="true" lat="44.18189621" lon="-72.49389648">
    <!-- multiple: "114 Quarry Hill Road, , VT" Multiple exact matches in OSM. -->
    <tag k="addr:housenumber" v="114"/>
    <tag k="addr:street" v="Quarry Hill Road"/>
    <tag k="addr:state" v="VT"/>
    <tag k="ref:vcgi:esiteid" v="12206"/>
  </node>
  <node id="-1389" visible="true" lat="44.18075561" lon="-72.52479553">
    <!-- multiple: "19 Upper Usle Road, , VT" Multiple exact matches in OSM. -->
    <tag k="addr:housenumber" v="19"/>
    <tag k="addr:street" v="Upper Usle Road"/>
    <tag k="addr:state" v="VT"/>
    <tag k="ref:vcgi:esiteid" v="12228"/>
  </node>
  <node id="-1393" visible="true" lat="44.18067932" lon="-72.52443695">
    <!-- multiple: "19 Upper Usle Road, , VT" Multiple exact matches in OSM. -->
    <tag k="addr:housenumber" v="19"/>
    <tag k="addr:street" v="Upper Usle Road"/>
    <tag k="addr:state" v="VT"/>
    <tag k="ref:vcgi:esiteid" v="12232"/>
  </node>
  <node id="-1398" visible="true" lat="44.18023681" lon="-72.52263641">
    <!-- multiple: "89 Lower Usle Road, , VT" Multiple exact matches in OSM. -->
    <tag k="addr:housenumber" v="89"/>
    <tag k="addr:street" v="Lower Usle Road"/>
    <tag k="addr:state" v="VT"/>
    <tag k="ref:vcgi:esiteid" v="12238"/>
  </node>
  <node id="-1403" visible="true" lat="44.17967156" lon="-72.52270146">
    <!-- multiple: "89 Lower Usle Road, , VT" Multiple exact matches in OSM. -->
    <tag k="addr:housenumber" v="89"/>
    <tag k="addr:street" v="Lower Usle Road"/>
    <tag k="addr:state" v="VT"/>
    <tag k="ref:vcgi:esiteid" v="12245"/>
  </node>
  <node id="-1418" visible="true" lat="44.17889404" lon="-72.49512481">
    <!-- multiple: "170 Quarry Hill Road, , VT" Multiple exact matches in OSM. -->
    <tag k="addr:housenumber" v="170"/>
    <tag k="addr:street" v="Quarry Hill Road"/>
    <tag k="addr:state" v="VT"/>
    <tag k="ref:vcgi:esiteid" v="12260"/>
  </node>
  <node id="-1420" visible="true" lat="44.17868782" lon="-72.49528013">
    <!-- multiple: "170 Quarry Hill Road, , VT" Multiple exact matches in OSM. -->
    <tag k="addr:housenumber" v="170"/>
    <tag k="addr:street" v="Quarry Hill Road"/>
    <tag k="addr:state" v="VT"/>
    <tag k="ref:vcgi:esiteid" v="12262"/>
  </node>
  <node id="-1462" visible="true" lat="44.17709923" lon="-72.50427652">
    <!-- multiple: "370 South Barre Road, , VT" Multiple exact matches in OSM. -->
    <tag k="addr:housenumber" v="370"/>
    <tag k="addr:street" v="South Barre Road"/>
    <tag k="addr:state" v="VT"/>
    <tag k="ref:vcgi:esiteid" v="12311"/>
  </node>
  <node id="-1520" visible="true" lat="44.17608455" lon="-72.46634101">
    <!-- multiple: "26 McLaughlin Road, , VT" Multiple exact matches in OSM. -->
    <tag k="addr:housenumber" v="26"/>
    <tag k="addr:street" v="McLaughlin Road"/>
    <tag k="addr:state" v="VT"/>
    <tag k="ref:vcgi:esiteid" v="12372"/>
  </node>
  <node id="-1586" visible="true" lat="44.17445755" lon="-72.50396728">
    <!-- multiple: "14 Howard Street, , VT" Multiple exact matches in OSM. -->
    <tag k="addr:housenumber" v="14"/>
    <tag k="addr:street" v="Howard Street"/>
    <tag k="addr:state" v="VT"/>
    <tag k="ref:vcgi:esiteid" v="12442"/>
  </node>
  <node id="-1623" visible="true" lat="44.17308746" lon="-72.50820169">
    <!-- multiple: "509 South Barre Road, , VT" Multiple exact matches in OSM. -->
    <tag k="addr:housenumber" v="509"/>
    <tag k="addr:street" v="South Barre Road"/>
    <tag k="addr:state" v="VT"/>
    <tag k="ref:vcgi:esiteid" v="12483"/>
  </node>
  <node id="-1635" visible="true" lat="44.17289352" lon="-72.4910736">
    <!-- multiple: "296 Quarry Hill Road, , VT" Multiple exact matches in OSM. -->
    <tag k="addr:housenumber" v="296"/>
    <tag k="addr:street" v="Quarry Hill Road"/>
    <tag k="addr:state" v="VT"/>
    <tag k="ref:vcgi:esiteid" v="12496"/>
  </node>
  <node id="-1771" visible="true" lat="44.17014902" lon="-72.50841584">
    <!-- multiple: "596 South Barre Road, , VT" Multiple exact matches in OSM. -->
    <tag k="addr:housenumber" v="596"/>
    <tag k="addr:street" v="South Barre Road"/>
    <tag k="addr:state" v="VT"/>
    <tag k="ref:vcgi:esiteid" v="12648"/>
  </node>
  <node id="-1851" visible="true" lat="44.16815012" lon="-72.48560304">
    <!-- multiple: "70 Websterville Road, , VT" Multiple exact matches in OSM. -->
    <tag k="addr:housenumber" v="70"/>
    <tag k="addr:street" v="Websterville Road"/>
    <tag k="addr:state" v="VT"/>
    <tag k="ref:vcgi:esiteid" v="12735"/>
  </node>
  <node id="-1873" visible="true" lat="44.16710847" lon="-72.48793445">
    <!-- multiple: "46 Websterville Road, , VT" Multiple exact matches in OSM. -->
    <tag k="addr:housenumber" v="46"/>
    <tag k="addr:street" v="Websterville Road"/>
    <tag k="addr:state" v="VT"/>
    <tag k="ref:vcgi:esiteid" v="12761"/>
  </node>
  <node id="-2045" visible="true" lat="44.16216769" lon="-72.44492784">
    <!-- multiple: "58 Hillside Avenue, , VT" Multiple exact matches in OSM. -->
    <tag k="addr:housenumber" v="58"/>
    <tag k="addr:street" v="Hillside Avenue"/>
    <tag k="addr:state" v="VT"/>
    <tag k="ref:vcgi:esiteid" v="12941"/>
  </node>
  <node id="-2080" visible="true" lat="44.16145837" lon="-72.44944412">
    <!-- multiple: "973 East Barre Road, , VT" Multiple exact matches in OSM. -->
    <tag k="addr:housenumber" v="973"/>
    <tag k="addr:street" v="East Barre Road"/>
    <tag k="addr:state" v="VT"/>
    <tag k="ref:vcgi:esiteid" v="12978"/>
  </node>
  <node id="-2116" visible="true" lat="44.16105979" lon="-72.44542323">
    <!-- multiple: "37 Hillside Avenue, , VT" Multiple exact matches in OSM. -->
    <tag k="addr:housenumber" v="37"/>
    <tag k="addr:street" v="Hillside Avenue"/>
    <tag k="addr:state" v="VT"/>
    <tag k="ref:vcgi:esiteid" v="13020"/>
  </node>
  <node id="-2125" visible="true" lat="44.16096869" lon="-72.44560395">
    <!-- multiple: "29 Hillside Avenue, , VT" Multiple exact matches in OSM. -->
    <tag k="addr:housenumber" v="29"/>
    <tag k="addr:street" v="Hillside Avenue"/>
    <tag k="addr:state" v="VT"/>
    <tag k="ref:vcgi:esiteid" v="13030"/>
  </node>
  <node id="-2156" visible="true" lat="44.16052742" lon="-72.45132537">
    <!-- multiple: "9 Summer Street, , VT" Multiple exact matches in OSM. -->
    <tag k="addr:housenumber" v="9"/>
    <tag k="addr:street" v="Summer Street"/>
    <tag k="addr:state" v="VT"/>
    <tag k="ref:vcgi:esiteid" v="13061"/>
  </node>
  <node id="-2173" visible="true" lat="44.16041593" lon="-72.51370498">
    <!-- multiple: "887 South Barre Road, , VT" Multiple exact matches in OSM. -->
    <tag k="addr:housenumber" v="887"/>
    <tag k="addr:street" v="South Barre Road"/>
    <tag k="addr:state" v="VT"/>
    <tag k="ref:vcgi:esiteid" v="13081"/>
  </node>
  <node id="-2192" visible="true" lat="44.1598881" lon="-72.45020847">
    <!-- multiple: "119 Mill Street, , VT" Multiple exact matches in OSM. -->
    <tag k="addr:housenumber" v="119"/>
    <tag k="addr:street" v="Mill Street"/>
    <tag k="addr:state" v="VT"/>
    <tag k="ref:vcgi:esiteid" v="13103"/>
  </node>
  <node id="-2216" visible="true" lat="44.15967202" lon="-72.51270574">
    <!-- multiple: "894 South Barre Road, , VT" Multiple exact matches in OSM. -->
    <tag k="addr:housenumber" v="894"/>
    <tag k="addr:street" v="South Barre Road"/>
    <tag k="addr:state" v="VT"/>
    <tag k="ref:vcgi:esiteid" v="13129"/>
  </node>
  <node id="-2234" visible="true" lat="44.15931886" lon="-72.4510248">
    <!-- multiple: "133 Mill Street, , VT" Multiple exact matches in OSM. -->
    <tag k="addr:housenumber" v="133"/>
    <tag k="addr:street" v="Mill Street"/>
    <tag k="addr:state" v="VT"/>
    <tag k="ref:vcgi:esiteid" v="13151"/>
  </node>
  <node id="-2327" visible="true" lat="44.15808829" lon="-72.45386328">
    <!-- multiple: "170 Mill Street, , VT" Multiple exact matches in OSM. -->
    <tag k="addr:housenumber" v="170"/>
    <tag k="addr:street" v="Mill Street"/>
    <tag k="addr:state" v="VT"/>
    <tag k="ref:vcgi:esiteid" v="13251"/>
  </node>
  <node id="-2328" visible="true" lat="44.15824127" lon="-72.46936035">
    <!-- multiple: "59 Brook Street, , VT" Multiple exact matches in OSM. -->
    <tag k="addr:housenumber" v="59"/>
    <tag k="addr:street" v="Brook Street"/>
    <tag k="addr:state" v="VT"/>
    <tag k="ref:vcgi:esiteid" v="13252"/>
  </node>
  <node id="-2329" visible="true" lat="44.15805476" lon="-72.45430803">
    <!-- multiple: "170 Mill Street, , VT" Multiple exact matches in OSM. -->
    <tag k="addr:housenumber" v="170"/>
    <tag k="addr:street" v="Mill Street"/>
    <tag k="addr:state" v="VT"/>
    <tag k="ref:vcgi:esiteid" v="13253"/>
  </node>
  <node id="-2330" visible="true" lat="44.158251" lon="-72.51281893">
    <!-- multiple: "946 South Barre Road, , VT" Multiple exact matches in OSM. -->
    <tag k="addr:housenumber" v="946"/>
    <tag k="addr:street" v="South Barre Road"/>
    <tag k="addr:state" v="VT"/>
    <tag k="ref:vcgi:esiteid" v="13254"/>
  </node>
  <node id="-2343" visible="true" lat="44.15805907" lon="-72.51442491">
    <!-- multiple: "933 South Barre Road, , VT" Multiple exact matches in OSM. -->
    <tag k="addr:housenumber" v="933"/>
    <tag k="addr:street" v="South Barre Road"/>
    <tag k="addr:state" v="VT"/>
    <tag k="ref:vcgi:esiteid" v="13268"/>
  </node>
  <node id="-2346" visible="true" lat="44.1580085" lon="-72.46954316">
    <!-- multiple: "53 Brook Street, , VT" Multiple exact matches in OSM. -->
    <tag k="addr:housenumber" v="53"/>
    <tag k="addr:street" v="Brook Street"/>
    <tag k="addr:state" v="VT"/>
    <tag k="ref:vcgi:esiteid" v="13271"/>
  </node>
  <node id="-2350" visible="true" lat="44.15773446" lon="-72.45394938">
    <!-- multiple: "170 Mill Street, , VT" Multiple exact matches in OSM. -->
    <tag k="addr:housenumber" v="170"/>
    <tag k="addr:street" v="Mill Street"/>
    <tag k="addr:state" v="VT"/>
    <tag k="ref:vcgi:esiteid" v="13275"/>
  </node>
  <node id="-2355" visible="true" lat="44.15784522" lon="-72.45137498">
    <!-- multiple: "6 Waterman Street, , VT" Multiple exact matches in OSM. -->
    <tag k="addr:housenumber" v="6"/>
    <tag k="addr:street" v="Waterman Street"/>
    <tag k="addr:state" v="VT"/>
    <tag k="ref:vcgi:esiteid" v="13280"/>
  </node>
  <node id="-2370" visible="true" lat="44.15771505" lon="-72.44875084">
    <!-- multiple: "10 Pleasant Street, , VT" Multiple exact matches in OSM. -->
    <tag k="addr:housenumber" v="10"/>
    <tag k="addr:street" v="Pleasant Street"/>
    <tag k="addr:state" v="VT"/>
    <tag k="ref:vcgi:esiteid" v="13297"/>
  </node>
  <node id="-2378" visible="true" lat="44.15734037" lon="-72.45011508">
    <!-- multiple: "50 Washington Road, , VT" Multiple exact matches in OSM. -->
    <tag k="addr:housenumber" v="50"/>
    <tag k="addr:street" v="Washington Road"/>
    <tag k="addr:state" v="VT"/>
    <tag k="ref:vcgi:esiteid" v="13305"/>
  </node>
  <node id="-2395" visible="true" lat="44.15722274" lon="-72.44879913">
    <!-- multiple: "1 Pleasant Street, , VT" Multiple exact matches in OSM. -->
    <tag k="addr:housenumber" v="1"/>
    <tag k="addr:street" v="Pleasant Street"/>
    <tag k="addr:state" v="VT"/>
    <tag k="ref:vcgi:esiteid" v="13323"/>
  </node>
  <node id="-2404" visible="true" lat="44.1568676" lon="-72.45437946">
    <!-- multiple: "180 Mill Street, , VT" Multiple exact matches in OSM. -->
    <tag k="addr:housenumber" v="180"/>
    <tag k="addr:street" v="Mill Street"/>
    <tag k="addr:state" v="VT"/>
    <tag k="ref:vcgi:esiteid" v="13333"/>
  </node>
  <node id="-2406" visible="true" lat="44.15705686" lon="-72.46948545">
    <!-- multiple: "44 Brook Street, , VT" Multiple exact matches in OSM. -->
    <tag k="addr:housenumber" v="44"/>
    <tag k="addr:street" v="Brook Street"/>
    <tag k="addr:state" v="VT"/>
    <tag k="ref:vcgi:esiteid" v="13335"/>
  </node>
  <node id="-2429" visible="true" lat="44.15685584" lon="-72.45165746">
    <!-- multiple: "19 Waterman Street, , VT" Multiple exact matches in OSM. -->
    <tag k="addr:housenumber" v="19"/>
    <tag k="addr:street" v="Waterman Street"/>
    <tag k="addr:state" v="VT"/>
    <tag k="ref:vcgi:esiteid" v="13358"/>
  </node>
  <node id="-2453" visible="true" lat="44.15630749" lon="-72.45214667">
    <!-- multiple: "27 Waterman Street, , VT" Multiple exact matches in OSM. -->
    <tag k="addr:housenumber" v="27"/>
    <tag k="addr:street" v="Waterman Street"/>
    <tag k="addr:state" v="VT"/>
    <tag k="ref:vcgi:esiteid" v="13386"/>
  </node>
  <node id="-2476" visible="true" lat="44.15672817" lon="-72.49141455">
    <!-- multiple: "560 Graniteville Road, , VT" Multiple exact matches in OSM. -->
    <tag k="addr:housenumber" v="560"/>
    <tag k="addr:street" v="Graniteville Road"/>
    <tag k="addr:state" v="VT"/>
    <tag k="ref:vcgi:esiteid" v="13410"/>
  </node>
  <node id="-2502" visible="true" lat="44.1547203" lon="-72.5175476">
    <!-- multiple: "1061 South Barre Road, , VT" Multiple exact matches in OSM. -->
    <tag k="addr:housenumber" v="1061"/>
    <tag k="addr:street" v="South Barre Road"/>
    <tag k="addr:state" v="VT"/>
    <tag k="ref:vcgi:esiteid" v="13439"/>
  </node>
  <node id="-2551" visible="true" lat="44.15321731" lon="-72.47420501">
    <!-- multiple: "143 Church Hill Road, , VT" Multiple exact matches in OSM. -->
    <tag k="addr:housenumber" v="143"/>
    <tag k="addr:street" v="Church Hill Road"/>
    <tag k="addr:state" v="VT"/>
    <tag k="ref:vcgi:esiteid" v="13495"/>
  </node>
  <node id="-2601" visible="true" lat="44.15274894" lon="-72.49184439">
    <!-- multiple: "604 Graniteville Road, , VT" Multiple exact matches in OSM. -->
    <tag k="addr:housenumber" v="604"/>
    <tag k="addr:street" v="Graniteville Road"/>
    <tag k="addr:state" v="VT"/>
    <tag k="ref:vcgi:esiteid" v="13550"/>
  </node>
  <node id="-2647" visible="true" lat="44.15124511" lon="-72.48641967">
    <!-- multiple: "19 McLeod Hill Road, , VT" Multiple exact matches in OSM. -->
    <tag k="addr:housenumber" v="19"/>
    <tag k="addr:street" v="McLeod Hill Road"/>
    <tag k="addr:state" v="VT"/>
    <tag k="ref:vcgi:esiteid" v="13600"/>
  </node>
  <node id="-2650" visible="true" lat="44.15105573" lon="-72.49162065">
    <!-- multiple: "623 Graniteville Road, , VT" Multiple exact matches in OSM. -->
    <tag k="addr:housenumber" v="623"/>
    <tag k="addr:street" v="Graniteville Road"/>
    <tag k="addr:state" v="VT"/>
    <tag k="ref:vcgi:esiteid" v="13603"/>
  </node>
  <node id="-2651" visible="true" lat="44.15117645" lon="-72.4859848">
    <!-- multiple: "19 McLeod Hill Road, , VT" Multiple exact matches in OSM. -->
    <tag k="addr:housenumber" v="19"/>
    <tag k="addr:street" v="McLeod Hill Road"/>
    <tag k="addr:state" v="VT"/>
    <tag k="ref:vcgi:esiteid" v="13604"/>
  </node>
  <node id="-2740" visible="true" lat="44.14855199" lon="-72.48328696">
    <!-- multiple: "719 Graniteville Road, , VT" Multiple exact matches in OSM. -->
    <tag k="addr:housenumber" v="719"/>
    <tag k="addr:street" v="Graniteville Road"/>
    <tag k="addr:state" v="VT"/>
    <tag k="ref:vcgi:esiteid" v="13699"/>
  </node>
  <node id="-2764" visible="true" lat="44.14612627" lon="-72.45439896">
    <!-- multiple: "275 Lowery Road, , VT" Multiple exact matches in OSM. -->
    <tag k="addr:housenumber" v="275"/>
    <tag k="addr:street" v="Lowery Road"/>
    <tag k="addr:state" v="VT"/>
    <tag k="ref:vcgi:esiteid" v="13725"/>
  </node>
  <node id="-2765" visible="true" lat="44.14588388" lon="-72.45471052">
    <!-- multiple: "275 Lowery Road, , VT" Multiple exact matches in OSM. -->
    <tag k="addr:housenumber" v="275"/>
    <tag k="addr:street" v="Lowery Road"/>
    <tag k="addr:state" v="VT"/>
    <tag k="ref:vcgi:esiteid" v="13726"/>
  </node>
  <node id="-2792" visible="true" lat="44.14280988" lon="-72.47190332">
    <!-- multiple: "12 Short Street, , VT" Multiple exact matches in OSM. -->
    <tag k="addr:housenumber" v="12"/>
    <tag k="addr:street" v="Short Street"/>
    <tag k="addr:state" v="VT"/>
    <tag k="ref:vcgi:esiteid" v="13755"/>
  </node>
  <node id="-2802" visible="true" lat="44.14242935" lon="-72.47631835">
    <!-- multiple: "852 Graniteville Road, , VT" Multiple exact matches in OSM. -->
    <tag k="addr:housenumber" v="852"/>
    <tag k="addr:street" v="Graniteville Road"/>
    <tag k="addr:state" v="VT"/>
    <tag k="ref:vcgi:esiteid" v="13765"/>
  </node>
  <node id="-2806" visible="true" lat="44.1420942" lon="-72.47589235">
    <!-- multiple: "4 Park Street, , VT" Multiple exact matches in OSM. -->
    <tag k="addr:housenumber" v="4"/>
    <tag k="addr:street" v="Park Street"/>
    <tag k="addr:state" v="VT"/>
    <tag k="ref:vcgi:esiteid" v="13769"/>
  </node>
  <node id="-2867" visible="true" lat="44.13715779" lon="-72.46869135">
    <!-- multiple: "307 McCarthy Road, , VT" Multiple exact matches in OSM. -->
    <tag k="addr:housenumber" v="307"/>
    <tag k="addr:street" v="McCarthy Road"/>
    <tag k="addr:state" v="VT"/>
    <tag k="ref:vcgi:esiteid" v="13836"/>
  </node>
  <node id="-2869" visible="true" lat="44.18472247" lon="-72.52834324">
    <!-- multiple: "11 Miller Road, , VT" Multiple exact matches in OSM. -->
    <tag k="addr:housenumber" v="11"/>
    <tag k="addr:street" v="Miller Road"/>
    <tag k="addr:state" v="VT"/>
    <tag k="ref:vcgi:esiteid" v="13838"/>
  </node>
  <node id="-2912" visible="true" lat="44.15668246" lon="-72.45472588">
    <!-- multiple: "180 Mill Street, , VT" Multiple exact matches in OSM. -->
    <tag k="addr:housenumber" v="180"/>
    <tag k="addr:street" v="Mill Street"/>
    <tag k="addr:state" v="VT"/>
    <tag k="ref:vcgi:esiteid" v="13881"/>
  </node>
  <node id="-2913" visible="true" lat="44.15662076" lon="-72.45451195">
    <!-- multiple: "180 Mill Street, , VT" Multiple exact matches in OSM. -->
    <tag k="addr:housenumber" v="180"/>
    <tag k="addr:street" v="Mill Street"/>
    <tag k="addr:state" v="VT"/>
    <tag k="ref:vcgi:esiteid" v="13882"/>
  </node>
  <node id="-2914" visible="true" lat="44.15650993" lon="-72.45472601">
    <!-- multiple: "180 Mill Street, , VT" Multiple exact matches in OSM. -->
    <tag k="addr:housenumber" v="180"/>
    <tag k="addr:street" v="Mill Street"/>
    <tag k="addr:state" v="VT"/>
    <tag k="ref:vcgi:esiteid" v="13883"/>
  </node>
  <node id="-2915" visible="true" lat="44.15649136" lon="-72.45450349">
    <!-- multiple: "180 Mill Street, , VT" Multiple exact matches in OSM. -->
    <tag k="addr:housenumber" v="180"/>
    <tag k="addr:street" v="Mill Street"/>
    <tag k="addr:state" v="VT"/>
    <tag k="ref:vcgi:esiteid" v="13884"/>
  </node>
  <node id="-2916" visible="true" lat="44.15637439" lon="-72.45476891">
    <!-- multiple: "180 Mill Street, , VT" Multiple exact matches in OSM. -->
    <tag k="addr:housenumber" v="180"/>
    <tag k="addr:street" v="Mill Street"/>
    <tag k="addr:state" v="VT"/>
    <tag k="ref:vcgi:esiteid" v="13885"/>
  </node>
  <node id="-2917" visible="true" lat="44.15624502" lon="-72.45486316">
    <!-- multiple: "180 Mill Street, , VT" Multiple exact matches in OSM. -->
    <tag k="addr:housenumber" v="180"/>
    <tag k="addr:street" v="Mill Street"/>
    <tag k="addr:state" v="VT"/>
    <tag k="ref:vcgi:esiteid" v="13886"/>
  </node>
  <node id="-2989" visible="true" lat="44.166898" lon="-72.49055312">
    <!-- multiple: "22 Websterville Road, , VT" Multiple exact matches in OSM. -->
    <tag k="addr:housenumber" v="22"/>
    <tag k="addr:street" v="Websterville Road"/>
    <tag k="addr:state" v="VT"/>
    <tag k="ref:vcgi:esiteid" v="13960"/>
  </node>
  <node id="-3130" visible="true" lat="44.20108929" lon="-72.48828996">
    <!-- multiple: "21 Cassie Street, , VT" Multiple exact matches in OSM. -->
    <tag k="addr:housenumber" v="21"/>
    <tag k="addr:street" v="Cassie Street"/>
    <tag k="addr:state" v="VT"/>
    <tag k="ref:vcgi:esiteid" v="14108"/>
  </node>
  <node id="-3232" visible="true" lat="44.14248764" lon="-72.47114157">
    <!-- multiple: "5 Short Street, , VT" Multiple exact matches in OSM. -->
    <tag k="addr:housenumber" v="5"/>
    <tag k="addr:street" v="Short Street"/>
    <tag k="addr:state" v="VT"/>
    <tag k="ref:vcgi:esiteid" v="14216"/>
  </node>
  <node id="-3241" visible="true" lat="44.13732094" lon="-72.46906594">
    <!-- multiple: "261 McCarthy Road, , VT" Multiple exact matches in OSM. -->
    <tag k="addr:housenumber" v="261"/>
    <tag k="addr:street" v="McCarthy Road"/>
    <tag k="addr:state" v="VT"/>
    <tag k="ref:vcgi:esiteid" v="288309"/>
  </node>
  <node id="-3427" visible="true" lat="44.14276896" lon="-72.47549819">
    <!-- multiple: "10 Park Street, , VT" Multiple exact matches in OSM. -->
    <tag k="addr:housenumber" v="10"/>
    <tag k="addr:street" v="Park Street"/>
    <tag k="addr:state" v="VT"/>
    <tag k="ref:vcgi:esiteid" v="450605"/>
  </node>
  <node id="-3440" visible="true" lat="44.21361686" lon="-72.51534954">
    <!-- multiple: "36 Daniels Drive, , VT" Multiple exact matches in OSM. -->
    <tag k="addr:housenumber" v="36"/>
    <tag k="addr:street" v="Daniels Drive"/>
    <tag k="addr:state" v="VT"/>
    <tag k="ref:vcgi:esiteid" v="450834"/>
  </node>
  <node id="-3441" visible="true" lat="44.21359188" lon="-72.51518234">
    <!-- multiple: "38 Daniels Drive, , VT" Multiple exact matches in OSM. -->
    <tag k="addr:housenumber" v="38"/>
    <tag k="addr:street" v="Daniels Drive"/>
    <tag k="addr:state" v="VT"/>
    <tag k="ref:vcgi:esiteid" v="450835"/>
  </node>
  <node id="-3445" visible="true" lat="44.23438102" lon="-72.48795829">
    <!-- multiple: "575 East Montpelier Road, , VT" Multiple exact matches in OSM. -->
    <tag k="addr:housenumber" v="575"/>
    <tag k="addr:street" v="East Montpelier Road"/>
    <tag k="addr:state" v="VT"/>
    <tag k="ref:vcgi:esiteid" v="451325"/>
  </node>
  <node id="-3475" visible="true" lat="44.17720398" lon="-72.50535045">
    <!-- multiple: "379 South Barre Road, , VT" Multiple exact matches in OSM. -->
    <tag k="addr:housenumber" v="379"/>
    <tag k="addr:street" v="South Barre Road"/>
    <tag k="addr:state" v="VT"/>
    <tag k="ref:vcgi:esiteid" v="610639"/>
  </node>
  <node id="-3648" visible="true" lat="44.21534105" lon="-72.51186477">
    <!-- multiple: "85 Ivan Drive, , VT" Multiple exact matches in OSM. -->
    <tag k="addr:housenumber" v="85"/>
    <tag k="addr:street" v="Ivan Drive"/>
    <tag k="addr:state" v="VT"/>
    <tag k="ref:vcgi:esiteid" v="759182"/>
  </node>
  <node id="-3735" visible="true" lat="44.16996241" lon="-72.50845952">
    <!-- multiple: "596 South Barre Road, , VT" Multiple exact matches in OSM. -->
    <tag k="addr:housenumber" v="596"/>
    <tag k="addr:street" v="South Barre Road"/>
    <tag k="addr:state" v="VT"/>
    <tag k="ref:vcgi:esiteid" v="766056"/>
  </node>
  <node id="-3736" visible="true" lat="44.16979572" lon="-72.5085174">
    <!-- multiple: "596 South Barre Road, , VT" Multiple exact matches in OSM. -->
    <tag k="addr:housenumber" v="596"/>
    <tag k="addr:street" v="South Barre Road"/>
    <tag k="addr:state" v="VT"/>
    <tag k="ref:vcgi:esiteid" v="766057"/>
  </node>
  <node id="-3737" visible="true" lat="44.16964689" lon="-72.50858768">
    <!-- multiple: "596 South Barre Road, , VT" Multiple exact matches in OSM. -->
    <tag k="addr:housenumber" v="596"/>
    <tag k="addr:street" v="South Barre Road"/>
    <tag k="addr:state" v="VT"/>
    <tag k="ref:vcgi:esiteid" v="766058"/>
  </node>
  <node id="-3738" visible="true" lat="44.16936707" lon="-72.50890193">
    <!-- multiple: "596 South Barre Road, , VT" Multiple exact matches in OSM. -->
    <tag k="addr:housenumber" v="596"/>
    <tag k="addr:street" v="South Barre Road"/>
    <tag k="addr:state" v="VT"/>
    <tag k="ref:vcgi:esiteid" v="766059"/>
  </node>
  <node id="-3739" visible="true" lat="44.16933434" lon="-72.50869515">
    <!-- multiple: "596 South Barre Road, , VT" Multiple exact matches in OSM. -->
    <tag k="addr:housenumber" v="596"/>
    <tag k="addr:street" v="South Barre Road"/>
    <tag k="addr:state" v="VT"/>
    <tag k="ref:vcgi:esiteid" v="766060"/>
  </node>
  <node id="-3740" visible="true" lat="44.16937008" lon="-72.50850906">
    <!-- multiple: "596 South Barre Road, , VT" Multiple exact matches in OSM. -->
    <tag k="addr:housenumber" v="596"/>
    <tag k="addr:street" v="South Barre Road"/>
    <tag k="addr:state" v="VT"/>
    <tag k="ref:vcgi:esiteid" v="766061"/>
  </node>
  <node id="-3741" visible="true" lat="44.16950699" lon="-72.50857939">
    <!-- multiple: "596 South Barre Road, , VT" Multiple exact matches in OSM. -->
    <tag k="addr:housenumber" v="596"/>
    <tag k="addr:street" v="South Barre Road"/>
    <tag k="addr:state" v="VT"/>
    <tag k="ref:vcgi:esiteid" v="766062"/>
  </node>
  <node id="-3742" visible="true" lat="44.16936116" lon="-72.50833951">
    <!-- multiple: "596 South Barre Road, , VT" Multiple exact matches in OSM. -->
    <tag k="addr:housenumber" v="596"/>
    <tag k="addr:street" v="South Barre Road"/>
    <tag k="addr:state" v="VT"/>
    <tag k="ref:vcgi:esiteid" v="766063"/>
  </node>
  <node id="-3743" visible="true" lat="44.16939987" lon="-72.50812447">
    <!-- multiple: "596 South Barre Road, , VT" Multiple exact matches in OSM. -->
    <tag k="addr:housenumber" v="596"/>
    <tag k="addr:street" v="South Barre Road"/>
    <tag k="addr:state" v="VT"/>
    <tag k="ref:vcgi:esiteid" v="766064"/>
  </node>
  <node id="-3744" visible="true" lat="44.16945347" lon="-72.50786395">
    <!-- multiple: "596 South Barre Road, , VT" Multiple exact matches in OSM. -->
    <tag k="addr:housenumber" v="596"/>
    <tag k="addr:street" v="South Barre Road"/>
    <tag k="addr:state" v="VT"/>
    <tag k="ref:vcgi:esiteid" v="766065"/>
  </node>
  <node id="-3745" visible="true" lat="44.16951599" lon="-72.50765719">
    <!-- multiple: "596 South Barre Road, , VT" Multiple exact matches in OSM. -->
    <tag k="addr:housenumber" v="596"/>
    <tag k="addr:street" v="South Barre Road"/>
    <tag k="addr:state" v="VT"/>
    <tag k="ref:vcgi:esiteid" v="766066"/>
  </node>
  <node id="-3746" visible="true" lat="44.16968861" lon="-72.50792188">
    <!-- multiple: "596 South Barre Road, , VT" Multiple exact matches in OSM. -->
    <tag k="addr:housenumber" v="596"/>
    <tag k="addr:street" v="South Barre Road"/>
    <tag k="addr:state" v="VT"/>
    <tag k="ref:vcgi:esiteid" v="766067"/>
  </node>
  <node id="-3747" visible="true" lat="44.16965585" lon="-72.50809142">
    <!-- multiple: "596 South Barre Road, , VT" Multiple exact matches in OSM. -->
    <tag k="addr:housenumber" v="596"/>
    <tag k="addr:street" v="South Barre Road"/>
    <tag k="addr:state" v="VT"/>
    <tag k="ref:vcgi:esiteid" v="766068"/>
  </node>
  <node id="-3748" visible="true" lat="44.1696737" lon="-72.50826925">
    <!-- multiple: "596 South Barre Road, , VT" Multiple exact matches in OSM. -->
    <tag k="addr:housenumber" v="596"/>
    <tag k="addr:street" v="South Barre Road"/>
    <tag k="addr:state" v="VT"/>
    <tag k="ref:vcgi:esiteid" v="766069"/>
  </node>
  <node id="-3749" visible="true" lat="44.1698523" lon="-72.50816175">
    <!-- multiple: "596 South Barre Road, , VT" Multiple exact matches in OSM. -->
    <tag k="addr:housenumber" v="596"/>
    <tag k="addr:street" v="South Barre Road"/>
    <tag k="addr:state" v="VT"/>
    <tag k="ref:vcgi:esiteid" v="766070"/>
  </node>
  <node id="-3751" visible="true" lat="44.16978688" lon="-72.50727262">
    <!-- multiple: "596 South Barre Road, , VT" Multiple exact matches in OSM. -->
    <tag k="addr:housenumber" v="596"/>
    <tag k="addr:street" v="South Barre Road"/>
    <tag k="addr:state" v="VT"/>
    <tag k="ref:vcgi:esiteid" v="766072"/>
  </node>
  <node id="-3752" visible="true" lat="44.16991785" lon="-72.50721061">
    <!-- multiple: "596 South Barre Road, , VT" Multiple exact matches in OSM. -->
    <tag k="addr:housenumber" v="596"/>
    <tag k="addr:street" v="South Barre Road"/>
    <tag k="addr:state" v="VT"/>
    <tag k="ref:vcgi:esiteid" v="766073"/>
  </node>
  <node id="-3753" visible="true" lat="44.17001308" lon="-72.50754559">
    <!-- multiple: "596 South Barre Road, , VT" Multiple exact matches in OSM. -->
    <tag k="addr:housenumber" v="596"/>
    <tag k="addr:street" v="South Barre Road"/>
    <tag k="addr:state" v="VT"/>
    <tag k="ref:vcgi:esiteid" v="766074"/>
  </node>
  <node id="-3754" visible="true" lat="44.1698047" lon="-72.50784745">
    <!-- multiple: "596 South Barre Road, , VT" Multiple exact matches in OSM. -->
    <tag k="addr:housenumber" v="596"/>
    <tag k="addr:street" v="South Barre Road"/>
    <tag k="addr:state" v="VT"/>
    <tag k="ref:vcgi:esiteid" v="766075"/>
  </node>
  <node id="-3755" visible="true" lat="44.17011426" lon="-72.50793847">
    <!-- multiple: "596 South Barre Road, , VT" Multiple exact matches in OSM. -->
    <tag k="addr:housenumber" v="596"/>
    <tag k="addr:street" v="South Barre Road"/>
    <tag k="addr:state" v="VT"/>
    <tag k="ref:vcgi:esiteid" v="766076"/>
  </node>
  <node id="-3757" visible="true" lat="44.15265232" lon="-72.49134953">
    <!-- multiple: "604 Graniteville Road, , VT" Multiple exact matches in OSM. -->
    <tag k="addr:housenumber" v="604"/>
    <tag k="addr:street" v="Graniteville Road"/>
    <tag k="addr:state" v="VT"/>
    <tag k="ref:vcgi:esiteid" v="766159"/>
  </node>
  <node id="-3758" visible="true" lat="44.15213146" lon="-72.49190359">
    <!-- multiple: "604 Graniteville Road, , VT" Multiple exact matches in OSM. -->
    <tag k="addr:housenumber" v="604"/>
    <tag k="addr:street" v="Graniteville Road"/>
    <tag k="addr:state" v="VT"/>
    <tag k="ref:vcgi:esiteid" v="766160"/>
  </node>
  <node id="-3759" visible="true" lat="44.15205106" lon="-72.49148191">
    <!-- multiple: "604 Graniteville Road, , VT" Multiple exact matches in OSM. -->
    <tag k="addr:housenumber" v="604"/>
    <tag k="addr:street" v="Graniteville Road"/>
    <tag k="addr:state" v="VT"/>
    <tag k="ref:vcgi:esiteid" v="766161"/>
  </node>
  <node id="-3760" visible="true" lat="44.15228321" lon="-72.49117594">
    <!-- multiple: "604 Graniteville Road, , VT" Multiple exact matches in OSM. -->
    <tag k="addr:housenumber" v="604"/>
    <tag k="addr:street" v="Graniteville Road"/>
    <tag k="addr:state" v="VT"/>
    <tag k="ref:vcgi:esiteid" v="766162"/>
  </node>
</osm>
