<?xml version="1.0" encoding="UTF-8"?>
<osm version="0.6" generator="JOSM" upload="false">
  <node id="-130" visible="true" lat="44.25639391" lon="-72.60668127">
    <!-- multiple: "297 Junction Road, , VT" Multiple exact matches in OSM. -->
    <tag k="addr:housenumber" v="297"/>
    <tag k="addr:street" v="Junction Road"/>
    <tag k="addr:state" v="VT"/>
    <tag k="ref:vcgi:esiteid" v="22720"/>
  </node>
  <node id="-158" visible="true" lat="44.2453287" lon="-72.59312909">
    <!-- multiple: "6451 Vermont Route 12, , VT" Multiple exact matches in OSM. -->
    <tag k="addr:housenumber" v="6451"/>
    <tag k="addr:street" v="Vermont Route 12"/>
    <tag k="addr:state" v="VT"/>
    <tag k="ref:vcgi:esiteid" v="22750"/>
  </node>
  <node id="-163" visible="true" lat="44.24429025" lon="-72.59289995">
    <!-- multiple: "35 First Street, , VT" Multiple exact matches in OSM. -->
    <tag k="addr:housenumber" v="35"/>
    <tag k="addr:street" v="First Street"/>
    <tag k="addr:state" v="VT"/>
    <tag k="ref:vcgi:esiteid" v="22755"/>
  </node>
  <node id="-177" visible="true" lat="44.24275306" lon="-72.59444679">
    <!-- multiple: "16 Second Street, , VT" Multiple exact matches in OSM. -->
    <tag k="addr:housenumber" v="16"/>
    <tag k="addr:street" v="Second Street"/>
    <tag k="addr:state" v="VT"/>
    <tag k="ref:vcgi:esiteid" v="22769"/>
  </node>
  <node id="-255" visible="true" lat="44.2403619" lon="-72.59446477">
    <!-- multiple: "6088 Vermont Route 12, , VT" Multiple exact matches in OSM. -->
    <tag k="addr:housenumber" v="6088"/>
    <tag k="addr:street" v="Vermont Route 12"/>
    <tag k="addr:state" v="VT"/>
    <tag k="ref:vcgi:esiteid" v="22851"/>
  </node>
  <node id="-434" visible="true" lat="44.23234733" lon="-72.55448279">
    <!-- multiple: "2287 Berlin State Highway, , VT" Multiple exact matches in OSM. -->
    <tag k="addr:housenumber" v="2287"/>
    <tag k="addr:street" v="Berlin State Highway"/>
    <tag k="addr:state" v="VT"/>
    <tag k="ref:vcgi:esiteid" v="23045"/>
  </node>
  <node id="-450" visible="true" lat="44.23082305" lon="-72.55300696">
    <!-- multiple: "1578 U.S. Route 302, , VT" Multiple exact matches in OSM. -->
    <tag k="addr:housenumber" v="1578"/>
    <tag k="addr:street" v="U.S. Route 302"/>
    <tag k="addr:state" v="VT"/>
    <tag k="ref:vcgi:esiteid" v="23065"/>
  </node>
  <node id="-549" visible="true" lat="44.22390253" lon="-72.55100697">
    <!-- multiple: "1097 U.S. Route 302, , VT" Multiple exact matches in OSM. -->
    <tag k="addr:housenumber" v="1097"/>
    <tag k="addr:street" v="U.S. Route 302"/>
    <tag k="addr:state" v="VT"/>
    <tag k="ref:vcgi:esiteid" v="23176"/>
  </node>
  <node id="-553" visible="true" lat="44.22380866" lon="-72.54701732">
    <!-- multiple: "168 Ames Drive, , VT" Multiple exact matches in OSM. -->
    <tag k="addr:housenumber" v="168"/>
    <tag k="addr:street" v="Ames Drive"/>
    <tag k="addr:state" v="VT"/>
    <tag k="ref:vcgi:esiteid" v="23182"/>
  </node>
  <node id="-563" visible="true" lat="44.222993" lon="-72.56072351">
    <!-- multiple: "142 Woodridge Drive, , VT" Multiple exact matches in OSM. -->
    <tag k="addr:housenumber" v="142"/>
    <tag k="addr:street" v="Woodridge Drive"/>
    <tag k="addr:state" v="VT"/>
    <tag k="ref:vcgi:esiteid" v="23196"/>
  </node>
  <node id="-571" visible="true" lat="44.22267266" lon="-72.56788754">
    <!-- multiple: "33 Stewart Road, , VT" Multiple exact matches in OSM. -->
    <tag k="addr:housenumber" v="33"/>
    <tag k="addr:street" v="Stewart Road"/>
    <tag k="addr:state" v="VT"/>
    <tag k="ref:vcgi:esiteid" v="23207"/>
  </node>
  <node id="-597" visible="true" lat="44.22117318" lon="-72.56267869">
    <!-- multiple: "286 Hospital Loop, , VT" Multiple exact matches in OSM. -->
    <tag k="addr:housenumber" v="286"/>
    <tag k="addr:street" v="Hospital Loop"/>
    <tag k="addr:state" v="VT"/>
    <tag k="ref:vcgi:esiteid" v="23237"/>
  </node>
  <node id="-706" visible="true" lat="44.21702575" lon="-72.5598526">
    <!-- multiple: "751 Granger Road, , VT" Multiple exact matches in OSM. -->
    <tag k="addr:housenumber" v="751"/>
    <tag k="addr:street" v="Granger Road"/>
    <tag k="addr:state" v="VT"/>
    <tag k="ref:vcgi:esiteid" v="23354"/>
  </node>
  <node id="-750" visible="true" lat="44.21641974" lon="-72.57350184">
    <!-- multiple: "445 Paine Turnpike North, , VT" Multiple exact matches in OSM. -->
    <tag k="addr:housenumber" v="445"/>
    <tag k="addr:street" v="Paine Turnpike North"/>
    <tag k="addr:state" v="VT"/>
    <tag k="ref:vcgi:esiteid" v="23399"/>
  </node>
  <node id="-776" visible="true" lat="44.21547471" lon="-72.5740809">
    <!-- multiple: "395 Paine Turnpike North, , VT" Multiple exact matches in OSM. -->
    <tag k="addr:housenumber" v="395"/>
    <tag k="addr:street" v="Paine Turnpike North"/>
    <tag k="addr:state" v="VT"/>
    <tag k="ref:vcgi:esiteid" v="23427"/>
  </node>
  <node id="-797" visible="true" lat="44.21471564" lon="-72.55579784">
    <!-- multiple: "3122 Airport Road, , VT" Multiple exact matches in OSM. -->
    <tag k="addr:housenumber" v="3122"/>
    <tag k="addr:street" v="Airport Road"/>
    <tag k="addr:state" v="VT"/>
    <tag k="ref:vcgi:esiteid" v="23450"/>
  </node>
  <node id="-825" visible="true" lat="44.21353647" lon="-72.57632089">
    <!-- multiple: "213 Paine Turnpike North, , VT" Multiple exact matches in OSM. -->
    <tag k="addr:housenumber" v="213"/>
    <tag k="addr:street" v="Paine Turnpike North"/>
    <tag k="addr:state" v="VT"/>
    <tag k="ref:vcgi:esiteid" v="23478"/>
  </node>
  <node id="-866" visible="true" lat="44.21175255" lon="-72.57792177">
    <!-- multiple: "108 Shed Road, , VT" Multiple exact matches in OSM. -->
    <tag k="addr:housenumber" v="108"/>
    <tag k="addr:street" v="Shed Road"/>
    <tag k="addr:state" v="VT"/>
    <tag k="ref:vcgi:esiteid" v="23522"/>
  </node>
  <node id="-998" visible="true" lat="44.19851264" lon="-72.63279353">
    <!-- multiple: "45 School Street, , VT" Multiple exact matches in OSM. -->
    <tag k="addr:housenumber" v="45"/>
    <tag k="addr:street" v="School Street"/>
    <tag k="addr:state" v="VT"/>
    <tag k="ref:vcgi:esiteid" v="23658"/>
  </node>
  <node id="-1048" visible="true" lat="44.19275665" lon="-72.65699005">
    <!-- multiple: "762 West Hill Road, , VT" Multiple exact matches in OSM. -->
    <tag k="addr:housenumber" v="762"/>
    <tag k="addr:street" v="West Hill Road"/>
    <tag k="addr:state" v="VT"/>
    <tag k="ref:vcgi:esiteid" v="23708"/>
  </node>
  <node id="-1135" visible="true" lat="44.18620176" lon="-72.59469515">
    <!-- multiple: "1640 Brookfield Road, , VT" Multiple exact matches in OSM. -->
    <tag k="addr:housenumber" v="1640"/>
    <tag k="addr:street" v="Brookfield Road"/>
    <tag k="addr:state" v="VT"/>
    <tag k="ref:vcgi:esiteid" v="23796"/>
  </node>
  <node id="-1245" visible="true" lat="44.21610126" lon="-72.57250902">
    <!-- multiple: "460 Paine Turnpike North, , VT" Multiple exact matches in OSM. -->
    <tag k="addr:housenumber" v="460"/>
    <tag k="addr:street" v="Paine Turnpike North"/>
    <tag k="addr:state" v="VT"/>
    <tag k="ref:vcgi:esiteid" v="23911"/>
  </node>
  <node id="-1293" visible="true" lat="44.21692969" lon="-72.56502248">
    <!-- multiple: "282 Berlin Mall Road, , VT" Multiple exact matches in OSM. -->
    <tag k="addr:housenumber" v="282"/>
    <tag k="addr:street" v="Berlin Mall Road"/>
    <tag k="addr:state" v="VT"/>
    <tag k="ref:vcgi:esiteid" v="23964"/>
  </node>
  <node id="-1302" visible="true" lat="44.22150105" lon="-72.54520763">
    <!-- multiple: "798 U.S. Route 302, , VT" Multiple exact matches in OSM. -->
    <tag k="addr:housenumber" v="798"/>
    <tag k="addr:street" v="U.S. Route 302"/>
    <tag k="addr:state" v="VT"/>
    <tag k="ref:vcgi:esiteid" v="23975"/>
  </node>
  <node id="-1322" visible="true" lat="44.2027411" lon="-72.66282976">
    <!-- multiple: "1605 West Hill Road, , VT" Multiple exact matches in OSM. -->
    <tag k="addr:housenumber" v="1605"/>
    <tag k="addr:street" v="West Hill Road"/>
    <tag k="addr:state" v="VT"/>
    <tag k="ref:vcgi:esiteid" v="23996"/>
  </node>
  <node id="-1335" visible="true" lat="44.20560306" lon="-72.55941026">
    <!-- multiple: "58 East View Lane, , VT" Multiple exact matches in OSM. -->
    <tag k="addr:housenumber" v="58"/>
    <tag k="addr:street" v="East View Lane"/>
    <tag k="addr:state" v="VT"/>
    <tag k="ref:vcgi:esiteid" v="306903"/>
  </node>
  <node id="-1336" visible="true" lat="44.20526636" lon="-72.55850203">
    <!-- multiple: "82 East View Lane, , VT" Multiple exact matches in OSM. -->
    <tag k="addr:housenumber" v="82"/>
    <tag k="addr:street" v="East View Lane"/>
    <tag k="addr:state" v="VT"/>
    <tag k="ref:vcgi:esiteid" v="306904"/>
  </node>
  <node id="-1406" visible="true" lat="44.2468264" lon="-72.59012352">
    <!-- multiple: "6598 Vermont Route 12, , VT" Multiple exact matches in OSM. -->
    <tag k="addr:housenumber" v="6598"/>
    <tag k="addr:street" v="Vermont Route 12"/>
    <tag k="addr:state" v="VT"/>
    <tag k="ref:vcgi:esiteid" v="341856"/>
  </node>
  <node id="-1481" visible="true" lat="44.24044075" lon="-72.54006871">
    <!-- multiple: "97 Marvin Road, , VT" Multiple exact matches in OSM. -->
    <tag k="addr:housenumber" v="97"/>
    <tag k="addr:street" v="Marvin Road"/>
    <tag k="addr:state" v="VT"/>
    <tag k="ref:vcgi:esiteid" v="452126"/>
  </node>
</osm>
