<?xml version="1.0" encoding="UTF-8"?>
<osm version="0.6" generator="JOSM" upload="false">
  <node id="-158" visible="true" lat="44.85475294" lon="-72.10266692">
    <!-- multiple: "3507 Chilafoux Road, , VT" Multiple exact matches in OSM. -->
    <tag k="addr:housenumber" v="3507"/>
    <tag k="addr:street" v="Chilafoux Road"/>
    <tag k="addr:state" v="VT"/>
    <tag k="ref:vcgi:esiteid" v="41334"/>
  </node>
  <node id="-162" visible="true" lat="44.85392478" lon="-72.10092586">
    <!-- multiple: "3415 Chilafoux Road, , VT" Multiple exact matches in OSM. -->
    <tag k="addr:housenumber" v="3415"/>
    <tag k="addr:street" v="Chilafoux Road"/>
    <tag k="addr:state" v="VT"/>
    <tag k="ref:vcgi:esiteid" v="41338"/>
  </node>
  <node id="-169" visible="true" lat="44.85021208" lon="-72.09475436">
    <!-- multiple: "3025 Chilafoux Road, , VT" Multiple exact matches in OSM. -->
    <tag k="addr:housenumber" v="3025"/>
    <tag k="addr:street" v="Chilafoux Road"/>
    <tag k="addr:state" v="VT"/>
    <tag k="ref:vcgi:esiteid" v="41345"/>
  </node>
  <node id="-172" visible="true" lat="44.84975738" lon="-72.09355225">
    <!-- multiple: "2907 Chilafoux Road, , VT" Multiple exact matches in OSM. -->
    <tag k="addr:housenumber" v="2907"/>
    <tag k="addr:street" v="Chilafoux Road"/>
    <tag k="addr:state" v="VT"/>
    <tag k="ref:vcgi:esiteid" v="41348"/>
  </node>
  <node id="-321" visible="true" lat="44.81982105" lon="-72.13770493">
    <!-- multiple: "103 Chase Road, , VT" Multiple exact matches in OSM. -->
    <tag k="addr:housenumber" v="103"/>
    <tag k="addr:street" v="Chase Road"/>
    <tag k="addr:state" v="VT"/>
    <tag k="ref:vcgi:esiteid" v="41504"/>
  </node>
  <node id="-396" visible="true" lat="44.80364542" lon="-72.13255848">
    <!-- multiple: "645 Evansville Road, , VT" Multiple exact matches in OSM. -->
    <tag k="addr:housenumber" v="645"/>
    <tag k="addr:street" v="Evansville Road"/>
    <tag k="addr:state" v="VT"/>
    <tag k="ref:vcgi:esiteid" v="41580"/>
  </node>
  <node id="-465" visible="true" lat="44.85441477" lon="-72.10206789">
    <!-- multiple: "3473 Chilafoux Road, , VT" Multiple exact matches in OSM. -->
    <tag k="addr:housenumber" v="3473"/>
    <tag k="addr:street" v="Chilafoux Road"/>
    <tag k="addr:state" v="VT"/>
    <tag k="ref:vcgi:esiteid" v="41651"/>
  </node>
  <node id="-531" visible="true" lat="44.85604476" lon="-72.10487254">
    <!-- multiple: "3513 Chilafoux Road, , VT" Multiple exact matches in OSM. -->
    <tag k="addr:housenumber" v="3513"/>
    <tag k="addr:street" v="Chilafoux Road"/>
    <tag k="addr:state" v="VT"/>
    <tag k="ref:vcgi:esiteid" v="41723"/>
  </node>
  <node id="-550" visible="true" lat="44.85374882" lon="-72.1006357">
    <!-- multiple: "3397 Chilafoux Road, , VT" Multiple exact matches in OSM. -->
    <tag k="addr:housenumber" v="3397"/>
    <tag k="addr:street" v="Chilafoux Road"/>
    <tag k="addr:state" v="VT"/>
    <tag k="ref:vcgi:esiteid" v="62424"/>
  </node>
  <node id="-588" visible="true" lat="44.85188667" lon="-72.09689773">
    <!-- multiple: "3175 Chilafoux Road, , VT" Multiple exact matches in OSM. -->
    <tag k="addr:housenumber" v="3175"/>
    <tag k="addr:street" v="Chilafoux Road"/>
    <tag k="addr:state" v="VT"/>
    <tag k="ref:vcgi:esiteid" v="345503"/>
  </node>
  <node id="-649" visible="true" lat="44.85540559" lon="-72.10545013">
    <!-- multiple: "3533 Chilafoux Road, , VT" Multiple exact matches in OSM. -->
    <tag k="addr:housenumber" v="3533"/>
    <tag k="addr:street" v="Chilafoux Road"/>
    <tag k="addr:state" v="VT"/>
    <tag k="ref:vcgi:esiteid" v="613507"/>
  </node>
  <node id="-706" visible="true" lat="44.84722966" lon="-72.08791323">
    <!-- multiple: "2628 Chilafoux Road, , VT" Multiple exact matches in OSM. -->
    <tag k="addr:housenumber" v="2628"/>
    <tag k="addr:street" v="Chilafoux Road"/>
    <tag k="addr:state" v="VT"/>
    <tag k="ref:vcgi:esiteid" v="750878"/>
  </node>
  <node id="-719" visible="true" lat="44.85206193" lon="-72.09862602">
    <!-- multiple: "3235 Chilafoux Road, , VT" Multiple exact matches in OSM. -->
    <tag k="addr:housenumber" v="3235"/>
    <tag k="addr:street" v="Chilafoux Road"/>
    <tag k="addr:state" v="VT"/>
    <tag k="ref:vcgi:esiteid" v="760491"/>
  </node>
  <node id="-744" visible="true" lat="44.8528975" lon="-72.10036892">
    <!-- multiple: "3327 Chilafoux Road, , VT" Multiple exact matches in OSM. -->
    <tag k="addr:housenumber" v="3327"/>
    <tag k="addr:street" v="Chilafoux Road"/>
    <tag k="addr:state" v="VT"/>
    <tag k="ref:vcgi:esiteid" v="765296"/>
  </node>
</osm>
