<?xml version="1.0" encoding="UTF-8"?>
<osm version="0.6" generator="JOSM" upload="false">
  <node id="-452" visible="true" lat="44.61815315" lon="-71.98407608">
    <!-- multiple: "1874 Gaskell Hill Road, , VT" Multiple exact matches in OSM. -->
    <tag k="addr:housenumber" v="1874"/>
    <tag k="addr:street" v="Gaskell Hill Road"/>
    <tag k="addr:state" v="VT"/>
    <tag k="ref:vcgi:esiteid" v="42180"/>
  </node>
  <node id="-580" visible="true" lat="44.60199859" lon="-71.92839689">
    <!-- multiple: "1789 Vermont Route 114, , VT" Multiple exact matches in OSM. -->
    <tag k="addr:housenumber" v="1789"/>
    <tag k="addr:street" v="Vermont Route 114"/>
    <tag k="addr:state" v="VT"/>
    <tag k="ref:vcgi:esiteid" v="42309"/>
  </node>
  <node id="-710" visible="true" lat="44.58886074" lon="-71.94224823">
    <!-- multiple: "603 Vermont Route 114, , VT" Multiple exact matches in OSM. -->
    <tag k="addr:housenumber" v="603"/>
    <tag k="addr:street" v="Vermont Route 114"/>
    <tag k="addr:state" v="VT"/>
    <tag k="ref:vcgi:esiteid" v="42442"/>
  </node>
  <node id="-712" visible="true" lat="44.58844499" lon="-71.94138627">
    <!-- multiple: "654 Vermont Route 114, , VT" Multiple exact matches in OSM. -->
    <tag k="addr:housenumber" v="654"/>
    <tag k="addr:street" v="Vermont Route 114"/>
    <tag k="addr:state" v="VT"/>
    <tag k="ref:vcgi:esiteid" v="42444"/>
  </node>
  <node id="-732" visible="true" lat="44.58827573" lon="-71.94557368">
    <!-- multiple: "427 Vermont Route 114, , VT" Multiple exact matches in OSM. -->
    <tag k="addr:housenumber" v="427"/>
    <tag k="addr:street" v="Vermont Route 114"/>
    <tag k="addr:state" v="VT"/>
    <tag k="ref:vcgi:esiteid" v="42465"/>
  </node>
  <node id="-753" visible="true" lat="44.58735034" lon="-71.94391667">
    <!-- multiple: "66 Belden Hill, , VT" Multiple exact matches in OSM. -->
    <tag k="addr:housenumber" v="66"/>
    <tag k="addr:street" v="Belden Hill"/>
    <tag k="addr:state" v="VT"/>
    <tag k="ref:vcgi:esiteid" v="42487"/>
  </node>
  <node id="-934" visible="true" lat="44.58663445" lon="-71.94456093">
    <!-- multiple: "44 Belden Hill, , VT" Multiple exact matches in OSM. -->
    <tag k="addr:housenumber" v="44"/>
    <tag k="addr:street" v="Belden Hill"/>
    <tag k="addr:state" v="VT"/>
    <tag k="ref:vcgi:esiteid" v="42673"/>
  </node>
  <node id="-1015" visible="true" lat="44.59092105" lon="-71.91879694">
    <!-- multiple: "1089 Mountain Road, , VT" Multiple exact matches in OSM. -->
    <tag k="addr:housenumber" v="1089"/>
    <tag k="addr:street" v="Mountain Road"/>
    <tag k="addr:state" v="VT"/>
    <tag k="ref:vcgi:esiteid" v="305848"/>
  </node>
  <node id="-1116" visible="true" lat="44.57733689" lon="-71.93234265">
    <!-- multiple: "964 Kirby Road, , VT" Multiple exact matches in OSM. -->
    <tag k="addr:housenumber" v="964"/>
    <tag k="addr:street" v="Kirby Road"/>
    <tag k="addr:state" v="VT"/>
    <tag k="ref:vcgi:esiteid" v="452354"/>
  </node>
  <node id="-1149" visible="true" lat="44.59100668" lon="-71.91819486">
    <!-- multiple: "1089 Mountain Road, , VT" Multiple exact matches in OSM. -->
    <tag k="addr:housenumber" v="1089"/>
    <tag k="addr:street" v="Mountain Road"/>
    <tag k="addr:state" v="VT"/>
    <tag k="ref:vcgi:esiteid" v="617513"/>
  </node>
  <node id="-1199" visible="true" lat="44.56868618" lon="-71.91829451">
    <!-- multiple: "360 Brindle Terrace, , VT" Multiple exact matches in OSM. -->
    <tag k="addr:housenumber" v="360"/>
    <tag k="addr:street" v="Brindle Terrace"/>
    <tag k="addr:state" v="VT"/>
    <tag k="ref:vcgi:esiteid" v="759395"/>
  </node>
  <node id="-1203" visible="true" lat="44.59081913" lon="-71.99114417">
    <!-- multiple: "526 Devon Road, , VT" Multiple exact matches in OSM. -->
    <tag k="addr:housenumber" v="526"/>
    <tag k="addr:street" v="Devon Road"/>
    <tag k="addr:state" v="VT"/>
    <tag k="ref:vcgi:esiteid" v="759609"/>
  </node>
</osm>
