<?xml version="1.0" encoding="UTF-8"?>
<osm version="0.6" generator="JOSM" upload="false">
  <node id="-112" visible="true" lat="44.52851475" lon="-73.26857654">
    <!-- multiple: "3074 North Avenue, Burlington, VT" Multiple exact matches in OSM. -->
    <tag k="addr:city" v="Burlington"/>
    <tag k="addr:housenumber" v="3074"/>
    <tag k="addr:street" v="North Avenue"/>
    <tag k="addr:state" v="VT"/>
    <tag k="ref:vcgi:esiteid" v="42765"/>
  </node>
  <node id="-693" visible="true" lat="44.52000278" lon="-73.25665082">
    <!-- multiple: "155 Plattsburg Avenue, Burlington, VT" Multiple exact matches in OSM. -->
    <tag k="addr:city" v="Burlington"/>
    <tag k="addr:housenumber" v="155"/>
    <tag k="addr:street" v="Plattsburg Avenue"/>
    <tag k="addr:state" v="VT"/>
    <tag k="ref:vcgi:esiteid" v="43347"/>
  </node>
  <node id="-694" visible="true" lat="44.52025507" lon="-73.25661007">
    <!-- multiple: "155 Plattsburg Avenue, Burlington, VT" Multiple exact matches in OSM. -->
    <tag k="addr:city" v="Burlington"/>
    <tag k="addr:housenumber" v="155"/>
    <tag k="addr:street" v="Plattsburg Avenue"/>
    <tag k="addr:state" v="VT"/>
    <tag k="ref:vcgi:esiteid" v="43348"/>
  </node>
  <node id="-695" visible="true" lat="44.5201591" lon="-73.25698015">
    <!-- multiple: "155 Plattsburg Avenue, Burlington, VT" Multiple exact matches in OSM. -->
    <tag k="addr:city" v="Burlington"/>
    <tag k="addr:housenumber" v="155"/>
    <tag k="addr:street" v="Plattsburg Avenue"/>
    <tag k="addr:state" v="VT"/>
    <tag k="ref:vcgi:esiteid" v="43349"/>
  </node>
  <node id="-736" visible="true" lat="44.5214996" lon="-73.2679944">
    <!-- multiple: "67 Northshore Drive, Burlington, VT" Multiple exact matches in OSM. -->
    <tag k="addr:city" v="Burlington"/>
    <tag k="addr:housenumber" v="67"/>
    <tag k="addr:street" v="Northshore Drive"/>
    <tag k="addr:state" v="VT"/>
    <tag k="ref:vcgi:esiteid" v="43390"/>
  </node>
  <node id="-737" visible="true" lat="44.52140255" lon="-73.26824549">
    <!-- multiple: "67 Northshore Drive, Burlington, VT" Multiple exact matches in OSM. -->
    <tag k="addr:city" v="Burlington"/>
    <tag k="addr:housenumber" v="67"/>
    <tag k="addr:street" v="Northshore Drive"/>
    <tag k="addr:state" v="VT"/>
    <tag k="ref:vcgi:esiteid" v="43391"/>
  </node>
  <node id="-796" visible="true" lat="44.51901621" lon="-73.26321869">
    <!-- multiple: "26 Edson Street, Burlington, VT" Multiple exact matches in OSM. -->
    <tag k="addr:city" v="Burlington"/>
    <tag k="addr:housenumber" v="26"/>
    <tag k="addr:street" v="Edson Street"/>
    <tag k="addr:state" v="VT"/>
    <tag k="ref:vcgi:esiteid" v="43450"/>
  </node>
  <node id="-935" visible="true" lat="44.51530477" lon="-73.2566455">
    <!-- multiple: "1555 North Avenue, Burlington, VT" Multiple exact matches in OSM. -->
    <tag k="addr:city" v="Burlington"/>
    <tag k="addr:housenumber" v="1555"/>
    <tag k="addr:street" v="North Avenue"/>
    <tag k="addr:state" v="VT"/>
    <tag k="ref:vcgi:esiteid" v="43589"/>
  </node>
  <node id="-945" visible="true" lat="44.51566298" lon="-73.25714024">
    <!-- multiple: "1563 North Avenue, Burlington, VT" Multiple exact matches in OSM. -->
    <tag k="addr:city" v="Burlington"/>
    <tag k="addr:housenumber" v="1563"/>
    <tag k="addr:street" v="North Avenue"/>
    <tag k="addr:state" v="VT"/>
    <tag k="ref:vcgi:esiteid" v="43599"/>
  </node>
  <node id="-989" visible="true" lat="44.51702307" lon="-73.26000212">
    <!-- multiple: "1645 North Avenue, Burlington, VT" Multiple exact matches in OSM. -->
    <tag k="addr:city" v="Burlington"/>
    <tag k="addr:housenumber" v="1645"/>
    <tag k="addr:street" v="North Avenue"/>
    <tag k="addr:state" v="VT"/>
    <tag k="ref:vcgi:esiteid" v="43643"/>
  </node>
  <node id="-1306" visible="true" lat="44.51113162" lon="-73.23511498">
    <!-- multiple: "262 Van Patten Parkway, Burlington, VT" Multiple exact matches in OSM. -->
    <tag k="addr:city" v="Burlington"/>
    <tag k="addr:housenumber" v="262"/>
    <tag k="addr:street" v="Van Patten Parkway"/>
    <tag k="addr:state" v="VT"/>
    <tag k="ref:vcgi:esiteid" v="43960"/>
  </node>
  <node id="-1347" visible="true" lat="44.51355285" lon="-73.24166398">
    <!-- multiple: "355 Ethan Allen Parkway, Burlington, VT" Multiple exact matches in OSM. -->
    <tag k="addr:city" v="Burlington"/>
    <tag k="addr:housenumber" v="355"/>
    <tag k="addr:street" v="Ethan Allen Parkway"/>
    <tag k="addr:state" v="VT"/>
    <tag k="ref:vcgi:esiteid" v="44001"/>
  </node>
  <node id="-1348" visible="true" lat="44.51330975" lon="-73.24184149">
    <!-- multiple: "355 Ethan Allen Parkway, Burlington, VT" Multiple exact matches in OSM. -->
    <tag k="addr:city" v="Burlington"/>
    <tag k="addr:housenumber" v="355"/>
    <tag k="addr:street" v="Ethan Allen Parkway"/>
    <tag k="addr:state" v="VT"/>
    <tag k="ref:vcgi:esiteid" v="44002"/>
  </node>
  <node id="-1349" visible="true" lat="44.51301508" lon="-73.24165344">
    <!-- multiple: "355 Ethan Allen Parkway, Burlington, VT" Multiple exact matches in OSM. -->
    <tag k="addr:city" v="Burlington"/>
    <tag k="addr:housenumber" v="355"/>
    <tag k="addr:street" v="Ethan Allen Parkway"/>
    <tag k="addr:state" v="VT"/>
    <tag k="ref:vcgi:esiteid" v="44003"/>
  </node>
  <node id="-1358" visible="true" lat="44.51310192" lon="-73.24303509">
    <!-- multiple: "332 Ethan Allen Parkway, Burlington, VT" Multiple exact matches in OSM. -->
    <tag k="addr:city" v="Burlington"/>
    <tag k="addr:housenumber" v="332"/>
    <tag k="addr:street" v="Ethan Allen Parkway"/>
    <tag k="addr:state" v="VT"/>
    <tag k="ref:vcgi:esiteid" v="44012"/>
  </node>
  <node id="-1455" visible="true" lat="44.51143018" lon="-73.24320783">
    <!-- multiple: "282 Ethan Allen Parkway, Burlington, VT" Multiple exact matches in OSM. -->
    <tag k="addr:city" v="Burlington"/>
    <tag k="addr:housenumber" v="282"/>
    <tag k="addr:street" v="Ethan Allen Parkway"/>
    <tag k="addr:state" v="VT"/>
    <tag k="ref:vcgi:esiteid" v="44109"/>
  </node>
  <node id="-1456" visible="true" lat="44.5114831" lon="-73.24273623">
    <!-- multiple: "282 Ethan Allen Parkway, Burlington, VT" Multiple exact matches in OSM. -->
    <tag k="addr:city" v="Burlington"/>
    <tag k="addr:housenumber" v="282"/>
    <tag k="addr:street" v="Ethan Allen Parkway"/>
    <tag k="addr:state" v="VT"/>
    <tag k="ref:vcgi:esiteid" v="44110"/>
  </node>
  <node id="-1457" visible="true" lat="44.51147467" lon="-73.24215449">
    <!-- multiple: "282 Ethan Allen Parkway, Burlington, VT" Multiple exact matches in OSM. -->
    <tag k="addr:city" v="Burlington"/>
    <tag k="addr:housenumber" v="282"/>
    <tag k="addr:street" v="Ethan Allen Parkway"/>
    <tag k="addr:state" v="VT"/>
    <tag k="ref:vcgi:esiteid" v="44111"/>
  </node>
  <node id="-1462" visible="true" lat="44.51337031" lon="-73.24918816">
    <!-- multiple: "1364 North Avenue, Burlington, VT" Multiple exact matches in OSM. -->
    <tag k="addr:city" v="Burlington"/>
    <tag k="addr:housenumber" v="1364"/>
    <tag k="addr:street" v="North Avenue"/>
    <tag k="addr:state" v="VT"/>
    <tag k="ref:vcgi:esiteid" v="44116"/>
  </node>
  <node id="-1472" visible="true" lat="44.51104847" lon="-73.24982462">
    <!-- multiple: "1316 North Avenue, Burlington, VT" Multiple exact matches in OSM. -->
    <tag k="addr:city" v="Burlington"/>
    <tag k="addr:housenumber" v="1316"/>
    <tag k="addr:street" v="North Avenue"/>
    <tag k="addr:state" v="VT"/>
    <tag k="ref:vcgi:esiteid" v="44126"/>
  </node>
  <node id="-1488" visible="true" lat="44.51173359" lon="-73.25077711">
    <!-- multiple: "1356 North Avenue, Burlington, VT" Multiple exact matches in OSM. -->
    <tag k="addr:city" v="Burlington"/>
    <tag k="addr:housenumber" v="1356"/>
    <tag k="addr:street" v="North Avenue"/>
    <tag k="addr:state" v="VT"/>
    <tag k="ref:vcgi:esiteid" v="44142"/>
  </node>
  <node id="-1495" visible="true" lat="44.51250617" lon="-73.25189028">
    <!-- multiple: "1398 North Avenue, Burlington, VT" Multiple exact matches in OSM. -->
    <tag k="addr:city" v="Burlington"/>
    <tag k="addr:housenumber" v="1398"/>
    <tag k="addr:street" v="North Avenue"/>
    <tag k="addr:state" v="VT"/>
    <tag k="ref:vcgi:esiteid" v="44149"/>
  </node>
  <node id="-1584" visible="true" lat="44.513648" lon="-73.25557793">
    <!-- multiple: "1489 North Avenue, Burlington, VT" Multiple exact matches in OSM. -->
    <tag k="addr:city" v="Burlington"/>
    <tag k="addr:housenumber" v="1489"/>
    <tag k="addr:street" v="North Avenue"/>
    <tag k="addr:state" v="VT"/>
    <tag k="ref:vcgi:esiteid" v="44238"/>
  </node>
  <node id="-1585" visible="true" lat="44.51378478" lon="-73.25549464">
    <!-- multiple: "1489 North Avenue, Burlington, VT" Multiple exact matches in OSM. -->
    <tag k="addr:city" v="Burlington"/>
    <tag k="addr:housenumber" v="1489"/>
    <tag k="addr:street" v="North Avenue"/>
    <tag k="addr:state" v="VT"/>
    <tag k="ref:vcgi:esiteid" v="44239"/>
  </node>
  <node id="-1588" visible="true" lat="44.51400216" lon="-73.2551624">
    <!-- multiple: "1489 North Avenue, Burlington, VT" Multiple exact matches in OSM. -->
    <tag k="addr:city" v="Burlington"/>
    <tag k="addr:housenumber" v="1489"/>
    <tag k="addr:street" v="North Avenue"/>
    <tag k="addr:state" v="VT"/>
    <tag k="ref:vcgi:esiteid" v="44242"/>
  </node>
  <node id="-1589" visible="true" lat="44.51398602" lon="-73.25490012">
    <!-- multiple: "1489 North Avenue, Burlington, VT" Multiple exact matches in OSM. -->
    <tag k="addr:city" v="Burlington"/>
    <tag k="addr:housenumber" v="1489"/>
    <tag k="addr:street" v="North Avenue"/>
    <tag k="addr:state" v="VT"/>
    <tag k="ref:vcgi:esiteid" v="44243"/>
  </node>
  <node id="-1639" visible="true" lat="44.51157326" lon="-73.25436623">
    <!-- multiple: "60 Staniford Road, Burlington, VT" Multiple exact matches in OSM. -->
    <tag k="addr:city" v="Burlington"/>
    <tag k="addr:housenumber" v="60"/>
    <tag k="addr:street" v="Staniford Road"/>
    <tag k="addr:state" v="VT"/>
    <tag k="ref:vcgi:esiteid" v="44293"/>
  </node>
  <node id="-1782" visible="true" lat="44.51239579" lon="-73.26045585">
    <!-- multiple: "152 Cottage Grove, Burlington, VT" Multiple exact matches in OSM. -->
    <tag k="addr:city" v="Burlington"/>
    <tag k="addr:housenumber" v="152"/>
    <tag k="addr:street" v="Cottage Grove"/>
    <tag k="addr:state" v="VT"/>
    <tag k="ref:vcgi:esiteid" v="44439"/>
  </node>
  <node id="-2628" visible="true" lat="44.50643188" lon="-73.24707153">
    <!-- multiple: "1127 North Avenue, Burlington, VT" Multiple exact matches in OSM. -->
    <tag k="addr:city" v="Burlington"/>
    <tag k="addr:housenumber" v="1127"/>
    <tag k="addr:street" v="North Avenue"/>
    <tag k="addr:state" v="VT"/>
    <tag k="ref:vcgi:esiteid" v="45288"/>
  </node>
  <node id="-2629" visible="true" lat="44.50651385" lon="-73.24573142">
    <!-- multiple: "1127 North Avenue, Burlington, VT" Multiple exact matches in OSM. -->
    <tag k="addr:city" v="Burlington"/>
    <tag k="addr:housenumber" v="1127"/>
    <tag k="addr:street" v="North Avenue"/>
    <tag k="addr:state" v="VT"/>
    <tag k="ref:vcgi:esiteid" v="45289"/>
  </node>
  <node id="-2632" visible="true" lat="44.50911256" lon="-73.24749715">
    <!-- multiple: "1230 North Avenue, Burlington, VT" Multiple exact matches in OSM. -->
    <tag k="addr:city" v="Burlington"/>
    <tag k="addr:housenumber" v="1230"/>
    <tag k="addr:street" v="North Avenue"/>
    <tag k="addr:state" v="VT"/>
    <tag k="ref:vcgi:esiteid" v="45292"/>
  </node>
  <node id="-2956" visible="true" lat="44.5080255" lon="-73.23002556">
    <!-- multiple: "1 Ethan Allen Homestead, Burlington, VT" Multiple exact matches in OSM. -->
    <tag k="addr:city" v="Burlington"/>
    <tag k="addr:housenumber" v="1"/>
    <tag k="addr:street" v="Ethan Allen Homestead"/>
    <tag k="addr:state" v="VT"/>
    <tag k="ref:vcgi:esiteid" v="45620"/>
  </node>
  <node id="-2994" visible="true" lat="44.50249145" lon="-73.2384946">
    <!-- multiple: "914 North Avenue, Burlington, VT" Multiple exact matches in OSM. -->
    <tag k="addr:city" v="Burlington"/>
    <tag k="addr:housenumber" v="914"/>
    <tag k="addr:street" v="North Avenue"/>
    <tag k="addr:state" v="VT"/>
    <tag k="ref:vcgi:esiteid" v="45658"/>
  </node>
  <node id="-3224" visible="true" lat="44.50513856" lon="-73.24204891">
    <!-- multiple: "1044 North Avenue, Burlington, VT" Multiple exact matches in OSM. -->
    <tag k="addr:city" v="Burlington"/>
    <tag k="addr:housenumber" v="1044"/>
    <tag k="addr:street" v="North Avenue"/>
    <tag k="addr:state" v="VT"/>
    <tag k="ref:vcgi:esiteid" v="45888"/>
  </node>
  <node id="-3230" visible="true" lat="44.50548342" lon="-73.24141258">
    <!-- multiple: "76 Ethan Allen Parkway, Burlington, VT" Multiple exact matches in OSM. -->
    <tag k="addr:city" v="Burlington"/>
    <tag k="addr:housenumber" v="76"/>
    <tag k="addr:street" v="Ethan Allen Parkway"/>
    <tag k="addr:state" v="VT"/>
    <tag k="ref:vcgi:esiteid" v="45894"/>
  </node>
  <node id="-3231" visible="true" lat="44.50558714" lon="-73.24113084">
    <!-- multiple: "76 Ethan Allen Parkway, Burlington, VT" Multiple exact matches in OSM. -->
    <tag k="addr:city" v="Burlington"/>
    <tag k="addr:housenumber" v="76"/>
    <tag k="addr:street" v="Ethan Allen Parkway"/>
    <tag k="addr:state" v="VT"/>
    <tag k="ref:vcgi:esiteid" v="45895"/>
  </node>
  <node id="-3232" visible="true" lat="44.50609614" lon="-73.24209962">
    <!-- multiple: "96 Ethan Allen Parkway, Burlington, VT" Multiple exact matches in OSM. -->
    <tag k="addr:city" v="Burlington"/>
    <tag k="addr:housenumber" v="96"/>
    <tag k="addr:street" v="Ethan Allen Parkway"/>
    <tag k="addr:state" v="VT"/>
    <tag k="ref:vcgi:esiteid" v="45896"/>
  </node>
  <node id="-3233" visible="true" lat="44.50595183" lon="-73.24172219">
    <!-- multiple: "96 Ethan Allen Parkway, Burlington, VT" Multiple exact matches in OSM. -->
    <tag k="addr:city" v="Burlington"/>
    <tag k="addr:housenumber" v="96"/>
    <tag k="addr:street" v="Ethan Allen Parkway"/>
    <tag k="addr:state" v="VT"/>
    <tag k="ref:vcgi:esiteid" v="45897"/>
  </node>
  <node id="-3234" visible="true" lat="44.50615826" lon="-73.24133379">
    <!-- multiple: "96 Ethan Allen Parkway, Burlington, VT" Multiple exact matches in OSM. -->
    <tag k="addr:city" v="Burlington"/>
    <tag k="addr:housenumber" v="96"/>
    <tag k="addr:street" v="Ethan Allen Parkway"/>
    <tag k="addr:state" v="VT"/>
    <tag k="ref:vcgi:esiteid" v="45898"/>
  </node>
  <node id="-3235" visible="true" lat="44.50596065" lon="-73.24120766">
    <!-- multiple: "90 Ethan Allen Parkway, Burlington, VT" Multiple exact matches in OSM. -->
    <tag k="addr:city" v="Burlington"/>
    <tag k="addr:housenumber" v="90"/>
    <tag k="addr:street" v="Ethan Allen Parkway"/>
    <tag k="addr:state" v="VT"/>
    <tag k="ref:vcgi:esiteid" v="45899"/>
  </node>
  <node id="-3544" visible="true" lat="44.49758632" lon="-73.23234097">
    <!-- multiple: "602 North Avenue, Burlington, VT" Multiple exact matches in OSM. -->
    <tag k="addr:city" v="Burlington"/>
    <tag k="addr:housenumber" v="602"/>
    <tag k="addr:street" v="North Avenue"/>
    <tag k="addr:state" v="VT"/>
    <tag k="ref:vcgi:esiteid" v="46209"/>
  </node>
  <node id="-3545" visible="true" lat="44.4978043" lon="-73.23209532">
    <!-- multiple: "602 North Avenue, Burlington, VT" Multiple exact matches in OSM. -->
    <tag k="addr:city" v="Burlington"/>
    <tag k="addr:housenumber" v="602"/>
    <tag k="addr:street" v="North Avenue"/>
    <tag k="addr:state" v="VT"/>
    <tag k="ref:vcgi:esiteid" v="46210"/>
  </node>
  <node id="-3569" visible="true" lat="44.49702649" lon="-73.23154904">
    <!-- multiple: "602 North Avenue, Burlington, VT" Multiple exact matches in OSM. -->
    <tag k="addr:city" v="Burlington"/>
    <tag k="addr:housenumber" v="602"/>
    <tag k="addr:street" v="North Avenue"/>
    <tag k="addr:state" v="VT"/>
    <tag k="ref:vcgi:esiteid" v="46234"/>
  </node>
  <node id="-3579" visible="true" lat="44.49739356" lon="-73.23163588">
    <!-- multiple: "602 North Avenue, Burlington, VT" Multiple exact matches in OSM. -->
    <tag k="addr:city" v="Burlington"/>
    <tag k="addr:housenumber" v="602"/>
    <tag k="addr:street" v="North Avenue"/>
    <tag k="addr:state" v="VT"/>
    <tag k="ref:vcgi:esiteid" v="46244"/>
  </node>
  <node id="-3621" visible="true" lat="44.49016777" lon="-73.22646836">
    <!-- multiple: "328 North Avenue, Burlington, VT" Multiple exact matches in OSM. -->
    <tag k="addr:city" v="Burlington"/>
    <tag k="addr:housenumber" v="328"/>
    <tag k="addr:street" v="North Avenue"/>
    <tag k="addr:state" v="VT"/>
    <tag k="ref:vcgi:esiteid" v="46287"/>
  </node>
  <node id="-3623" visible="true" lat="44.48942582" lon="-73.22710314">
    <!-- multiple: "311 North Avenue, Burlington, VT" Multiple exact matches in OSM. -->
    <tag k="addr:city" v="Burlington"/>
    <tag k="addr:housenumber" v="311"/>
    <tag k="addr:street" v="North Avenue"/>
    <tag k="addr:state" v="VT"/>
    <tag k="ref:vcgi:esiteid" v="46289"/>
  </node>
  <node id="-3645" visible="true" lat="44.49026921" lon="-73.21431573">
    <!-- multiple: "354 Manhattan Drive, Burlington, VT" Multiple exact matches in OSM. -->
    <tag k="addr:city" v="Burlington"/>
    <tag k="addr:housenumber" v="354"/>
    <tag k="addr:street" v="Manhattan Drive"/>
    <tag k="addr:state" v="VT"/>
    <tag k="ref:vcgi:esiteid" v="46311"/>
  </node>
  <node id="-3687" visible="true" lat="44.48886825" lon="-73.21090224">
    <!-- multiple: "52 Willow Street, Burlington, VT" Multiple exact matches in OSM. -->
    <tag k="addr:city" v="Burlington"/>
    <tag k="addr:housenumber" v="52"/>
    <tag k="addr:street" v="Willow Street"/>
    <tag k="addr:state" v="VT"/>
    <tag k="ref:vcgi:esiteid" v="46353"/>
  </node>
  <node id="-3738" visible="true" lat="44.4896159" lon="-73.21009044">
    <!-- multiple: "88 Oak Street, Burlington, VT" Multiple exact matches in OSM. -->
    <tag k="addr:city" v="Burlington"/>
    <tag k="addr:housenumber" v="88"/>
    <tag k="addr:street" v="Oak Street"/>
    <tag k="addr:state" v="VT"/>
    <tag k="ref:vcgi:esiteid" v="46404"/>
  </node>
  <node id="-3748" visible="true" lat="44.48906407" lon="-73.20920019">
    <!-- multiple: "700 Riverside Avenue, Burlington, VT" Multiple exact matches in OSM. -->
    <tag k="addr:city" v="Burlington"/>
    <tag k="addr:housenumber" v="700"/>
    <tag k="addr:street" v="Riverside Avenue"/>
    <tag k="addr:state" v="VT"/>
    <tag k="ref:vcgi:esiteid" v="46414"/>
  </node>
  <node id="-3749" visible="true" lat="44.48929811" lon="-73.20924294">
    <!-- multiple: "700 Riverside Avenue, Burlington, VT" Multiple exact matches in OSM. -->
    <tag k="addr:city" v="Burlington"/>
    <tag k="addr:housenumber" v="700"/>
    <tag k="addr:street" v="Riverside Avenue"/>
    <tag k="addr:state" v="VT"/>
    <tag k="ref:vcgi:esiteid" v="46415"/>
  </node>
  <node id="-3765" visible="true" lat="44.4897134" lon="-73.20860583">
    <!-- multiple: "669 Riverside Avenue, Burlington, VT" Multiple exact matches in OSM. -->
    <tag k="addr:city" v="Burlington"/>
    <tag k="addr:housenumber" v="669"/>
    <tag k="addr:street" v="Riverside Avenue"/>
    <tag k="addr:state" v="VT"/>
    <tag k="ref:vcgi:esiteid" v="46431"/>
  </node>
  <node id="-3768" visible="true" lat="44.48992205" lon="-73.20848512">
    <!-- multiple: "669 Riverside Avenue, Burlington, VT" Multiple exact matches in OSM. -->
    <tag k="addr:city" v="Burlington"/>
    <tag k="addr:housenumber" v="669"/>
    <tag k="addr:street" v="Riverside Avenue"/>
    <tag k="addr:state" v="VT"/>
    <tag k="ref:vcgi:esiteid" v="46434"/>
  </node>
  <node id="-3769" visible="true" lat="44.48982061" lon="-73.20816048">
    <!-- multiple: "669 Riverside Avenue, Burlington, VT" Multiple exact matches in OSM. -->
    <tag k="addr:city" v="Burlington"/>
    <tag k="addr:housenumber" v="669"/>
    <tag k="addr:street" v="Riverside Avenue"/>
    <tag k="addr:state" v="VT"/>
    <tag k="ref:vcgi:esiteid" v="46435"/>
  </node>
  <node id="-3770" visible="true" lat="44.49007298" lon="-73.20826035">
    <!-- multiple: "669 Riverside Avenue, Burlington, VT" Multiple exact matches in OSM. -->
    <tag k="addr:city" v="Burlington"/>
    <tag k="addr:housenumber" v="669"/>
    <tag k="addr:street" v="Riverside Avenue"/>
    <tag k="addr:state" v="VT"/>
    <tag k="ref:vcgi:esiteid" v="46436"/>
  </node>
  <node id="-3772" visible="true" lat="44.49016316" lon="-73.20797752">
    <!-- multiple: "669 Riverside Avenue, Burlington, VT" Multiple exact matches in OSM. -->
    <tag k="addr:city" v="Burlington"/>
    <tag k="addr:housenumber" v="669"/>
    <tag k="addr:street" v="Riverside Avenue"/>
    <tag k="addr:state" v="VT"/>
    <tag k="ref:vcgi:esiteid" v="46438"/>
  </node>
  <node id="-3773" visible="true" lat="44.49023936" lon="-73.20766955">
    <!-- multiple: "669 Riverside Avenue, Burlington, VT" Multiple exact matches in OSM. -->
    <tag k="addr:city" v="Burlington"/>
    <tag k="addr:housenumber" v="669"/>
    <tag k="addr:street" v="Riverside Avenue"/>
    <tag k="addr:state" v="VT"/>
    <tag k="ref:vcgi:esiteid" v="46439"/>
  </node>
  <node id="-3774" visible="true" lat="44.49018402" lon="-73.20737758">
    <!-- multiple: "669 Riverside Avenue, Burlington, VT" Multiple exact matches in OSM. -->
    <tag k="addr:city" v="Burlington"/>
    <tag k="addr:housenumber" v="669"/>
    <tag k="addr:street" v="Riverside Avenue"/>
    <tag k="addr:state" v="VT"/>
    <tag k="ref:vcgi:esiteid" v="46440"/>
  </node>
  <node id="-3775" visible="true" lat="44.49013361" lon="-73.20709509">
    <!-- multiple: "669 Riverside Avenue, Burlington, VT" Multiple exact matches in OSM. -->
    <tag k="addr:city" v="Burlington"/>
    <tag k="addr:housenumber" v="669"/>
    <tag k="addr:street" v="Riverside Avenue"/>
    <tag k="addr:state" v="VT"/>
    <tag k="ref:vcgi:esiteid" v="46441"/>
  </node>
  <node id="-3777" visible="true" lat="44.48984968" lon="-73.20784456">
    <!-- multiple: "669 Riverside Avenue, Burlington, VT" Multiple exact matches in OSM. -->
    <tag k="addr:city" v="Burlington"/>
    <tag k="addr:housenumber" v="669"/>
    <tag k="addr:street" v="Riverside Avenue"/>
    <tag k="addr:state" v="VT"/>
    <tag k="ref:vcgi:esiteid" v="46443"/>
  </node>
  <node id="-3778" visible="true" lat="44.48989225" lon="-73.20742994">
    <!-- multiple: "669 Riverside Avenue, Burlington, VT" Multiple exact matches in OSM. -->
    <tag k="addr:city" v="Burlington"/>
    <tag k="addr:housenumber" v="669"/>
    <tag k="addr:street" v="Riverside Avenue"/>
    <tag k="addr:state" v="VT"/>
    <tag k="ref:vcgi:esiteid" v="46444"/>
  </node>
  <node id="-3779" visible="true" lat="44.48989418" lon="-73.20711861">
    <!-- multiple: "669 Riverside Avenue, Burlington, VT" Multiple exact matches in OSM. -->
    <tag k="addr:city" v="Burlington"/>
    <tag k="addr:housenumber" v="669"/>
    <tag k="addr:street" v="Riverside Avenue"/>
    <tag k="addr:state" v="VT"/>
    <tag k="ref:vcgi:esiteid" v="46445"/>
  </node>
  <node id="-3793" visible="true" lat="44.49001717" lon="-73.21123952">
    <!-- multiple: "62 Oak Street, Burlington, VT" Multiple exact matches in OSM. -->
    <tag k="addr:city" v="Burlington"/>
    <tag k="addr:housenumber" v="62"/>
    <tag k="addr:street" v="Oak Street"/>
    <tag k="addr:state" v="VT"/>
    <tag k="ref:vcgi:esiteid" v="46459"/>
  </node>
  <node id="-3803" visible="true" lat="44.49014786" lon="-73.20334353">
    <!-- multiple: "29 Intervale Road, Burlington, VT" Multiple exact matches in OSM. -->
    <tag k="addr:city" v="Burlington"/>
    <tag k="addr:housenumber" v="29"/>
    <tag k="addr:street" v="Intervale Road"/>
    <tag k="addr:state" v="VT"/>
    <tag k="ref:vcgi:esiteid" v="46469"/>
  </node>
  <node id="-3805" visible="true" lat="44.48993469" lon="-73.20426105">
    <!-- multiple: "557 Riverside Avenue, Burlington, VT" Multiple exact matches in OSM. -->
    <tag k="addr:city" v="Burlington"/>
    <tag k="addr:housenumber" v="557"/>
    <tag k="addr:street" v="Riverside Avenue"/>
    <tag k="addr:state" v="VT"/>
    <tag k="ref:vcgi:esiteid" v="46471"/>
  </node>
  <node id="-3927" visible="true" lat="44.48579091" lon="-73.19221945">
    <!-- multiple: "220 Riverside Avenue, Burlington, VT" Multiple exact matches in OSM. -->
    <tag k="addr:city" v="Burlington"/>
    <tag k="addr:housenumber" v="220"/>
    <tag k="addr:street" v="Riverside Avenue"/>
    <tag k="addr:state" v="VT"/>
    <tag k="ref:vcgi:esiteid" v="46595"/>
  </node>
  <node id="-3928" visible="true" lat="44.48557911" lon="-73.19189605">
    <!-- multiple: "220 Riverside Avenue, Burlington, VT" Multiple exact matches in OSM. -->
    <tag k="addr:city" v="Burlington"/>
    <tag k="addr:housenumber" v="220"/>
    <tag k="addr:street" v="Riverside Avenue"/>
    <tag k="addr:state" v="VT"/>
    <tag k="ref:vcgi:esiteid" v="46596"/>
  </node>
  <node id="-3929" visible="true" lat="44.48528136" lon="-73.1918079">
    <!-- multiple: "220 Riverside Avenue, Burlington, VT" Multiple exact matches in OSM. -->
    <tag k="addr:city" v="Burlington"/>
    <tag k="addr:housenumber" v="220"/>
    <tag k="addr:street" v="Riverside Avenue"/>
    <tag k="addr:state" v="VT"/>
    <tag k="ref:vcgi:esiteid" v="46597"/>
  </node>
  <node id="-3930" visible="true" lat="44.48500559" lon="-73.19166896">
    <!-- multiple: "220 Riverside Avenue, Burlington, VT" Multiple exact matches in OSM. -->
    <tag k="addr:city" v="Burlington"/>
    <tag k="addr:housenumber" v="220"/>
    <tag k="addr:street" v="Riverside Avenue"/>
    <tag k="addr:state" v="VT"/>
    <tag k="ref:vcgi:esiteid" v="46598"/>
  </node>
  <node id="-3954" visible="true" lat="44.48715956" lon="-73.19321912">
    <!-- multiple: "267 1/2 Riverside Avenue, Burlington, VT" Multiple exact matches in OSM. -->
    <tag k="addr:city" v="Burlington"/>
    <tag k="addr:housenumber" v="267 1/2"/>
    <tag k="addr:street" v="Riverside Avenue"/>
    <tag k="addr:state" v="VT"/>
    <tag k="ref:vcgi:esiteid" v="46622"/>
  </node>
  <node id="-3991" visible="true" lat="44.48801104" lon="-73.20053824">
    <!-- multiple: "454 Riverside Avenue, Burlington, VT" Multiple exact matches in OSM. -->
    <tag k="addr:city" v="Burlington"/>
    <tag k="addr:housenumber" v="454"/>
    <tag k="addr:street" v="Riverside Avenue"/>
    <tag k="addr:state" v="VT"/>
    <tag k="ref:vcgi:esiteid" v="46659"/>
  </node>
  <node id="-3993" visible="true" lat="44.48845196" lon="-73.20190414">
    <!-- multiple: "500 Riverside Avenue, Burlington, VT" Multiple exact matches in OSM. -->
    <tag k="addr:city" v="Burlington"/>
    <tag k="addr:housenumber" v="500"/>
    <tag k="addr:street" v="Riverside Avenue"/>
    <tag k="addr:state" v="VT"/>
    <tag k="ref:vcgi:esiteid" v="46661"/>
  </node>
  <node id="-4075" visible="true" lat="44.48622532" lon="-73.20574065">
    <!-- multiple: "188 North Willard Street, Burlington, VT" Multiple exact matches in OSM. -->
    <tag k="addr:city" v="Burlington"/>
    <tag k="addr:housenumber" v="188"/>
    <tag k="addr:street" v="North Willard Street"/>
    <tag k="addr:state" v="VT"/>
    <tag k="ref:vcgi:esiteid" v="46745"/>
  </node>
  <node id="-4127" visible="true" lat="44.48762393" lon="-73.20255044">
    <!-- multiple: "243 North Prospect Street, Burlington, VT" Multiple exact matches in OSM. -->
    <tag k="addr:city" v="Burlington"/>
    <tag k="addr:housenumber" v="243"/>
    <tag k="addr:street" v="North Prospect Street"/>
    <tag k="addr:state" v="VT"/>
    <tag k="ref:vcgi:esiteid" v="46797"/>
  </node>
  <node id="-4183" visible="true" lat="44.48820021" lon="-73.20676229">
    <!-- multiple: "168 Archibald Street, Burlington, VT" Multiple exact matches in OSM. -->
    <tag k="addr:city" v="Burlington"/>
    <tag k="addr:housenumber" v="168"/>
    <tag k="addr:street" v="Archibald Street"/>
    <tag k="addr:state" v="VT"/>
    <tag k="ref:vcgi:esiteid" v="46853"/>
  </node>
  <node id="-4244" visible="true" lat="44.48799308" lon="-73.21390296">
    <!-- multiple: "6 Archibald Street, Burlington, VT" Multiple exact matches in OSM. -->
    <tag k="addr:city" v="Burlington"/>
    <tag k="addr:housenumber" v="6"/>
    <tag k="addr:street" v="Archibald Street"/>
    <tag k="addr:state" v="VT"/>
    <tag k="ref:vcgi:esiteid" v="46914"/>
  </node>
  <node id="-4352" visible="true" lat="44.48706667" lon="-73.20937557">
    <!-- multiple: "241 North Winooski Avenue, Burlington, VT" Multiple exact matches in OSM. -->
    <tag k="addr:city" v="Burlington"/>
    <tag k="addr:housenumber" v="241"/>
    <tag k="addr:street" v="North Winooski Avenue"/>
    <tag k="addr:state" v="VT"/>
    <tag k="ref:vcgi:esiteid" v="47022"/>
  </node>
  <node id="-4504" visible="true" lat="44.4877995" lon="-73.20762018">
    <!-- multiple: "294 North Winooski Avenue, Burlington, VT" Multiple exact matches in OSM. -->
    <tag k="addr:city" v="Burlington"/>
    <tag k="addr:housenumber" v="294"/>
    <tag k="addr:street" v="North Winooski Avenue"/>
    <tag k="addr:state" v="VT"/>
    <tag k="ref:vcgi:esiteid" v="47175"/>
  </node>
  <node id="-4535" visible="true" lat="44.48575435" lon="-73.20825814">
    <!-- multiple: "31 Hyde Street, Burlington, VT" Multiple exact matches in OSM. -->
    <tag k="addr:city" v="Burlington"/>
    <tag k="addr:housenumber" v="31"/>
    <tag k="addr:street" v="Hyde Street"/>
    <tag k="addr:state" v="VT"/>
    <tag k="ref:vcgi:esiteid" v="47208"/>
  </node>
  <node id="-4544" visible="true" lat="44.48655206" lon="-73.20771048">
    <!-- multiple: "63 Hyde Street, Burlington, VT" Multiple exact matches in OSM. -->
    <tag k="addr:city" v="Burlington"/>
    <tag k="addr:housenumber" v="63"/>
    <tag k="addr:street" v="Hyde Street"/>
    <tag k="addr:state" v="VT"/>
    <tag k="ref:vcgi:esiteid" v="47217"/>
  </node>
  <node id="-4571" visible="true" lat="44.48491709" lon="-73.21119901">
    <!-- multiple: "264 North Street, Burlington, VT" Multiple exact matches in OSM. -->
    <tag k="addr:city" v="Burlington"/>
    <tag k="addr:housenumber" v="264"/>
    <tag k="addr:street" v="North Street"/>
    <tag k="addr:state" v="VT"/>
    <tag k="ref:vcgi:esiteid" v="47244"/>
  </node>
  <node id="-4607" visible="true" lat="44.48475874" lon="-73.22217441">
    <!-- multiple: "98 North Avenue, Burlington, VT" Multiple exact matches in OSM. -->
    <tag k="addr:city" v="Burlington"/>
    <tag k="addr:housenumber" v="98"/>
    <tag k="addr:street" v="North Avenue"/>
    <tag k="addr:state" v="VT"/>
    <tag k="ref:vcgi:esiteid" v="47280"/>
  </node>
  <node id="-4728" visible="true" lat="44.48578239" lon="-73.22009155">
    <!-- multiple: "44 Pitkin Street, Burlington, VT" Multiple exact matches in OSM. -->
    <tag k="addr:city" v="Burlington"/>
    <tag k="addr:housenumber" v="44"/>
    <tag k="addr:street" v="Pitkin Street"/>
    <tag k="addr:state" v="VT"/>
    <tag k="ref:vcgi:esiteid" v="47401"/>
  </node>
  <node id="-4879" visible="true" lat="44.48729237" lon="-73.21521809">
    <!-- multiple: "86 Lafountain Street, Burlington, VT" Multiple exact matches in OSM. -->
    <tag k="addr:city" v="Burlington"/>
    <tag k="addr:housenumber" v="86"/>
    <tag k="addr:street" v="Lafountain Street"/>
    <tag k="addr:state" v="VT"/>
    <tag k="ref:vcgi:esiteid" v="47552"/>
  </node>
  <node id="-4915" visible="true" lat="44.48663335" lon="-73.21632229">
    <!-- multiple: "70 Rose Street, Burlington, VT" Multiple exact matches in OSM. -->
    <tag k="addr:city" v="Burlington"/>
    <tag k="addr:housenumber" v="70"/>
    <tag k="addr:street" v="Rose Street"/>
    <tag k="addr:state" v="VT"/>
    <tag k="ref:vcgi:esiteid" v="47588"/>
  </node>
  <node id="-4916" visible="true" lat="44.48664939" lon="-73.21610809">
    <!-- multiple: "70 Rose Street, Burlington, VT" Multiple exact matches in OSM. -->
    <tag k="addr:city" v="Burlington"/>
    <tag k="addr:housenumber" v="70"/>
    <tag k="addr:street" v="Rose Street"/>
    <tag k="addr:state" v="VT"/>
    <tag k="ref:vcgi:esiteid" v="47589"/>
  </node>
  <node id="-4920" visible="true" lat="44.48748302" lon="-73.2164218">
    <!-- multiple: "106 Rose Street, Burlington, VT" Multiple exact matches in OSM. -->
    <tag k="addr:city" v="Burlington"/>
    <tag k="addr:housenumber" v="106"/>
    <tag k="addr:street" v="Rose Street"/>
    <tag k="addr:state" v="VT"/>
    <tag k="ref:vcgi:esiteid" v="47593"/>
  </node>
  <node id="-4921" visible="true" lat="44.48765647" lon="-73.21643242">
    <!-- multiple: "106 Rose Street, Burlington, VT" Multiple exact matches in OSM. -->
    <tag k="addr:city" v="Burlington"/>
    <tag k="addr:housenumber" v="106"/>
    <tag k="addr:street" v="Rose Street"/>
    <tag k="addr:state" v="VT"/>
    <tag k="ref:vcgi:esiteid" v="47594"/>
  </node>
  <node id="-4981" visible="true" lat="44.4877605" lon="-73.22565249">
    <!-- multiple: "237 North Avenue, Burlington, VT" Multiple exact matches in OSM. -->
    <tag k="addr:city" v="Burlington"/>
    <tag k="addr:housenumber" v="237"/>
    <tag k="addr:street" v="North Avenue"/>
    <tag k="addr:state" v="VT"/>
    <tag k="ref:vcgi:esiteid" v="47654"/>
  </node>
  <node id="-4988" visible="true" lat="44.48730154" lon="-73.22436176">
    <!-- multiple: "208 North Avenue, Burlington, VT" Multiple exact matches in OSM. -->
    <tag k="addr:city" v="Burlington"/>
    <tag k="addr:housenumber" v="208"/>
    <tag k="addr:street" v="North Avenue"/>
    <tag k="addr:state" v="VT"/>
    <tag k="ref:vcgi:esiteid" v="47661"/>
  </node>
  <node id="-5108" visible="true" lat="44.48064501" lon="-73.22391167">
    <!-- multiple: "1 Depot Street, Burlington, VT" Multiple exact matches in OSM. -->
    <tag k="addr:city" v="Burlington"/>
    <tag k="addr:housenumber" v="1"/>
    <tag k="addr:street" v="Depot Street"/>
    <tag k="addr:state" v="VT"/>
    <tag k="ref:vcgi:esiteid" v="47785"/>
  </node>
  <node id="-5142" visible="true" lat="44.4842231" lon="-73.22035617">
    <!-- multiple: "80 Front Street, Burlington, VT" Multiple exact matches in OSM. -->
    <tag k="addr:city" v="Burlington"/>
    <tag k="addr:housenumber" v="80"/>
    <tag k="addr:street" v="Front Street"/>
    <tag k="addr:state" v="VT"/>
    <tag k="ref:vcgi:esiteid" v="47822"/>
  </node>
  <node id="-5226" visible="true" lat="44.4842885" lon="-73.21676095">
    <!-- multiple: "123 North Street, Burlington, VT" Multiple exact matches in OSM. -->
    <tag k="addr:city" v="Burlington"/>
    <tag k="addr:housenumber" v="123"/>
    <tag k="addr:street" v="North Street"/>
    <tag k="addr:state" v="VT"/>
    <tag k="ref:vcgi:esiteid" v="47908"/>
  </node>
  <node id="-5256" visible="true" lat="44.4840811" lon="-73.21579679">
    <!-- multiple: "52 Murray Street, Burlington, VT" Multiple exact matches in OSM. -->
    <tag k="addr:city" v="Burlington"/>
    <tag k="addr:housenumber" v="52"/>
    <tag k="addr:street" v="Murray Street"/>
    <tag k="addr:state" v="VT"/>
    <tag k="ref:vcgi:esiteid" v="47938"/>
  </node>
  <node id="-5287" visible="true" lat="44.48231905" lon="-73.21734916">
    <!-- multiple: "62 North Champlain Street, Burlington, VT" Multiple exact matches in OSM. -->
    <tag k="addr:city" v="Burlington"/>
    <tag k="addr:housenumber" v="62"/>
    <tag k="addr:street" v="North Champlain Street"/>
    <tag k="addr:state" v="VT"/>
    <tag k="ref:vcgi:esiteid" v="47969"/>
  </node>
  <node id="-5299" visible="true" lat="44.48194882" lon="-73.21649205">
    <!-- multiple: "64 Monroe Street, Burlington, VT" Multiple exact matches in OSM. -->
    <tag k="addr:city" v="Burlington"/>
    <tag k="addr:housenumber" v="64"/>
    <tag k="addr:street" v="Monroe Street"/>
    <tag k="addr:state" v="VT"/>
    <tag k="ref:vcgi:esiteid" v="47981"/>
  </node>
  <node id="-5362" visible="true" lat="44.4833924" lon="-73.21457163">
    <!-- multiple: "29 Allen Street, Burlington, VT" Multiple exact matches in OSM. -->
    <tag k="addr:city" v="Burlington"/>
    <tag k="addr:housenumber" v="29"/>
    <tag k="addr:street" v="Allen Street"/>
    <tag k="addr:state" v="VT"/>
    <tag k="ref:vcgi:esiteid" v="48045"/>
  </node>
  <node id="-5382" visible="true" lat="44.48141977" lon="-73.21450611">
    <!-- multiple: "43 Elmwood Avenue, Burlington, VT" Multiple exact matches in OSM. -->
    <tag k="addr:city" v="Burlington"/>
    <tag k="addr:housenumber" v="43"/>
    <tag k="addr:street" v="Elmwood Avenue"/>
    <tag k="addr:state" v="VT"/>
    <tag k="ref:vcgi:esiteid" v="48065"/>
  </node>
  <node id="-5392" visible="true" lat="44.48170218" lon="-73.21394853">
    <!-- multiple: "43 Elmwood Avenue, Burlington, VT" Multiple exact matches in OSM. -->
    <tag k="addr:city" v="Burlington"/>
    <tag k="addr:housenumber" v="43"/>
    <tag k="addr:street" v="Elmwood Avenue"/>
    <tag k="addr:state" v="VT"/>
    <tag k="ref:vcgi:esiteid" v="48076"/>
  </node>
  <node id="-5403" visible="true" lat="44.48398811" lon="-73.21171679">
    <!-- multiple: "117 North Winooski Avenue, Burlington, VT" Multiple exact matches in OSM. -->
    <tag k="addr:city" v="Burlington"/>
    <tag k="addr:housenumber" v="117"/>
    <tag k="addr:street" v="North Winooski Avenue"/>
    <tag k="addr:state" v="VT"/>
    <tag k="ref:vcgi:esiteid" v="48087"/>
  </node>
  <node id="-5404" visible="true" lat="44.48390264" lon="-73.2116929">
    <!-- multiple: "117 North Winooski Avenue, Burlington, VT" Multiple exact matches in OSM. -->
    <tag k="addr:city" v="Burlington"/>
    <tag k="addr:housenumber" v="117"/>
    <tag k="addr:street" v="North Winooski Avenue"/>
    <tag k="addr:state" v="VT"/>
    <tag k="ref:vcgi:esiteid" v="48088"/>
  </node>
  <node id="-5596" visible="true" lat="44.48171009" lon="-73.21106129">
    <!-- multiple: "42 North Winooski Avenue, Burlington, VT" Multiple exact matches in OSM. -->
    <tag k="addr:city" v="Burlington"/>
    <tag k="addr:housenumber" v="42"/>
    <tag k="addr:street" v="North Winooski Avenue"/>
    <tag k="addr:state" v="VT"/>
    <tag k="ref:vcgi:esiteid" v="48282"/>
  </node>
  <node id="-5612" visible="true" lat="44.48169506" lon="-73.21054874">
    <!-- multiple: "42 North Winooski Avenue, Burlington, VT" Multiple exact matches in OSM. -->
    <tag k="addr:city" v="Burlington"/>
    <tag k="addr:housenumber" v="42"/>
    <tag k="addr:street" v="North Winooski Avenue"/>
    <tag k="addr:state" v="VT"/>
    <tag k="ref:vcgi:esiteid" v="48298"/>
  </node>
  <node id="-5689" visible="true" lat="44.48032565" lon="-73.2117753">
    <!-- multiple: "185 Pearl Street, Burlington, VT" Multiple exact matches in OSM. -->
    <tag k="addr:city" v="Burlington"/>
    <tag k="addr:housenumber" v="185"/>
    <tag k="addr:street" v="Pearl Street"/>
    <tag k="addr:state" v="VT"/>
    <tag k="ref:vcgi:esiteid" v="48375"/>
  </node>
  <node id="-5851" visible="true" lat="44.48036431" lon="-73.20181918">
    <!-- multiple: "425 Pearl Street, Burlington, VT" Multiple exact matches in OSM. -->
    <tag k="addr:city" v="Burlington"/>
    <tag k="addr:housenumber" v="425"/>
    <tag k="addr:street" v="Pearl Street"/>
    <tag k="addr:state" v="VT"/>
    <tag k="ref:vcgi:esiteid" v="48537"/>
  </node>
  <node id="-5975" visible="true" lat="44.48044007" lon="-73.2046156">
    <!-- multiple: "349 Pearl Street, Burlington, VT" Multiple exact matches in OSM. -->
    <tag k="addr:city" v="Burlington"/>
    <tag k="addr:housenumber" v="349"/>
    <tag k="addr:street" v="Pearl Street"/>
    <tag k="addr:state" v="VT"/>
    <tag k="ref:vcgi:esiteid" v="48661"/>
  </node>
  <node id="-6035" visible="true" lat="44.48294851" lon="-73.19807098">
    <!-- multiple: "100 Mansfield Avenue, Burlington, VT" Multiple exact matches in OSM. -->
    <tag k="addr:city" v="Burlington"/>
    <tag k="addr:housenumber" v="100"/>
    <tag k="addr:street" v="Mansfield Avenue"/>
    <tag k="addr:state" v="VT"/>
    <tag k="ref:vcgi:esiteid" v="48722"/>
  </node>
  <node id="-6165" visible="true" lat="44.48311616" lon="-73.19011549">
    <!-- multiple: "273 Colchester Avenue, Burlington, VT" Multiple exact matches in OSM. -->
    <tag k="addr:city" v="Burlington"/>
    <tag k="addr:housenumber" v="273"/>
    <tag k="addr:street" v="Colchester Avenue"/>
    <tag k="addr:state" v="VT"/>
    <tag k="ref:vcgi:esiteid" v="48853"/>
  </node>
  <node id="-6189" visible="true" lat="44.48138603" lon="-73.18055453">
    <!-- multiple: "284 Grove Street, Burlington, VT" Multiple exact matches in OSM. -->
    <tag k="addr:city" v="Burlington"/>
    <tag k="addr:housenumber" v="284"/>
    <tag k="addr:street" v="Grove Street"/>
    <tag k="addr:state" v="VT"/>
    <tag k="ref:vcgi:esiteid" v="48882"/>
  </node>
  <node id="-6284" visible="true" lat="44.47637237" lon="-73.19428022">
    <!-- multiple: "95 Carrigan Drive, Burlington, VT" Multiple exact matches in OSM. -->
    <tag k="addr:city" v="Burlington"/>
    <tag k="addr:housenumber" v="95"/>
    <tag k="addr:street" v="Carrigan Drive"/>
    <tag k="addr:state" v="VT"/>
    <tag k="ref:vcgi:esiteid" v="48987"/>
  </node>
  <node id="-6296" visible="true" lat="44.47782539" lon="-73.19881974">
    <!-- multiple: "94 University Place, Burlington, VT" Multiple exact matches in OSM. -->
    <tag k="addr:city" v="Burlington"/>
    <tag k="addr:housenumber" v="94"/>
    <tag k="addr:street" v="University Place"/>
    <tag k="addr:state" v="VT"/>
    <tag k="ref:vcgi:esiteid" v="48999"/>
  </node>
  <node id="-6318" visible="true" lat="44.47654921" lon="-73.20324014">
    <!-- multiple: "396 Main Street, Burlington, VT" Multiple exact matches in OSM. -->
    <tag k="addr:city" v="Burlington"/>
    <tag k="addr:housenumber" v="396"/>
    <tag k="addr:street" v="Main Street"/>
    <tag k="addr:state" v="VT"/>
    <tag k="ref:vcgi:esiteid" v="49021"/>
  </node>
  <node id="-6330" visible="true" lat="44.47727178" lon="-73.20440907">
    <!-- multiple: "383 College Street, Burlington, VT" Multiple exact matches in OSM. -->
    <tag k="addr:city" v="Burlington"/>
    <tag k="addr:housenumber" v="383"/>
    <tag k="addr:street" v="College Street"/>
    <tag k="addr:state" v="VT"/>
    <tag k="ref:vcgi:esiteid" v="49033"/>
  </node>
  <node id="-6385" visible="true" lat="44.48025239" lon="-73.20459038">
    <!-- multiple: "349 Pearl Street, Burlington, VT" Multiple exact matches in OSM. -->
    <tag k="addr:city" v="Burlington"/>
    <tag k="addr:housenumber" v="349"/>
    <tag k="addr:street" v="Pearl Street"/>
    <tag k="addr:state" v="VT"/>
    <tag k="ref:vcgi:esiteid" v="49088"/>
  </node>
  <node id="-6389" visible="true" lat="44.48024704" lon="-73.2013115">
    <!-- multiple: "1 South Prospect Street, Burlington, VT" Multiple exact matches in OSM. -->
    <tag k="addr:city" v="Burlington"/>
    <tag k="addr:housenumber" v="1"/>
    <tag k="addr:street" v="South Prospect Street"/>
    <tag k="addr:state" v="VT"/>
    <tag k="ref:vcgi:esiteid" v="49092"/>
  </node>
  <node id="-6463" visible="true" lat="44.47698147" lon="-73.21199774">
    <!-- multiple: "191 College Street, Burlington, VT" Multiple exact matches in OSM. -->
    <tag k="addr:city" v="Burlington"/>
    <tag k="addr:housenumber" v="191"/>
    <tag k="addr:street" v="College Street"/>
    <tag k="addr:state" v="VT"/>
    <tag k="ref:vcgi:esiteid" v="49168"/>
  </node>
  <node id="-6468" visible="true" lat="44.47671645" lon="-73.21129573">
    <!-- multiple: "125 South Winooski Avenue, Burlington, VT" Multiple exact matches in OSM. -->
    <tag k="addr:city" v="Burlington"/>
    <tag k="addr:housenumber" v="125"/>
    <tag k="addr:street" v="South Winooski Avenue"/>
    <tag k="addr:state" v="VT"/>
    <tag k="ref:vcgi:esiteid" v="49173"/>
  </node>
  <node id="-6469" visible="true" lat="44.47676944" lon="-73.21233375">
    <!-- multiple: "132 Church Street, Burlington, VT" Multiple exact matches in OSM. -->
    <tag k="addr:city" v="Burlington"/>
    <tag k="addr:housenumber" v="132"/>
    <tag k="addr:street" v="Church Street"/>
    <tag k="addr:state" v="VT"/>
    <tag k="ref:vcgi:esiteid" v="49174"/>
  </node>
  <node id="-6474" visible="true" lat="44.47658876" lon="-73.21428074">
    <!-- multiple: "115 Saint Paul Street, Burlington, VT" Multiple exact matches in OSM. -->
    <tag k="addr:city" v="Burlington"/>
    <tag k="addr:housenumber" v="115"/>
    <tag k="addr:street" v="Saint Paul Street"/>
    <tag k="addr:state" v="VT"/>
    <tag k="ref:vcgi:esiteid" v="49179"/>
  </node>
  <node id="-6477" visible="true" lat="44.4779566" lon="-73.21454617">
    <!-- multiple: "133 Bank Street, Burlington, VT" Multiple exact matches in OSM. -->
    <tag k="addr:city" v="Burlington"/>
    <tag k="addr:housenumber" v="133"/>
    <tag k="addr:street" v="Bank Street"/>
    <tag k="addr:state" v="VT"/>
    <tag k="ref:vcgi:esiteid" v="49182"/>
  </node>
  <node id="-6489" visible="true" lat="44.47766581" lon="-73.21279629">
    <!-- multiple: "97 Church Street, Burlington, VT" Multiple exact matches in OSM. -->
    <tag k="addr:city" v="Burlington"/>
    <tag k="addr:housenumber" v="97"/>
    <tag k="addr:street" v="Church Street"/>
    <tag k="addr:state" v="VT"/>
    <tag k="ref:vcgi:esiteid" v="49194"/>
  </node>
  <node id="-6494" visible="true" lat="44.47734269" lon="-73.21125894">
    <!-- multiple: "210 College Street, Burlington, VT" Multiple exact matches in OSM. -->
    <tag k="addr:city" v="Burlington"/>
    <tag k="addr:housenumber" v="210"/>
    <tag k="addr:street" v="College Street"/>
    <tag k="addr:state" v="VT"/>
    <tag k="ref:vcgi:esiteid" v="49199"/>
  </node>
  <node id="-6500" visible="true" lat="44.47806531" lon="-73.21236795">
    <!-- multiple: "82 Church Street, Burlington, VT" Multiple exact matches in OSM. -->
    <tag k="addr:city" v="Burlington"/>
    <tag k="addr:housenumber" v="82"/>
    <tag k="addr:street" v="Church Street"/>
    <tag k="addr:state" v="VT"/>
    <tag k="ref:vcgi:esiteid" v="49205"/>
  </node>
  <node id="-6503" visible="true" lat="44.47807346" lon="-73.2117815">
    <!-- multiple: "191 Bank Street, Burlington, VT" Multiple exact matches in OSM. -->
    <tag k="addr:city" v="Burlington"/>
    <tag k="addr:housenumber" v="191"/>
    <tag k="addr:street" v="Bank Street"/>
    <tag k="addr:state" v="VT"/>
    <tag k="ref:vcgi:esiteid" v="49208"/>
  </node>
  <node id="-6504" visible="true" lat="44.47782134" lon="-73.21137916">
    <!-- multiple: "93 South Winooski Avenue, Burlington, VT" Multiple exact matches in OSM. -->
    <tag k="addr:city" v="Burlington"/>
    <tag k="addr:housenumber" v="93"/>
    <tag k="addr:street" v="South Winooski Avenue"/>
    <tag k="addr:state" v="VT"/>
    <tag k="ref:vcgi:esiteid" v="49209"/>
  </node>
  <node id="-6513" visible="true" lat="44.47819617" lon="-73.20961177">
    <!-- multiple: "71 South Union Street, Burlington, VT" Multiple exact matches in OSM. -->
    <tag k="addr:city" v="Burlington"/>
    <tag k="addr:housenumber" v="71"/>
    <tag k="addr:street" v="South Union Street"/>
    <tag k="addr:state" v="VT"/>
    <tag k="ref:vcgi:esiteid" v="49218"/>
  </node>
  <node id="-6523" visible="true" lat="44.4786783" lon="-73.21060204">
    <!-- multiple: "21 Buell Street, Burlington, VT" Multiple exact matches in OSM. -->
    <tag k="addr:city" v="Burlington"/>
    <tag k="addr:housenumber" v="21"/>
    <tag k="addr:street" v="Buell Street"/>
    <tag k="addr:state" v="VT"/>
    <tag k="ref:vcgi:esiteid" v="49228"/>
  </node>
  <node id="-6537" visible="true" lat="44.47962866" lon="-73.21195543">
    <!-- multiple: "152 Cherry Street, Burlington, VT" Multiple exact matches in OSM. -->
    <tag k="addr:city" v="Burlington"/>
    <tag k="addr:housenumber" v="152"/>
    <tag k="addr:street" v="Cherry Street"/>
    <tag k="addr:state" v="VT"/>
    <tag k="ref:vcgi:esiteid" v="49242"/>
  </node>
  <node id="-6542" visible="true" lat="44.47973713" lon="-73.2125075">
    <!-- multiple: "30 Church Street, Burlington, VT" Multiple exact matches in OSM. -->
    <tag k="addr:city" v="Burlington"/>
    <tag k="addr:housenumber" v="30"/>
    <tag k="addr:street" v="Church Street"/>
    <tag k="addr:state" v="VT"/>
    <tag k="ref:vcgi:esiteid" v="49247"/>
  </node>
  <node id="-6545" visible="true" lat="44.47959156" lon="-73.21309519">
    <!-- multiple: "29 Church Street, Burlington, VT" Multiple exact matches in OSM. -->
    <tag k="addr:city" v="Burlington"/>
    <tag k="addr:housenumber" v="29"/>
    <tag k="addr:street" v="Church Street"/>
    <tag k="addr:state" v="VT"/>
    <tag k="ref:vcgi:esiteid" v="49250"/>
  </node>
  <node id="-6547" visible="true" lat="44.47987199" lon="-73.21299577">
    <!-- multiple: "21 Church Street, Burlington, VT" Multiple exact matches in OSM. -->
    <tag k="addr:city" v="Burlington"/>
    <tag k="addr:housenumber" v="21"/>
    <tag k="addr:street" v="Church Street"/>
    <tag k="addr:state" v="VT"/>
    <tag k="ref:vcgi:esiteid" v="49252"/>
  </node>
  <node id="-6635" visible="true" lat="44.47832419" lon="-73.215744">
    <!-- multiple: "100 Bank Street, Burlington, VT" Multiple exact matches in OSM. -->
    <tag k="addr:city" v="Burlington"/>
    <tag k="addr:housenumber" v="100"/>
    <tag k="addr:street" v="Bank Street"/>
    <tag k="addr:state" v="VT"/>
    <tag k="ref:vcgi:esiteid" v="49340"/>
  </node>
  <node id="-6644" visible="true" lat="44.47937979" lon="-73.21645636">
    <!-- multiple: "50 Cherry Street, Burlington, VT" Multiple exact matches in OSM. -->
    <tag k="addr:city" v="Burlington"/>
    <tag k="addr:housenumber" v="50"/>
    <tag k="addr:street" v="Cherry Street"/>
    <tag k="addr:state" v="VT"/>
    <tag k="ref:vcgi:esiteid" v="49351"/>
  </node>
  <node id="-6667" visible="true" lat="44.47607081" lon="-73.21644897">
    <!-- multiple: "74 Main Street, Burlington, VT" Multiple exact matches in OSM. -->
    <tag k="addr:city" v="Burlington"/>
    <tag k="addr:housenumber" v="74"/>
    <tag k="addr:street" v="Main Street"/>
    <tag k="addr:state" v="VT"/>
    <tag k="ref:vcgi:esiteid" v="49377"/>
  </node>
  <node id="-6668" visible="true" lat="44.47604383" lon="-73.21619523">
    <!-- multiple: "78 Main Street, Burlington, VT" Multiple exact matches in OSM. -->
    <tag k="addr:city" v="Burlington"/>
    <tag k="addr:housenumber" v="78"/>
    <tag k="addr:street" v="Main Street"/>
    <tag k="addr:state" v="VT"/>
    <tag k="ref:vcgi:esiteid" v="49378"/>
  </node>
  <node id="-6681" visible="true" lat="44.4761274" lon="-73.21532095">
    <!-- multiple: "100 Main Street, Burlington, VT" Multiple exact matches in OSM. -->
    <tag k="addr:city" v="Burlington"/>
    <tag k="addr:housenumber" v="100"/>
    <tag k="addr:street" v="Main Street"/>
    <tag k="addr:state" v="VT"/>
    <tag k="ref:vcgi:esiteid" v="49391"/>
  </node>
  <node id="-6682" visible="true" lat="44.47682563" lon="-73.21508316">
    <!-- multiple: "119 College Street, Burlington, VT" Multiple exact matches in OSM. -->
    <tag k="addr:city" v="Burlington"/>
    <tag k="addr:housenumber" v="119"/>
    <tag k="addr:street" v="College Street"/>
    <tag k="addr:state" v="VT"/>
    <tag k="ref:vcgi:esiteid" v="49392"/>
  </node>
  <node id="-6692" visible="true" lat="44.47536063" lon="-73.21919652">
    <!-- multiple: "3 Main Street, Burlington, VT" Multiple exact matches in OSM. -->
    <tag k="addr:city" v="Burlington"/>
    <tag k="addr:housenumber" v="3"/>
    <tag k="addr:street" v="Main Street"/>
    <tag k="addr:state" v="VT"/>
    <tag k="ref:vcgi:esiteid" v="49402"/>
  </node>
  <node id="-6694" visible="true" lat="44.47554663" lon="-73.21775417">
    <!-- multiple: "53 Main Street, Burlington, VT" Multiple exact matches in OSM. -->
    <tag k="addr:city" v="Burlington"/>
    <tag k="addr:housenumber" v="53"/>
    <tag k="addr:street" v="Main Street"/>
    <tag k="addr:state" v="VT"/>
    <tag k="ref:vcgi:esiteid" v="49404"/>
  </node>
  <node id="-6711" visible="true" lat="44.47324943" lon="-73.21789035">
    <!-- multiple: "47 Maple Street, Burlington, VT" Multiple exact matches in OSM. -->
    <tag k="addr:city" v="Burlington"/>
    <tag k="addr:housenumber" v="47"/>
    <tag k="addr:street" v="Maple Street"/>
    <tag k="addr:state" v="VT"/>
    <tag k="ref:vcgi:esiteid" v="49421"/>
  </node>
  <node id="-6714" visible="true" lat="44.47435674" lon="-73.22157297">
    <!-- multiple: "1 King Street, Burlington, VT" Multiple exact matches in OSM. -->
    <tag k="addr:city" v="Burlington"/>
    <tag k="addr:housenumber" v="1"/>
    <tag k="addr:street" v="King Street"/>
    <tag k="addr:state" v="VT"/>
    <tag k="ref:vcgi:esiteid" v="49424"/>
  </node>
  <node id="-6716" visible="true" lat="44.47488146" lon="-73.22049625">
    <!-- multiple: "1 King Street, Burlington, VT" Multiple exact matches in OSM. -->
    <tag k="addr:city" v="Burlington"/>
    <tag k="addr:housenumber" v="1"/>
    <tag k="addr:street" v="King Street"/>
    <tag k="addr:state" v="VT"/>
    <tag k="ref:vcgi:esiteid" v="49426"/>
  </node>
  <node id="-6730" visible="true" lat="44.47562142" lon="-73.2158156">
    <!-- multiple: "85 Main Street, Burlington, VT" Multiple exact matches in OSM. -->
    <tag k="addr:city" v="Burlington"/>
    <tag k="addr:housenumber" v="85"/>
    <tag k="addr:street" v="Main Street"/>
    <tag k="addr:state" v="VT"/>
    <tag k="ref:vcgi:esiteid" v="49444"/>
  </node>
  <node id="-6754" visible="true" lat="44.47492389" lon="-73.21312734">
    <!-- multiple: "128 King Street, Burlington, VT" Multiple exact matches in OSM. -->
    <tag k="addr:city" v="Burlington"/>
    <tag k="addr:housenumber" v="128"/>
    <tag k="addr:street" v="King Street"/>
    <tag k="addr:state" v="VT"/>
    <tag k="ref:vcgi:esiteid" v="49468"/>
  </node>
  <node id="-6773" visible="true" lat="44.47497355" lon="-73.2105859">
    <!-- multiple: "184 South Winooski Avenue, Burlington, VT" Multiple exact matches in OSM. -->
    <tag k="addr:city" v="Burlington"/>
    <tag k="addr:housenumber" v="184"/>
    <tag k="addr:street" v="South Winooski Avenue"/>
    <tag k="addr:state" v="VT"/>
    <tag k="ref:vcgi:esiteid" v="49488"/>
  </node>
  <node id="-6821" visible="true" lat="44.47422926" lon="-73.21454752">
    <!-- multiple: "187 Saint Paul Street, Burlington, VT" Multiple exact matches in OSM. -->
    <tag k="addr:city" v="Burlington"/>
    <tag k="addr:housenumber" v="187"/>
    <tag k="addr:street" v="Saint Paul Street"/>
    <tag k="addr:state" v="VT"/>
    <tag k="ref:vcgi:esiteid" v="49538"/>
  </node>
  <node id="-6832" visible="true" lat="44.47368269" lon="-73.21676558">
    <!-- multiple: "74 Maple Street, Burlington, VT" Multiple exact matches in OSM. -->
    <tag k="addr:city" v="Burlington"/>
    <tag k="addr:housenumber" v="74"/>
    <tag k="addr:street" v="Maple Street"/>
    <tag k="addr:state" v="VT"/>
    <tag k="ref:vcgi:esiteid" v="49549"/>
  </node>
  <node id="-6878" visible="true" lat="44.47220889" lon="-73.21435527">
    <!-- multiple: "266 Pine Street, Burlington, VT" Multiple exact matches in OSM. -->
    <tag k="addr:city" v="Burlington"/>
    <tag k="addr:housenumber" v="266"/>
    <tag k="addr:street" v="Pine Street"/>
    <tag k="addr:state" v="VT"/>
    <tag k="ref:vcgi:esiteid" v="49595"/>
  </node>
  <node id="-6959" visible="true" lat="44.47550406" lon="-73.20966694">
    <!-- multiple: "227 Main Street, Burlington, VT" Multiple exact matches in OSM. -->
    <tag k="addr:city" v="Burlington"/>
    <tag k="addr:housenumber" v="227"/>
    <tag k="addr:street" v="Main Street"/>
    <tag k="addr:state" v="VT"/>
    <tag k="ref:vcgi:esiteid" v="49676"/>
  </node>
  <node id="-6967" visible="true" lat="44.4743723" lon="-73.20917191">
    <!-- multiple: "207 South Union Street, Burlington, VT" Multiple exact matches in OSM. -->
    <tag k="addr:city" v="Burlington"/>
    <tag k="addr:housenumber" v="207"/>
    <tag k="addr:street" v="South Union Street"/>
    <tag k="addr:state" v="VT"/>
    <tag k="ref:vcgi:esiteid" v="49684"/>
  </node>
  <node id="-6970" visible="true" lat="44.47556377" lon="-73.20573387">
    <!-- multiple: "163 South Willard Street, Burlington, VT" Multiple exact matches in OSM. -->
    <tag k="addr:city" v="Burlington"/>
    <tag k="addr:housenumber" v="163"/>
    <tag k="addr:street" v="South Willard Street"/>
    <tag k="addr:state" v="VT"/>
    <tag k="ref:vcgi:esiteid" v="49687"/>
  </node>
  <node id="-7055" visible="true" lat="44.47363519" lon="-73.20429133">
    <!-- multiple: "375 Maple Street, Burlington, VT" Multiple exact matches in OSM. -->
    <tag k="addr:city" v="Burlington"/>
    <tag k="addr:housenumber" v="375"/>
    <tag k="addr:street" v="Maple Street"/>
    <tag k="addr:state" v="VT"/>
    <tag k="ref:vcgi:esiteid" v="49773"/>
  </node>
  <node id="-7086" visible="true" lat="44.47307089" lon="-73.20797134">
    <!-- multiple: "250 South Union Street, Burlington, VT" Multiple exact matches in OSM. -->
    <tag k="addr:city" v="Burlington"/>
    <tag k="addr:housenumber" v="250"/>
    <tag k="addr:street" v="South Union Street"/>
    <tag k="addr:state" v="VT"/>
    <tag k="ref:vcgi:esiteid" v="49804"/>
  </node>
  <node id="-7087" visible="true" lat="44.47303213" lon="-73.20832819">
    <!-- multiple: "250 South Union Street, Burlington, VT" Multiple exact matches in OSM. -->
    <tag k="addr:city" v="Burlington"/>
    <tag k="addr:housenumber" v="250"/>
    <tag k="addr:street" v="South Union Street"/>
    <tag k="addr:state" v="VT"/>
    <tag k="ref:vcgi:esiteid" v="49805"/>
  </node>
  <node id="-7094" visible="true" lat="44.47213203" lon="-73.2083387">
    <!-- multiple: "284 South Union Street, Burlington, VT" Multiple exact matches in OSM. -->
    <tag k="addr:city" v="Burlington"/>
    <tag k="addr:housenumber" v="284"/>
    <tag k="addr:street" v="South Union Street"/>
    <tag k="addr:state" v="VT"/>
    <tag k="ref:vcgi:esiteid" v="49812"/>
  </node>
  <node id="-7105" visible="true" lat="44.47331209" lon="-73.20907548">
    <!-- multiple: "239 South Union Street, Burlington, VT" Multiple exact matches in OSM. -->
    <tag k="addr:city" v="Burlington"/>
    <tag k="addr:housenumber" v="239"/>
    <tag k="addr:street" v="South Union Street"/>
    <tag k="addr:state" v="VT"/>
    <tag k="ref:vcgi:esiteid" v="49823"/>
  </node>
  <node id="-7199" visible="true" lat="44.47181691" lon="-73.20015773">
    <!-- multiple: "308 South Prospect Street, Burlington, VT" Multiple exact matches in OSM. -->
    <tag k="addr:city" v="Burlington"/>
    <tag k="addr:housenumber" v="308"/>
    <tag k="addr:street" v="South Prospect Street"/>
    <tag k="addr:state" v="VT"/>
    <tag k="ref:vcgi:esiteid" v="49919"/>
  </node>
  <node id="-7232" visible="true" lat="44.47174288" lon="-73.19382452">
    <!-- multiple: "67 Spear Street, Burlington, VT" Multiple exact matches in OSM. -->
    <tag k="addr:city" v="Burlington"/>
    <tag k="addr:housenumber" v="67"/>
    <tag k="addr:street" v="Spear Street"/>
    <tag k="addr:state" v="VT"/>
    <tag k="ref:vcgi:esiteid" v="49966"/>
  </node>
  <node id="-7233" visible="true" lat="44.47275933" lon="-73.19365345">
    <!-- multiple: "31 Spear Street, Burlington, VT" Multiple exact matches in OSM. -->
    <tag k="addr:city" v="Burlington"/>
    <tag k="addr:housenumber" v="31"/>
    <tag k="addr:street" v="Spear Street"/>
    <tag k="addr:state" v="VT"/>
    <tag k="ref:vcgi:esiteid" v="49967"/>
  </node>
  <node id="-7234" visible="true" lat="44.47365834" lon="-73.19475152">
    <!-- multiple: "633 Main Street, Burlington, VT" Multiple exact matches in OSM. -->
    <tag k="addr:city" v="Burlington"/>
    <tag k="addr:housenumber" v="633"/>
    <tag k="addr:street" v="Main Street"/>
    <tag k="addr:state" v="VT"/>
    <tag k="ref:vcgi:esiteid" v="49968"/>
  </node>
  <node id="-7255" visible="true" lat="44.47018839" lon="-73.19468985">
    <!-- multiple: "131 Catamount Way, Burlington, VT" Multiple exact matches in OSM. -->
    <tag k="addr:city" v="Burlington"/>
    <tag k="addr:housenumber" v="131"/>
    <tag k="addr:street" v="Catamount Way"/>
    <tag k="addr:state" v="VT"/>
    <tag k="ref:vcgi:esiteid" v="49993"/>
  </node>
  <node id="-7264" visible="true" lat="44.46806925" lon="-73.19959692">
    <!-- multiple: "436 South Prospect Street, Burlington, VT" Multiple exact matches in OSM. -->
    <tag k="addr:city" v="Burlington"/>
    <tag k="addr:housenumber" v="436"/>
    <tag k="addr:street" v="South Prospect Street"/>
    <tag k="addr:state" v="VT"/>
    <tag k="ref:vcgi:esiteid" v="50004"/>
  </node>
  <node id="-7265" visible="true" lat="44.46810825" lon="-73.19800929">
    <!-- multiple: "438 South Prospect Street, Burlington, VT" Multiple exact matches in OSM. -->
    <tag k="addr:city" v="Burlington"/>
    <tag k="addr:housenumber" v="438"/>
    <tag k="addr:street" v="South Prospect Street"/>
    <tag k="addr:state" v="VT"/>
    <tag k="ref:vcgi:esiteid" v="50005"/>
  </node>
  <node id="-7267" visible="true" lat="44.47151481" lon="-73.19961807">
    <!-- multiple: "322 South Prospect Street, Burlington, VT" Multiple exact matches in OSM. -->
    <tag k="addr:city" v="Burlington"/>
    <tag k="addr:housenumber" v="322"/>
    <tag k="addr:street" v="South Prospect Street"/>
    <tag k="addr:state" v="VT"/>
    <tag k="ref:vcgi:esiteid" v="50007"/>
  </node>
  <node id="-7414" visible="true" lat="44.46806156" lon="-73.20758952">
    <!-- multiple: "444 South Union Street, Burlington, VT" Multiple exact matches in OSM. -->
    <tag k="addr:city" v="Burlington"/>
    <tag k="addr:housenumber" v="444"/>
    <tag k="addr:street" v="South Union Street"/>
    <tag k="addr:state" v="VT"/>
    <tag k="ref:vcgi:esiteid" v="50155"/>
  </node>
  <node id="-7565" visible="true" lat="44.47035551" lon="-73.20904356">
    <!-- multiple: "79 Spruce Street, Burlington, VT" Multiple exact matches in OSM. -->
    <tag k="addr:city" v="Burlington"/>
    <tag k="addr:housenumber" v="79"/>
    <tag k="addr:street" v="Spruce Street"/>
    <tag k="addr:state" v="VT"/>
    <tag k="ref:vcgi:esiteid" v="50306"/>
  </node>
  <node id="-7566" visible="true" lat="44.47034124" lon="-73.20929725">
    <!-- multiple: "79 Spruce Street, Burlington, VT" Multiple exact matches in OSM. -->
    <tag k="addr:city" v="Burlington"/>
    <tag k="addr:housenumber" v="79"/>
    <tag k="addr:street" v="Spruce Street"/>
    <tag k="addr:state" v="VT"/>
    <tag k="ref:vcgi:esiteid" v="50307"/>
  </node>
  <node id="-7599" visible="true" lat="44.46741428" lon="-73.2100792">
    <!-- multiple: "457 Saint Paul Street, Burlington, VT" Multiple exact matches in OSM. -->
    <tag k="addr:city" v="Burlington"/>
    <tag k="addr:housenumber" v="457"/>
    <tag k="addr:street" v="Saint Paul Street"/>
    <tag k="addr:state" v="VT"/>
    <tag k="ref:vcgi:esiteid" v="50340"/>
  </node>
  <node id="-7612" visible="true" lat="44.46810321" lon="-73.2117187">
    <!-- multiple: "397 Saint Paul Street, Burlington, VT" Multiple exact matches in OSM. -->
    <tag k="addr:city" v="Burlington"/>
    <tag k="addr:housenumber" v="397"/>
    <tag k="addr:street" v="Saint Paul Street"/>
    <tag k="addr:state" v="VT"/>
    <tag k="ref:vcgi:esiteid" v="50353"/>
  </node>
  <node id="-7613" visible="true" lat="44.46807626" lon="-73.21209221">
    <!-- multiple: "397 Saint Paul Street, Burlington, VT" Multiple exact matches in OSM. -->
    <tag k="addr:city" v="Burlington"/>
    <tag k="addr:housenumber" v="397"/>
    <tag k="addr:street" v="Saint Paul Street"/>
    <tag k="addr:state" v="VT"/>
    <tag k="ref:vcgi:esiteid" v="50354"/>
  </node>
  <node id="-7614" visible="true" lat="44.46808794" lon="-73.2124256">
    <!-- multiple: "397 Saint Paul Street, Burlington, VT" Multiple exact matches in OSM. -->
    <tag k="addr:city" v="Burlington"/>
    <tag k="addr:housenumber" v="397"/>
    <tag k="addr:street" v="Saint Paul Street"/>
    <tag k="addr:state" v="VT"/>
    <tag k="ref:vcgi:esiteid" v="50355"/>
  </node>
  <node id="-7646" visible="true" lat="44.46836787" lon="-73.21221712">
    <!-- multiple: "397 Saint Paul Street, Burlington, VT" Multiple exact matches in OSM. -->
    <tag k="addr:city" v="Burlington"/>
    <tag k="addr:housenumber" v="397"/>
    <tag k="addr:street" v="Saint Paul Street"/>
    <tag k="addr:state" v="VT"/>
    <tag k="ref:vcgi:esiteid" v="50387"/>
  </node>
  <node id="-7662" visible="true" lat="44.46737212" lon="-73.21447184">
    <!-- multiple: "4 Howard Street, Burlington, VT" Multiple exact matches in OSM. -->
    <tag k="addr:city" v="Burlington"/>
    <tag k="addr:housenumber" v="4"/>
    <tag k="addr:street" v="Howard Street"/>
    <tag k="addr:state" v="VT"/>
    <tag k="ref:vcgi:esiteid" v="50404"/>
  </node>
  <node id="-7663" visible="true" lat="44.46736759" lon="-73.21468177">
    <!-- multiple: "2 Howard Street, Burlington, VT" Multiple exact matches in OSM. -->
    <tag k="addr:city" v="Burlington"/>
    <tag k="addr:housenumber" v="2"/>
    <tag k="addr:street" v="Howard Street"/>
    <tag k="addr:state" v="VT"/>
    <tag k="ref:vcgi:esiteid" v="50405"/>
  </node>
  <node id="-7683" visible="true" lat="44.46870232" lon="-73.21467724">
    <!-- multiple: "388 Pine Street, Burlington, VT" Multiple exact matches in OSM. -->
    <tag k="addr:city" v="Burlington"/>
    <tag k="addr:housenumber" v="388"/>
    <tag k="addr:street" v="Pine Street"/>
    <tag k="addr:state" v="VT"/>
    <tag k="ref:vcgi:esiteid" v="50425"/>
  </node>
  <node id="-7687" visible="true" lat="44.46885879" lon="-73.21538247">
    <!-- multiple: "377 Pine Street, Burlington, VT" Multiple exact matches in OSM. -->
    <tag k="addr:city" v="Burlington"/>
    <tag k="addr:housenumber" v="377"/>
    <tag k="addr:street" v="Pine Street"/>
    <tag k="addr:state" v="VT"/>
    <tag k="ref:vcgi:esiteid" v="50429"/>
  </node>
  <node id="-7688" visible="true" lat="44.46945877" lon="-73.21541108">
    <!-- multiple: "345 Pine Street, Burlington, VT" Multiple exact matches in OSM. -->
    <tag k="addr:city" v="Burlington"/>
    <tag k="addr:housenumber" v="345"/>
    <tag k="addr:street" v="Pine Street"/>
    <tag k="addr:state" v="VT"/>
    <tag k="ref:vcgi:esiteid" v="50430"/>
  </node>
  <node id="-7713" visible="true" lat="44.46915163" lon="-73.21301977">
    <!-- multiple: "52 Marble Avenue, Burlington, VT" Multiple exact matches in OSM. -->
    <tag k="addr:city" v="Burlington"/>
    <tag k="addr:housenumber" v="52"/>
    <tag k="addr:street" v="Marble Avenue"/>
    <tag k="addr:state" v="VT"/>
    <tag k="ref:vcgi:esiteid" v="50456"/>
  </node>
  <node id="-7721" visible="true" lat="44.47073581" lon="-73.21442502">
    <!-- multiple: "310 Pine Street, Burlington, VT" Multiple exact matches in OSM. -->
    <tag k="addr:city" v="Burlington"/>
    <tag k="addr:housenumber" v="310"/>
    <tag k="addr:street" v="Pine Street"/>
    <tag k="addr:state" v="VT"/>
    <tag k="ref:vcgi:esiteid" v="50464"/>
  </node>
  <node id="-7729" visible="true" lat="44.47182217" lon="-73.21504556">
    <!-- multiple: "266 Pine Street, Burlington, VT" Multiple exact matches in OSM. -->
    <tag k="addr:city" v="Burlington"/>
    <tag k="addr:housenumber" v="266"/>
    <tag k="addr:street" v="Pine Street"/>
    <tag k="addr:state" v="VT"/>
    <tag k="ref:vcgi:esiteid" v="50472"/>
  </node>
  <node id="-7731" visible="true" lat="44.4698695" lon="-73.21552582">
    <!-- multiple: "339 Pine Street, Burlington, VT" Multiple exact matches in OSM. -->
    <tag k="addr:city" v="Burlington"/>
    <tag k="addr:housenumber" v="339"/>
    <tag k="addr:street" v="Pine Street"/>
    <tag k="addr:state" v="VT"/>
    <tag k="ref:vcgi:esiteid" v="50474"/>
  </node>
  <node id="-7739" visible="true" lat="44.46338413" lon="-73.21433542">
    <!-- multiple: "500 Pine Street, Burlington, VT" Multiple exact matches in OSM. -->
    <tag k="addr:city" v="Burlington"/>
    <tag k="addr:housenumber" v="500"/>
    <tag k="addr:street" v="Pine Street"/>
    <tag k="addr:state" v="VT"/>
    <tag k="ref:vcgi:esiteid" v="50482"/>
  </node>
  <node id="-7798" visible="true" lat="44.46716414" lon="-73.20993362">
    <!-- multiple: "463 Saint Paul Street, Burlington, VT" Multiple exact matches in OSM. -->
    <tag k="addr:city" v="Burlington"/>
    <tag k="addr:housenumber" v="463"/>
    <tag k="addr:street" v="Saint Paul Street"/>
    <tag k="addr:state" v="VT"/>
    <tag k="ref:vcgi:esiteid" v="50541"/>
  </node>
  <node id="-8121" visible="true" lat="44.46675011" lon="-73.20028883">
    <!-- multiple: "500 South Prospect Street, Burlington, VT" Multiple exact matches in OSM. -->
    <tag k="addr:city" v="Burlington"/>
    <tag k="addr:housenumber" v="500"/>
    <tag k="addr:street" v="South Prospect Street"/>
    <tag k="addr:state" v="VT"/>
    <tag k="ref:vcgi:esiteid" v="50867"/>
  </node>
  <node id="-8123" visible="true" lat="44.46650311" lon="-73.20074373">
    <!-- multiple: "500 South Prospect Street, Burlington, VT" Multiple exact matches in OSM. -->
    <tag k="addr:city" v="Burlington"/>
    <tag k="addr:housenumber" v="500"/>
    <tag k="addr:street" v="South Prospect Street"/>
    <tag k="addr:state" v="VT"/>
    <tag k="ref:vcgi:esiteid" v="50869"/>
  </node>
  <node id="-8124" visible="true" lat="44.46629233" lon="-73.20079577">
    <!-- multiple: "500 South Prospect Street, Burlington, VT" Multiple exact matches in OSM. -->
    <tag k="addr:city" v="Burlington"/>
    <tag k="addr:housenumber" v="500"/>
    <tag k="addr:street" v="South Prospect Street"/>
    <tag k="addr:state" v="VT"/>
    <tag k="ref:vcgi:esiteid" v="50870"/>
  </node>
  <node id="-8125" visible="true" lat="44.46606524" lon="-73.20088296">
    <!-- multiple: "500 South Prospect Street, Burlington, VT" Multiple exact matches in OSM. -->
    <tag k="addr:city" v="Burlington"/>
    <tag k="addr:housenumber" v="500"/>
    <tag k="addr:street" v="South Prospect Street"/>
    <tag k="addr:state" v="VT"/>
    <tag k="ref:vcgi:esiteid" v="50871"/>
  </node>
  <node id="-8126" visible="true" lat="44.46609622" lon="-73.20010974">
    <!-- multiple: "500 South Prospect Street, Burlington, VT" Multiple exact matches in OSM. -->
    <tag k="addr:city" v="Burlington"/>
    <tag k="addr:housenumber" v="500"/>
    <tag k="addr:street" v="South Prospect Street"/>
    <tag k="addr:state" v="VT"/>
    <tag k="ref:vcgi:esiteid" v="50872"/>
  </node>
  <node id="-8127" visible="true" lat="44.46626895" lon="-73.20015306">
    <!-- multiple: "500 South Prospect Street, Burlington, VT" Multiple exact matches in OSM. -->
    <tag k="addr:city" v="Burlington"/>
    <tag k="addr:housenumber" v="500"/>
    <tag k="addr:street" v="South Prospect Street"/>
    <tag k="addr:state" v="VT"/>
    <tag k="ref:vcgi:esiteid" v="50873"/>
  </node>
  <node id="-8128" visible="true" lat="44.46646641" lon="-73.20015778">
    <!-- multiple: "500 South Prospect Street, Burlington, VT" Multiple exact matches in OSM. -->
    <tag k="addr:city" v="Burlington"/>
    <tag k="addr:housenumber" v="500"/>
    <tag k="addr:street" v="South Prospect Street"/>
    <tag k="addr:state" v="VT"/>
    <tag k="ref:vcgi:esiteid" v="50874"/>
  </node>
  <node id="-8129" visible="true" lat="44.46558199" lon="-73.20225649">
    <!-- multiple: "545 South Prospect Street, Burlington, VT" Multiple exact matches in OSM. -->
    <tag k="addr:city" v="Burlington"/>
    <tag k="addr:housenumber" v="545"/>
    <tag k="addr:street" v="South Prospect Street"/>
    <tag k="addr:state" v="VT"/>
    <tag k="ref:vcgi:esiteid" v="50876"/>
  </node>
  <node id="-8130" visible="true" lat="44.46508076" lon="-73.20245832">
    <!-- multiple: "545 South Prospect Street, Burlington, VT" Multiple exact matches in OSM. -->
    <tag k="addr:city" v="Burlington"/>
    <tag k="addr:housenumber" v="545"/>
    <tag k="addr:street" v="South Prospect Street"/>
    <tag k="addr:state" v="VT"/>
    <tag k="ref:vcgi:esiteid" v="50879"/>
  </node>
  <node id="-8153" visible="true" lat="44.46629891" lon="-73.19977343">
    <!-- multiple: "500 South Prospect Street, Burlington, VT" Multiple exact matches in OSM. -->
    <tag k="addr:city" v="Burlington"/>
    <tag k="addr:housenumber" v="500"/>
    <tag k="addr:street" v="South Prospect Street"/>
    <tag k="addr:state" v="VT"/>
    <tag k="ref:vcgi:esiteid" v="50903"/>
  </node>
  <node id="-8154" visible="true" lat="44.46613004" lon="-73.19977787">
    <!-- multiple: "500 South Prospect Street, Burlington, VT" Multiple exact matches in OSM. -->
    <tag k="addr:city" v="Burlington"/>
    <tag k="addr:housenumber" v="500"/>
    <tag k="addr:street" v="South Prospect Street"/>
    <tag k="addr:state" v="VT"/>
    <tag k="ref:vcgi:esiteid" v="50904"/>
  </node>
  <node id="-8156" visible="true" lat="44.46719834" lon="-73.1987666">
    <!-- multiple: "486 South Prospect Street, Burlington, VT" Multiple exact matches in OSM. -->
    <tag k="addr:city" v="Burlington"/>
    <tag k="addr:housenumber" v="486"/>
    <tag k="addr:street" v="South Prospect Street"/>
    <tag k="addr:state" v="VT"/>
    <tag k="ref:vcgi:esiteid" v="50906"/>
  </node>
  <node id="-8230" visible="true" lat="44.46222433" lon="-73.20769179">
    <!-- multiple: "108 Shelburne Street, Burlington, VT" Multiple exact matches in OSM. -->
    <tag k="addr:city" v="Burlington"/>
    <tag k="addr:housenumber" v="108"/>
    <tag k="addr:street" v="Shelburne Street"/>
    <tag k="addr:state" v="VT"/>
    <tag k="ref:vcgi:esiteid" v="50980"/>
  </node>
  <node id="-8449" visible="true" lat="44.46034033" lon="-73.21399509">
    <!-- multiple: "688 Pine Street, Burlington, VT" Multiple exact matches in OSM. -->
    <tag k="addr:city" v="Burlington"/>
    <tag k="addr:housenumber" v="688"/>
    <tag k="addr:street" v="Pine Street"/>
    <tag k="addr:state" v="VT"/>
    <tag k="ref:vcgi:esiteid" v="51199"/>
  </node>
  <node id="-8450" visible="true" lat="44.46003707" lon="-73.21405523">
    <!-- multiple: "696 Pine Street, Burlington, VT" Multiple exact matches in OSM. -->
    <tag k="addr:city" v="Burlington"/>
    <tag k="addr:housenumber" v="696"/>
    <tag k="addr:street" v="Pine Street"/>
    <tag k="addr:state" v="VT"/>
    <tag k="ref:vcgi:esiteid" v="51200"/>
  </node>
  <node id="-8451" visible="true" lat="44.45962148" lon="-73.2138028">
    <!-- multiple: "716 Pine Street, Burlington, VT" Multiple exact matches in OSM. -->
    <tag k="addr:city" v="Burlington"/>
    <tag k="addr:housenumber" v="716"/>
    <tag k="addr:street" v="Pine Street"/>
    <tag k="addr:state" v="VT"/>
    <tag k="ref:vcgi:esiteid" v="51201"/>
  </node>
  <node id="-8454" visible="true" lat="44.45896454" lon="-73.2151323">
    <!-- multiple: "747 Pine Street, Burlington, VT" Multiple exact matches in OSM. -->
    <tag k="addr:city" v="Burlington"/>
    <tag k="addr:housenumber" v="747"/>
    <tag k="addr:street" v="Pine Street"/>
    <tag k="addr:state" v="VT"/>
    <tag k="ref:vcgi:esiteid" v="51204"/>
  </node>
  <node id="-8455" visible="true" lat="44.45954496" lon="-73.21484416">
    <!-- multiple: "703 Pine Street, Burlington, VT" Multiple exact matches in OSM. -->
    <tag k="addr:city" v="Burlington"/>
    <tag k="addr:housenumber" v="703"/>
    <tag k="addr:street" v="Pine Street"/>
    <tag k="addr:state" v="VT"/>
    <tag k="ref:vcgi:esiteid" v="51205"/>
  </node>
  <node id="-8456" visible="true" lat="44.45987363" lon="-73.21511697">
    <!-- multiple: "699 Pine Street, Burlington, VT" Multiple exact matches in OSM. -->
    <tag k="addr:city" v="Burlington"/>
    <tag k="addr:housenumber" v="699"/>
    <tag k="addr:street" v="Pine Street"/>
    <tag k="addr:state" v="VT"/>
    <tag k="ref:vcgi:esiteid" v="51206"/>
  </node>
  <node id="-8460" visible="true" lat="44.46077232" lon="-73.2150523">
    <!-- multiple: "661 Pine Street, Burlington, VT" Multiple exact matches in OSM. -->
    <tag k="addr:city" v="Burlington"/>
    <tag k="addr:housenumber" v="661"/>
    <tag k="addr:street" v="Pine Street"/>
    <tag k="addr:state" v="VT"/>
    <tag k="ref:vcgi:esiteid" v="51210"/>
  </node>
  <node id="-8465" visible="true" lat="44.46153789" lon="-73.21985865">
    <!-- multiple: "50 Lakeside Avenue, Burlington, VT" Multiple exact matches in OSM. -->
    <tag k="addr:city" v="Burlington"/>
    <tag k="addr:housenumber" v="50"/>
    <tag k="addr:street" v="Lakeside Avenue"/>
    <tag k="addr:state" v="VT"/>
    <tag k="ref:vcgi:esiteid" v="51215"/>
  </node>
  <node id="-8548" visible="true" lat="44.45751058" lon="-73.21943296">
    <!-- multiple: "180 Flynn Avenue, Burlington, VT" Multiple exact matches in OSM. -->
    <tag k="addr:city" v="Burlington"/>
    <tag k="addr:housenumber" v="180"/>
    <tag k="addr:street" v="Flynn Avenue"/>
    <tag k="addr:state" v="VT"/>
    <tag k="ref:vcgi:esiteid" v="51298"/>
  </node>
  <node id="-8549" visible="true" lat="44.45678615" lon="-73.21940133">
    <!-- multiple: "180 Flynn Avenue, Burlington, VT" Multiple exact matches in OSM. -->
    <tag k="addr:city" v="Burlington"/>
    <tag k="addr:housenumber" v="180"/>
    <tag k="addr:street" v="Flynn Avenue"/>
    <tag k="addr:state" v="VT"/>
    <tag k="ref:vcgi:esiteid" v="51299"/>
  </node>
  <node id="-8550" visible="true" lat="44.45688648" lon="-73.22071109">
    <!-- multiple: "160 Flynn Avenue, Burlington, VT" Multiple exact matches in OSM. -->
    <tag k="addr:city" v="Burlington"/>
    <tag k="addr:housenumber" v="160"/>
    <tag k="addr:street" v="Flynn Avenue"/>
    <tag k="addr:state" v="VT"/>
    <tag k="ref:vcgi:esiteid" v="51300"/>
  </node>
  <node id="-8551" visible="true" lat="44.45618373" lon="-73.22068649">
    <!-- multiple: "160 Flynn Avenue, Burlington, VT" Multiple exact matches in OSM. -->
    <tag k="addr:city" v="Burlington"/>
    <tag k="addr:housenumber" v="160"/>
    <tag k="addr:street" v="Flynn Avenue"/>
    <tag k="addr:state" v="VT"/>
    <tag k="ref:vcgi:esiteid" v="51301"/>
  </node>
  <node id="-8554" visible="true" lat="44.4564791" lon="-73.21809802">
    <!-- multiple: "208 Flynn Avenue, Burlington, VT" Multiple exact matches in OSM. -->
    <tag k="addr:city" v="Burlington"/>
    <tag k="addr:housenumber" v="208"/>
    <tag k="addr:street" v="Flynn Avenue"/>
    <tag k="addr:state" v="VT"/>
    <tag k="ref:vcgi:esiteid" v="51304"/>
  </node>
  <node id="-8587" visible="true" lat="44.45748228" lon="-73.21502146">
    <!-- multiple: "789 Pine Street, Burlington, VT" Multiple exact matches in OSM. -->
    <tag k="addr:city" v="Burlington"/>
    <tag k="addr:housenumber" v="789"/>
    <tag k="addr:street" v="Pine Street"/>
    <tag k="addr:state" v="VT"/>
    <tag k="ref:vcgi:esiteid" v="51347"/>
  </node>
  <node id="-8589" visible="true" lat="44.45589373" lon="-73.21576172">
    <!-- multiple: "288 Flynn Avenue, Burlington, VT" Multiple exact matches in OSM. -->
    <tag k="addr:city" v="Burlington"/>
    <tag k="addr:housenumber" v="288"/>
    <tag k="addr:street" v="Flynn Avenue"/>
    <tag k="addr:state" v="VT"/>
    <tag k="ref:vcgi:esiteid" v="51350"/>
  </node>
  <node id="-8597" visible="true" lat="44.45516113" lon="-73.21516449">
    <!-- multiple: "305 Flynn Avenue, Burlington, VT" Multiple exact matches in OSM. -->
    <tag k="addr:city" v="Burlington"/>
    <tag k="addr:housenumber" v="305"/>
    <tag k="addr:street" v="Flynn Avenue"/>
    <tag k="addr:state" v="VT"/>
    <tag k="ref:vcgi:esiteid" v="51358"/>
  </node>
  <node id="-8600" visible="true" lat="44.45514838" lon="-73.21449598">
    <!-- multiple: "305 Flynn Avenue, Burlington, VT" Multiple exact matches in OSM. -->
    <tag k="addr:city" v="Burlington"/>
    <tag k="addr:housenumber" v="305"/>
    <tag k="addr:street" v="Flynn Avenue"/>
    <tag k="addr:state" v="VT"/>
    <tag k="ref:vcgi:esiteid" v="51361"/>
  </node>
  <node id="-8621" visible="true" lat="44.45706493" lon="-73.21322111">
    <!-- multiple: "800 Pine Street, Burlington, VT" Multiple exact matches in OSM. -->
    <tag k="addr:city" v="Burlington"/>
    <tag k="addr:housenumber" v="800"/>
    <tag k="addr:street" v="Pine Street"/>
    <tag k="addr:state" v="VT"/>
    <tag k="ref:vcgi:esiteid" v="51382"/>
  </node>
  <node id="-8682" visible="true" lat="44.45498498" lon="-73.20961885">
    <!-- multiple: "431 Flynn Avenue, Burlington, VT" Multiple exact matches in OSM. -->
    <tag k="addr:city" v="Burlington"/>
    <tag k="addr:housenumber" v="431"/>
    <tag k="addr:street" v="Flynn Avenue"/>
    <tag k="addr:state" v="VT"/>
    <tag k="ref:vcgi:esiteid" v="51445"/>
  </node>
  <node id="-9007" visible="true" lat="44.45221234" lon="-73.20968304">
    <!-- multiple: "74 Scarff Avenue, Burlington, VT" Multiple exact matches in OSM. -->
    <tag k="addr:city" v="Burlington"/>
    <tag k="addr:housenumber" v="74"/>
    <tag k="addr:street" v="Scarff Avenue"/>
    <tag k="addr:state" v="VT"/>
    <tag k="ref:vcgi:esiteid" v="51771"/>
  </node>
  <node id="-9008" visible="true" lat="44.45204808" lon="-73.20979325">
    <!-- multiple: "74 Scarff Avenue, Burlington, VT" Multiple exact matches in OSM. -->
    <tag k="addr:city" v="Burlington"/>
    <tag k="addr:housenumber" v="74"/>
    <tag k="addr:street" v="Scarff Avenue"/>
    <tag k="addr:state" v="VT"/>
    <tag k="ref:vcgi:esiteid" v="51772"/>
  </node>
  <node id="-9294" visible="true" lat="44.44867336" lon="-73.22803637">
    <!-- multiple: "267 South Cove Road, Burlington, VT" Multiple exact matches in OSM. -->
    <tag k="addr:city" v="Burlington"/>
    <tag k="addr:housenumber" v="267"/>
    <tag k="addr:street" v="South Cove Road"/>
    <tag k="addr:state" v="VT"/>
    <tag k="ref:vcgi:esiteid" v="52065"/>
  </node>
  <node id="-9484" visible="true" lat="44.45511943" lon="-73.21483642">
    <!-- multiple: "305 Flynn Avenue, Burlington, VT" Multiple exact matches in OSM. -->
    <tag k="addr:city" v="Burlington"/>
    <tag k="addr:housenumber" v="305"/>
    <tag k="addr:street" v="Flynn Avenue"/>
    <tag k="addr:state" v="VT"/>
    <tag k="ref:vcgi:esiteid" v="52318"/>
  </node>
  <node id="-9515" visible="true" lat="44.45731054" lon="-73.21982334">
    <!-- multiple: "180 Flynn Avenue, Burlington, VT" Multiple exact matches in OSM. -->
    <tag k="addr:city" v="Burlington"/>
    <tag k="addr:housenumber" v="180"/>
    <tag k="addr:street" v="Flynn Avenue"/>
    <tag k="addr:state" v="VT"/>
    <tag k="ref:vcgi:esiteid" v="52368"/>
  </node>
  <node id="-9519" visible="true" lat="44.45878918" lon="-73.2161027">
    <!-- multiple: "40 Sears Lane, Burlington, VT" Multiple exact matches in OSM. -->
    <tag k="addr:city" v="Burlington"/>
    <tag k="addr:housenumber" v="40"/>
    <tag k="addr:street" v="Sears Lane"/>
    <tag k="addr:state" v="VT"/>
    <tag k="ref:vcgi:esiteid" v="52376"/>
  </node>
  <node id="-9542" visible="true" lat="44.46186342" lon="-73.21782257">
    <!-- multiple: "128 Lakeside Avenue, Burlington, VT" Multiple exact matches in OSM. -->
    <tag k="addr:city" v="Burlington"/>
    <tag k="addr:housenumber" v="128"/>
    <tag k="addr:street" v="Lakeside Avenue"/>
    <tag k="addr:state" v="VT"/>
    <tag k="ref:vcgi:esiteid" v="52409"/>
  </node>
  <node id="-9690" visible="true" lat="44.46231804" lon="-73.20747148">
    <!-- multiple: "108 Shelburne Street, Burlington, VT" Multiple exact matches in OSM. -->
    <tag k="addr:city" v="Burlington"/>
    <tag k="addr:housenumber" v="108"/>
    <tag k="addr:street" v="Shelburne Street"/>
    <tag k="addr:state" v="VT"/>
    <tag k="ref:vcgi:esiteid" v="52671"/>
  </node>
  <node id="-9736" visible="true" lat="44.47215333" lon="-73.20801496">
    <!-- multiple: "284 South Union Street, Burlington, VT" Multiple exact matches in OSM. -->
    <tag k="addr:city" v="Burlington"/>
    <tag k="addr:housenumber" v="284"/>
    <tag k="addr:street" v="South Union Street"/>
    <tag k="addr:state" v="VT"/>
    <tag k="ref:vcgi:esiteid" v="52741"/>
  </node>
  <node id="-9745" visible="true" lat="44.46545635" lon="-73.20783724">
    <!-- multiple: "523 South Union Street, Burlington, VT" Multiple exact matches in OSM. -->
    <tag k="addr:city" v="Burlington"/>
    <tag k="addr:housenumber" v="523"/>
    <tag k="addr:street" v="South Union Street"/>
    <tag k="addr:state" v="VT"/>
    <tag k="ref:vcgi:esiteid" v="52753"/>
  </node>
  <node id="-9775" visible="true" lat="44.48176215" lon="-73.18119333">
    <!-- multiple: "284 Grove Street, Burlington, VT" Multiple exact matches in OSM. -->
    <tag k="addr:city" v="Burlington"/>
    <tag k="addr:housenumber" v="284"/>
    <tag k="addr:street" v="Grove Street"/>
    <tag k="addr:state" v="VT"/>
    <tag k="ref:vcgi:esiteid" v="52815"/>
  </node>
  <node id="-9776" visible="true" lat="44.48186249" lon="-73.18098328">
    <!-- multiple: "284 Grove Street, Burlington, VT" Multiple exact matches in OSM. -->
    <tag k="addr:city" v="Burlington"/>
    <tag k="addr:housenumber" v="284"/>
    <tag k="addr:street" v="Grove Street"/>
    <tag k="addr:state" v="VT"/>
    <tag k="ref:vcgi:esiteid" v="52816"/>
  </node>
  <node id="-9777" visible="true" lat="44.48190651" lon="-73.18075689">
    <!-- multiple: "284 Grove Street, Burlington, VT" Multiple exact matches in OSM. -->
    <tag k="addr:city" v="Burlington"/>
    <tag k="addr:housenumber" v="284"/>
    <tag k="addr:street" v="Grove Street"/>
    <tag k="addr:state" v="VT"/>
    <tag k="ref:vcgi:esiteid" v="52817"/>
  </node>
  <node id="-9778" visible="true" lat="44.48155816" lon="-73.18089387">
    <!-- multiple: "284 Grove Street, Burlington, VT" Multiple exact matches in OSM. -->
    <tag k="addr:city" v="Burlington"/>
    <tag k="addr:housenumber" v="284"/>
    <tag k="addr:street" v="Grove Street"/>
    <tag k="addr:state" v="VT"/>
    <tag k="ref:vcgi:esiteid" v="52818"/>
  </node>
  <node id="-9779" visible="true" lat="44.48163241" lon="-73.18062051">
    <!-- multiple: "284 Grove Street, Burlington, VT" Multiple exact matches in OSM. -->
    <tag k="addr:city" v="Burlington"/>
    <tag k="addr:housenumber" v="284"/>
    <tag k="addr:street" v="Grove Street"/>
    <tag k="addr:state" v="VT"/>
    <tag k="ref:vcgi:esiteid" v="52819"/>
  </node>
  <node id="-9780" visible="true" lat="44.48196133" lon="-73.18045996">
    <!-- multiple: "284 Grove Street, Burlington, VT" Multiple exact matches in OSM. -->
    <tag k="addr:city" v="Burlington"/>
    <tag k="addr:housenumber" v="284"/>
    <tag k="addr:street" v="Grove Street"/>
    <tag k="addr:state" v="VT"/>
    <tag k="ref:vcgi:esiteid" v="52820"/>
  </node>
  <node id="-9781" visible="true" lat="44.48180623" lon="-73.17996693">
    <!-- multiple: "284 Grove Street, Burlington, VT" Multiple exact matches in OSM. -->
    <tag k="addr:city" v="Burlington"/>
    <tag k="addr:housenumber" v="284"/>
    <tag k="addr:street" v="Grove Street"/>
    <tag k="addr:state" v="VT"/>
    <tag k="ref:vcgi:esiteid" v="52822"/>
  </node>
  <node id="-9784" visible="true" lat="44.4816794" lon="-73.1804728">
    <!-- multiple: "284 Grove Street, Burlington, VT" Multiple exact matches in OSM. -->
    <tag k="addr:city" v="Burlington"/>
    <tag k="addr:housenumber" v="284"/>
    <tag k="addr:street" v="Grove Street"/>
    <tag k="addr:state" v="VT"/>
    <tag k="ref:vcgi:esiteid" v="52825"/>
  </node>
  <node id="-9792" visible="true" lat="44.48721376" lon="-73.1845112">
    <!-- multiple: "67 Chase Street, Burlington, VT" Multiple exact matches in OSM. -->
    <tag k="addr:city" v="Burlington"/>
    <tag k="addr:housenumber" v="67"/>
    <tag k="addr:street" v="Chase Street"/>
    <tag k="addr:state" v="VT"/>
    <tag k="ref:vcgi:esiteid" v="52836"/>
  </node>
  <node id="-9870" visible="true" lat="44.48801875" lon="-73.203316">
    <!-- multiple: "253 Archibald Street, Burlington, VT" Multiple exact matches in OSM. -->
    <tag k="addr:city" v="Burlington"/>
    <tag k="addr:housenumber" v="253"/>
    <tag k="addr:street" v="Archibald Street"/>
    <tag k="addr:state" v="VT"/>
    <tag k="ref:vcgi:esiteid" v="52995"/>
  </node>
  <node id="-10078" visible="true" lat="44.48898339" lon="-73.2108434">
    <!-- multiple: "52 Willow Street, Burlington, VT" Multiple exact matches in OSM. -->
    <tag k="addr:city" v="Burlington"/>
    <tag k="addr:housenumber" v="52"/>
    <tag k="addr:street" v="Willow Street"/>
    <tag k="addr:state" v="VT"/>
    <tag k="ref:vcgi:esiteid" v="53268"/>
  </node>
  <node id="-10154" visible="true" lat="44.47201903" lon="-73.21989915">
    <!-- multiple: "53 Lavalley Lane, Burlington, VT" Multiple exact matches in OSM. -->
    <tag k="addr:city" v="Burlington"/>
    <tag k="addr:housenumber" v="53"/>
    <tag k="addr:street" v="Lavalley Lane"/>
    <tag k="addr:state" v="VT"/>
    <tag k="ref:vcgi:esiteid" v="53358"/>
  </node>
  <node id="-10264" visible="true" lat="44.47752531" lon="-73.2154287">
    <!-- multiple: "84 Pine Street, Burlington, VT" Multiple exact matches in OSM. -->
    <tag k="addr:city" v="Burlington"/>
    <tag k="addr:housenumber" v="84"/>
    <tag k="addr:street" v="Pine Street"/>
    <tag k="addr:state" v="VT"/>
    <tag k="ref:vcgi:esiteid" v="53500"/>
  </node>
  <node id="-10281" visible="true" lat="44.48024036" lon="-73.21303539">
    <!-- multiple: "1 Church Street, Burlington, VT" Multiple exact matches in OSM. -->
    <tag k="addr:city" v="Burlington"/>
    <tag k="addr:housenumber" v="1"/>
    <tag k="addr:street" v="Church Street"/>
    <tag k="addr:state" v="VT"/>
    <tag k="ref:vcgi:esiteid" v="53524"/>
  </node>
  <node id="-10282" visible="true" lat="44.48029476" lon="-73.21251765">
    <!-- multiple: "2 Church Street, Burlington, VT" Multiple exact matches in OSM. -->
    <tag k="addr:city" v="Burlington"/>
    <tag k="addr:housenumber" v="2"/>
    <tag k="addr:street" v="Church Street"/>
    <tag k="addr:state" v="VT"/>
    <tag k="ref:vcgi:esiteid" v="53525"/>
  </node>
  <node id="-10283" visible="true" lat="44.4800625" lon="-73.21298405">
    <!-- multiple: "11 Church Street, Burlington, VT" Multiple exact matches in OSM. -->
    <tag k="addr:city" v="Burlington"/>
    <tag k="addr:housenumber" v="11"/>
    <tag k="addr:street" v="Church Street"/>
    <tag k="addr:state" v="VT"/>
    <tag k="ref:vcgi:esiteid" v="53526"/>
  </node>
  <node id="-10288" visible="true" lat="44.47979073" lon="-73.21300586">
    <!-- multiple: "23 Church Street, Burlington, VT" Multiple exact matches in OSM. -->
    <tag k="addr:city" v="Burlington"/>
    <tag k="addr:housenumber" v="23"/>
    <tag k="addr:street" v="Church Street"/>
    <tag k="addr:state" v="VT"/>
    <tag k="ref:vcgi:esiteid" v="53532"/>
  </node>
  <node id="-10289" visible="true" lat="44.47981832" lon="-73.21250493">
    <!-- multiple: "28 Church Street, Burlington, VT" Multiple exact matches in OSM. -->
    <tag k="addr:city" v="Burlington"/>
    <tag k="addr:housenumber" v="28"/>
    <tag k="addr:street" v="Church Street"/>
    <tag k="addr:state" v="VT"/>
    <tag k="ref:vcgi:esiteid" v="53533"/>
  </node>
  <node id="-10290" visible="true" lat="44.47964935" lon="-73.21250486">
    <!-- multiple: "32 Church Street, Burlington, VT" Multiple exact matches in OSM. -->
    <tag k="addr:city" v="Burlington"/>
    <tag k="addr:housenumber" v="32"/>
    <tag k="addr:street" v="Church Street"/>
    <tag k="addr:state" v="VT"/>
    <tag k="ref:vcgi:esiteid" v="53534"/>
  </node>
  <node id="-10291" visible="true" lat="44.47950395" lon="-73.21251924">
    <!-- multiple: "34 Church Street, Burlington, VT" Multiple exact matches in OSM. -->
    <tag k="addr:city" v="Burlington"/>
    <tag k="addr:housenumber" v="34"/>
    <tag k="addr:street" v="Church Street"/>
    <tag k="addr:state" v="VT"/>
    <tag k="ref:vcgi:esiteid" v="53535"/>
  </node>
  <node id="-10303" visible="true" lat="44.48770777" lon="-73.2162274">
    <!-- multiple: "106 Rose Street, Burlington, VT" Multiple exact matches in OSM. -->
    <tag k="addr:city" v="Burlington"/>
    <tag k="addr:housenumber" v="106"/>
    <tag k="addr:street" v="Rose Street"/>
    <tag k="addr:state" v="VT"/>
    <tag k="ref:vcgi:esiteid" v="53547"/>
  </node>
  <node id="-10404" visible="true" lat="44.47764019" lon="-73.21233598">
    <!-- multiple: "102 Church Street, Burlington, VT" Multiple exact matches in OSM. -->
    <tag k="addr:city" v="Burlington"/>
    <tag k="addr:housenumber" v="102"/>
    <tag k="addr:street" v="Church Street"/>
    <tag k="addr:state" v="VT"/>
    <tag k="ref:vcgi:esiteid" v="53667"/>
  </node>
  <node id="-10414" visible="true" lat="44.47594189" lon="-73.21789054">
    <!-- multiple: "40 Main Street, Burlington, VT" Multiple exact matches in OSM. -->
    <tag k="addr:city" v="Burlington"/>
    <tag k="addr:housenumber" v="40"/>
    <tag k="addr:street" v="Main Street"/>
    <tag k="addr:state" v="VT"/>
    <tag k="ref:vcgi:esiteid" v="53677"/>
  </node>
  <node id="-10417" visible="true" lat="44.47484039" lon="-73.22104332">
    <!-- multiple: "1 King Street, Burlington, VT" Multiple exact matches in OSM. -->
    <tag k="addr:city" v="Burlington"/>
    <tag k="addr:housenumber" v="1"/>
    <tag k="addr:street" v="King Street"/>
    <tag k="addr:state" v="VT"/>
    <tag k="ref:vcgi:esiteid" v="53682"/>
  </node>
  <node id="-10430" visible="true" lat="44.47807719" lon="-73.21198018">
    <!-- multiple: "189 Bank Street, Burlington, VT" Multiple exact matches in OSM. -->
    <tag k="addr:city" v="Burlington"/>
    <tag k="addr:housenumber" v="189"/>
    <tag k="addr:street" v="Bank Street"/>
    <tag k="addr:state" v="VT"/>
    <tag k="ref:vcgi:esiteid" v="53699"/>
  </node>
  <node id="-10452" visible="true" lat="44.47574017" lon="-73.21279928">
    <!-- multiple: "163 Main Street, Burlington, VT" Multiple exact matches in OSM. -->
    <tag k="addr:city" v="Burlington"/>
    <tag k="addr:housenumber" v="163"/>
    <tag k="addr:street" v="Main Street"/>
    <tag k="addr:state" v="VT"/>
    <tag k="ref:vcgi:esiteid" v="53730"/>
  </node>
  <node id="-10462" visible="true" lat="44.48025494" lon="-73.2135112">
    <!-- multiple: "135 Pearl Street, Burlington, VT" Multiple exact matches in OSM. -->
    <tag k="addr:city" v="Burlington"/>
    <tag k="addr:housenumber" v="135"/>
    <tag k="addr:street" v="Pearl Street"/>
    <tag k="addr:state" v="VT"/>
    <tag k="ref:vcgi:esiteid" v="53744"/>
  </node>
  <node id="-10464" visible="true" lat="44.47946706" lon="-73.2121219">
    <!-- multiple: "150 Cherry Street, Burlington, VT" Multiple exact matches in OSM. -->
    <tag k="addr:city" v="Burlington"/>
    <tag k="addr:housenumber" v="150"/>
    <tag k="addr:street" v="Cherry Street"/>
    <tag k="addr:state" v="VT"/>
    <tag k="ref:vcgi:esiteid" v="53748"/>
  </node>
  <node id="-10468" visible="true" lat="44.47662548" lon="-73.21282681">
    <!-- multiple: "135 Church Street, Burlington, VT" Multiple exact matches in OSM. -->
    <tag k="addr:city" v="Burlington"/>
    <tag k="addr:housenumber" v="135"/>
    <tag k="addr:street" v="Church Street"/>
    <tag k="addr:state" v="VT"/>
    <tag k="ref:vcgi:esiteid" v="53757"/>
  </node>
  <node id="-10480" visible="true" lat="44.46711605" lon="-73.20988476">
    <!-- multiple: "465 Saint Paul Street, Burlington, VT" Multiple exact matches in OSM. -->
    <tag k="addr:city" v="Burlington"/>
    <tag k="addr:housenumber" v="465"/>
    <tag k="addr:street" v="Saint Paul Street"/>
    <tag k="addr:state" v="VT"/>
    <tag k="ref:vcgi:esiteid" v="53776"/>
  </node>
  <node id="-10491" visible="true" lat="44.4854249" lon="-73.22338116">
    <!-- multiple: "133 North Avenue, Burlington, VT" Multiple exact matches in OSM. -->
    <tag k="addr:city" v="Burlington"/>
    <tag k="addr:housenumber" v="133"/>
    <tag k="addr:street" v="North Avenue"/>
    <tag k="addr:state" v="VT"/>
    <tag k="ref:vcgi:esiteid" v="53799"/>
  </node>
  <node id="-10539" visible="true" lat="44.50696238" lon="-73.24635579">
    <!-- multiple: "1127 North Avenue, Burlington, VT" Multiple exact matches in OSM. -->
    <tag k="addr:city" v="Burlington"/>
    <tag k="addr:housenumber" v="1127"/>
    <tag k="addr:street" v="North Avenue"/>
    <tag k="addr:state" v="VT"/>
    <tag k="ref:vcgi:esiteid" v="53917"/>
  </node>
  <node id="-10577" visible="true" lat="44.51242264" lon="-73.26040264">
    <!-- multiple: "152 Cottage Grove, Burlington, VT" Multiple exact matches in OSM. -->
    <tag k="addr:city" v="Burlington"/>
    <tag k="addr:housenumber" v="152"/>
    <tag k="addr:street" v="Cottage Grove"/>
    <tag k="addr:state" v="VT"/>
    <tag k="ref:vcgi:esiteid" v="54046"/>
  </node>
  <node id="-11398" visible="true" lat="44.46833008" lon="-73.21241913">
    <!-- multiple: "397 Saint Paul Street, Burlington, VT" Multiple exact matches in OSM. -->
    <tag k="addr:city" v="Burlington"/>
    <tag k="addr:housenumber" v="397"/>
    <tag k="addr:street" v="Saint Paul Street"/>
    <tag k="addr:state" v="VT"/>
    <tag k="ref:vcgi:esiteid" v="55058"/>
  </node>
  <node id="-11442" visible="true" lat="44.48065353" lon="-73.21182448">
    <!-- multiple: "180 Pearl Street, Burlington, VT" Multiple exact matches in OSM. -->
    <tag k="addr:city" v="Burlington"/>
    <tag k="addr:housenumber" v="180"/>
    <tag k="addr:street" v="Pearl Street"/>
    <tag k="addr:state" v="VT"/>
    <tag k="ref:vcgi:esiteid" v="55136"/>
  </node>
  <node id="-11475" visible="true" lat="44.4756188" lon="-73.21366495">
    <!-- multiple: "131 Main Street, Burlington, VT" Multiple exact matches in OSM. -->
    <tag k="addr:city" v="Burlington"/>
    <tag k="addr:housenumber" v="131"/>
    <tag k="addr:street" v="Main Street"/>
    <tag k="addr:state" v="VT"/>
    <tag k="ref:vcgi:esiteid" v="55171"/>
  </node>
  <node id="-11534" visible="true" lat="44.48233559" lon="-73.21734665">
    <!-- multiple: "62 North Champlain Street, Burlington, VT" Multiple exact matches in OSM. -->
    <tag k="addr:city" v="Burlington"/>
    <tag k="addr:housenumber" v="62"/>
    <tag k="addr:street" v="North Champlain Street"/>
    <tag k="addr:state" v="VT"/>
    <tag k="ref:vcgi:esiteid" v="55237"/>
  </node>
  <node id="-11549" visible="true" lat="44.48410278" lon="-73.21577967">
    <!-- multiple: "52 Murray Street, Burlington, VT" Multiple exact matches in OSM. -->
    <tag k="addr:city" v="Burlington"/>
    <tag k="addr:housenumber" v="52"/>
    <tag k="addr:street" v="Murray Street"/>
    <tag k="addr:state" v="VT"/>
    <tag k="ref:vcgi:esiteid" v="55254"/>
  </node>
  <node id="-11557" visible="true" lat="44.4708241" lon="-73.2149262">
    <!-- multiple: "310 Pine Street, Burlington, VT" Multiple exact matches in OSM. -->
    <tag k="addr:city" v="Burlington"/>
    <tag k="addr:housenumber" v="310"/>
    <tag k="addr:street" v="Pine Street"/>
    <tag k="addr:state" v="VT"/>
    <tag k="ref:vcgi:esiteid" v="55265"/>
  </node>
  <node id="-11558" visible="true" lat="44.47061909" lon="-73.21425128">
    <!-- multiple: "316 Pine Street, Burlington, VT" Multiple exact matches in OSM. -->
    <tag k="addr:city" v="Burlington"/>
    <tag k="addr:housenumber" v="316"/>
    <tag k="addr:street" v="Pine Street"/>
    <tag k="addr:state" v="VT"/>
    <tag k="ref:vcgi:esiteid" v="55266"/>
  </node>
  <node id="-11569" visible="true" lat="44.48816262" lon="-73.20786743">
    <!-- multiple: "299 North Winooski Avenue, Burlington, VT" Multiple exact matches in OSM. -->
    <tag k="addr:city" v="Burlington"/>
    <tag k="addr:housenumber" v="299"/>
    <tag k="addr:street" v="North Winooski Avenue"/>
    <tag k="addr:state" v="VT"/>
    <tag k="ref:vcgi:esiteid" v="55277"/>
  </node>
  <node id="-11572" visible="true" lat="44.48588232" lon="-73.21064159">
    <!-- multiple: "197 North Winooski Avenue, Burlington, VT" Multiple exact matches in OSM. -->
    <tag k="addr:city" v="Burlington"/>
    <tag k="addr:housenumber" v="197"/>
    <tag k="addr:street" v="North Winooski Avenue"/>
    <tag k="addr:state" v="VT"/>
    <tag k="ref:vcgi:esiteid" v="55281"/>
  </node>
  <node id="-11586" visible="true" lat="44.4691518" lon="-73.21299317">
    <!-- multiple: "52 Marble Avenue, Burlington, VT" Multiple exact matches in OSM. -->
    <tag k="addr:city" v="Burlington"/>
    <tag k="addr:housenumber" v="52"/>
    <tag k="addr:street" v="Marble Avenue"/>
    <tag k="addr:state" v="VT"/>
    <tag k="ref:vcgi:esiteid" v="55299"/>
  </node>
  <node id="-11797" visible="true" lat="44.46805803" lon="-73.21145343">
    <!-- multiple: "397 Saint Paul Street, Burlington, VT" Multiple exact matches in OSM. -->
    <tag k="addr:city" v="Burlington"/>
    <tag k="addr:housenumber" v="397"/>
    <tag k="addr:street" v="Saint Paul Street"/>
    <tag k="addr:state" v="VT"/>
    <tag k="ref:vcgi:esiteid" v="55513"/>
  </node>
  <node id="-11798" visible="true" lat="44.46880397" lon="-73.21178188">
    <!-- multiple: "397 Saint Paul Street, Burlington, VT" Multiple exact matches in OSM. -->
    <tag k="addr:city" v="Burlington"/>
    <tag k="addr:housenumber" v="397"/>
    <tag k="addr:street" v="Saint Paul Street"/>
    <tag k="addr:state" v="VT"/>
    <tag k="ref:vcgi:esiteid" v="55514"/>
  </node>
  <node id="-11800" visible="true" lat="44.47939933" lon="-73.21713967">
    <!-- multiple: "32 Cherry Street, Burlington, VT" Multiple exact matches in OSM. -->
    <tag k="addr:city" v="Burlington"/>
    <tag k="addr:housenumber" v="32"/>
    <tag k="addr:street" v="Cherry Street"/>
    <tag k="addr:state" v="VT"/>
    <tag k="ref:vcgi:esiteid" v="55516"/>
  </node>
  <node id="-11803" visible="true" lat="44.48780402" lon="-73.20855956">
    <!-- multiple: "299 North Winooski Avenue, Burlington, VT" Multiple exact matches in OSM. -->
    <tag k="addr:city" v="Burlington"/>
    <tag k="addr:housenumber" v="299"/>
    <tag k="addr:street" v="North Winooski Avenue"/>
    <tag k="addr:state" v="VT"/>
    <tag k="ref:vcgi:esiteid" v="55519"/>
  </node>
  <node id="-11857" visible="true" lat="44.47748842" lon="-73.21965173">
    <!-- multiple: "60 Lake Street, Burlington, VT" Multiple exact matches in OSM. -->
    <tag k="addr:city" v="Burlington"/>
    <tag k="addr:housenumber" v="60"/>
    <tag k="addr:street" v="Lake Street"/>
    <tag k="addr:state" v="VT"/>
    <tag k="ref:vcgi:esiteid" v="316088"/>
  </node>
  <node id="-11883" visible="true" lat="44.4577729" lon="-73.22349839">
    <!-- multiple: "1 Proctor Place, Burlington, VT" Multiple exact matches in OSM. -->
    <tag k="addr:city" v="Burlington"/>
    <tag k="addr:housenumber" v="1"/>
    <tag k="addr:street" v="Proctor Place"/>
    <tag k="addr:state" v="VT"/>
    <tag k="ref:vcgi:esiteid" v="327283"/>
  </node>
  <node id="-11908" visible="true" lat="44.48838721" lon="-73.18462334">
    <!-- multiple: "1 Mill Street, Burlington, VT" Multiple exact matches in OSM. -->
    <tag k="addr:city" v="Burlington"/>
    <tag k="addr:housenumber" v="1"/>
    <tag k="addr:street" v="Mill Street"/>
    <tag k="addr:state" v="VT"/>
    <tag k="ref:vcgi:esiteid" v="330131"/>
  </node>
  <node id="-11943" visible="true" lat="44.47896219" lon="-73.21824437">
    <!-- multiple: "25 Cherry Street, Burlington, VT" Multiple exact matches in OSM. -->
    <tag k="addr:city" v="Burlington"/>
    <tag k="addr:housenumber" v="25"/>
    <tag k="addr:street" v="Cherry Street"/>
    <tag k="addr:state" v="VT"/>
    <tag k="ref:vcgi:esiteid" v="333084"/>
  </node>
  <node id="-11966" visible="true" lat="44.44710272" lon="-73.2142613">
    <!-- multiple: "1138 Pine Street, Burlington, VT" Multiple exact matches in OSM. -->
    <tag k="addr:city" v="Burlington"/>
    <tag k="addr:housenumber" v="1138"/>
    <tag k="addr:street" v="Pine Street"/>
    <tag k="addr:state" v="VT"/>
    <tag k="ref:vcgi:esiteid" v="333107"/>
  </node>
  <node id="-11987" visible="true" lat="44.46881696" lon="-73.21468006">
    <!-- multiple: "382 Pine Street, Burlington, VT" Multiple exact matches in OSM. -->
    <tag k="addr:city" v="Burlington"/>
    <tag k="addr:housenumber" v="382"/>
    <tag k="addr:street" v="Pine Street"/>
    <tag k="addr:state" v="VT"/>
    <tag k="ref:vcgi:esiteid" v="333131"/>
  </node>
  <node id="-12145" visible="true" lat="44.5050057" lon="-73.24192736">
    <!-- multiple: "1044 North Avenue, Burlington, VT" Multiple exact matches in OSM. -->
    <tag k="addr:city" v="Burlington"/>
    <tag k="addr:housenumber" v="1044"/>
    <tag k="addr:street" v="North Avenue"/>
    <tag k="addr:state" v="VT"/>
    <tag k="ref:vcgi:esiteid" v="365475"/>
  </node>
  <node id="-12146" visible="true" lat="44.50530275" lon="-73.24164601">
    <!-- multiple: "1044 North Avenue, Burlington, VT" Multiple exact matches in OSM. -->
    <tag k="addr:city" v="Burlington"/>
    <tag k="addr:housenumber" v="1044"/>
    <tag k="addr:street" v="North Avenue"/>
    <tag k="addr:state" v="VT"/>
    <tag k="ref:vcgi:esiteid" v="365476"/>
  </node>
  <node id="-12166" visible="true" lat="44.47896644" lon="-73.21786816">
    <!-- multiple: "41 Cherry Street, Burlington, VT" Multiple exact matches in OSM. -->
    <tag k="addr:city" v="Burlington"/>
    <tag k="addr:housenumber" v="41"/>
    <tag k="addr:street" v="Cherry Street"/>
    <tag k="addr:state" v="VT"/>
    <tag k="ref:vcgi:esiteid" v="452343"/>
  </node>
  <node id="-12193" visible="true" lat="44.48427301" lon="-73.22195344">
    <!-- multiple: "84 North Avenue, Burlington, VT" Multiple exact matches in OSM. -->
    <tag k="addr:city" v="Burlington"/>
    <tag k="addr:housenumber" v="84"/>
    <tag k="addr:street" v="North Avenue"/>
    <tag k="addr:state" v="VT"/>
    <tag k="ref:vcgi:esiteid" v="454961"/>
  </node>
  <node id="-12318" visible="true" lat="44.52029751" lon="-73.2567875">
    <!-- multiple: "155 Plattsburg Avenue, Burlington, VT" Multiple exact matches in OSM. -->
    <tag k="addr:city" v="Burlington"/>
    <tag k="addr:housenumber" v="155"/>
    <tag k="addr:street" v="Plattsburg Avenue"/>
    <tag k="addr:state" v="VT"/>
    <tag k="ref:vcgi:esiteid" v="615773"/>
  </node>
  <node id="-12319" visible="true" lat="44.51987821" lon="-73.25624691">
    <!-- multiple: "155 Plattsburg Avenue, Burlington, VT" Multiple exact matches in OSM. -->
    <tag k="addr:city" v="Burlington"/>
    <tag k="addr:housenumber" v="155"/>
    <tag k="addr:street" v="Plattsburg Avenue"/>
    <tag k="addr:state" v="VT"/>
    <tag k="ref:vcgi:esiteid" v="615774"/>
  </node>
  <node id="-12320" visible="true" lat="44.51985937" lon="-73.25650227">
    <!-- multiple: "155 Plattsburg Avenue, Burlington, VT" Multiple exact matches in OSM. -->
    <tag k="addr:city" v="Burlington"/>
    <tag k="addr:housenumber" v="155"/>
    <tag k="addr:street" v="Plattsburg Avenue"/>
    <tag k="addr:state" v="VT"/>
    <tag k="ref:vcgi:esiteid" v="615775"/>
  </node>
  <node id="-12375" visible="true" lat="44.45498406" lon="-73.20959666">
    <!-- multiple: "431 Flynn Avenue, Burlington, VT" Multiple exact matches in OSM. -->
    <tag k="addr:city" v="Burlington"/>
    <tag k="addr:housenumber" v="431"/>
    <tag k="addr:street" v="Flynn Avenue"/>
    <tag k="addr:state" v="VT"/>
    <tag k="ref:vcgi:esiteid" v="615868"/>
  </node>
  <node id="-12414" visible="true" lat="44.48585274" lon="-73.20857832">
    <!-- multiple: "31 Hyde Street, Burlington, VT" Multiple exact matches in OSM. -->
    <tag k="addr:city" v="Burlington"/>
    <tag k="addr:housenumber" v="31"/>
    <tag k="addr:street" v="Hyde Street"/>
    <tag k="addr:state" v="VT"/>
    <tag k="ref:vcgi:esiteid" v="616099"/>
  </node>
  <node id="-12415" visible="true" lat="44.48591481" lon="-73.20888987">
    <!-- multiple: "31 Hyde Street, Burlington, VT" Multiple exact matches in OSM. -->
    <tag k="addr:city" v="Burlington"/>
    <tag k="addr:housenumber" v="31"/>
    <tag k="addr:street" v="Hyde Street"/>
    <tag k="addr:state" v="VT"/>
    <tag k="ref:vcgi:esiteid" v="616100"/>
  </node>
  <node id="-12416" visible="true" lat="44.48663788" lon="-73.20785074">
    <!-- multiple: "63 Hyde Street, Burlington, VT" Multiple exact matches in OSM. -->
    <tag k="addr:city" v="Burlington"/>
    <tag k="addr:housenumber" v="63"/>
    <tag k="addr:street" v="Hyde Street"/>
    <tag k="addr:state" v="VT"/>
    <tag k="ref:vcgi:esiteid" v="616101"/>
  </node>
  <node id="-12452" visible="true" lat="44.48157079" lon="-73.21651258">
    <!-- multiple: "64 Monroe Street, Burlington, VT" Multiple exact matches in OSM. -->
    <tag k="addr:city" v="Burlington"/>
    <tag k="addr:housenumber" v="64"/>
    <tag k="addr:street" v="Monroe Street"/>
    <tag k="addr:state" v="VT"/>
    <tag k="ref:vcgi:esiteid" v="616212"/>
  </node>
  <node id="-12489" visible="true" lat="44.45569663" lon="-73.21602833">
    <!-- multiple: "288 Flynn Avenue, Burlington, VT" Multiple exact matches in OSM. -->
    <tag k="addr:city" v="Burlington"/>
    <tag k="addr:housenumber" v="288"/>
    <tag k="addr:street" v="Flynn Avenue"/>
    <tag k="addr:state" v="VT"/>
    <tag k="ref:vcgi:esiteid" v="751489"/>
  </node>
  <node id="-12607" visible="true" lat="44.49003466" lon="-73.21444316">
    <!-- multiple: "354 Manhattan Drive, Burlington, VT" Multiple exact matches in OSM. -->
    <tag k="addr:city" v="Burlington"/>
    <tag k="addr:housenumber" v="354"/>
    <tag k="addr:street" v="Manhattan Drive"/>
    <tag k="addr:state" v="VT"/>
    <tag k="ref:vcgi:esiteid" v="757402"/>
  </node>
  <node id="-12625" visible="true" lat="44.4804987" lon="-73.21584385">
    <!-- multiple: "80 Pearl Street, Burlington, VT" Multiple exact matches in OSM. -->
    <tag k="addr:city" v="Burlington"/>
    <tag k="addr:housenumber" v="80"/>
    <tag k="addr:street" v="Pearl Street"/>
    <tag k="addr:state" v="VT"/>
    <tag k="ref:vcgi:esiteid" v="757515"/>
  </node>
  <node id="-12630" visible="true" lat="44.48549068" lon="-73.22328257">
    <!-- multiple: "133 North Avenue, Burlington, VT" Multiple exact matches in OSM. -->
    <tag k="addr:city" v="Burlington"/>
    <tag k="addr:housenumber" v="133"/>
    <tag k="addr:street" v="North Avenue"/>
    <tag k="addr:state" v="VT"/>
    <tag k="ref:vcgi:esiteid" v="758287"/>
  </node>
  <node id="-12702" visible="true" lat="44.46986177" lon="-73.20031195">
    <!-- multiple: "384 South Prospect Street, Burlington, VT" Multiple exact matches in OSM. -->
    <tag k="addr:city" v="Burlington"/>
    <tag k="addr:housenumber" v="384"/>
    <tag k="addr:street" v="South Prospect Street"/>
    <tag k="addr:state" v="VT"/>
    <tag k="ref:vcgi:esiteid" v="758707"/>
  </node>
  <node id="-12723" visible="true" lat="44.47438291" lon="-73.20942264">
    <!-- multiple: "207 South Union Street, Burlington, VT" Multiple exact matches in OSM. -->
    <tag k="addr:city" v="Burlington"/>
    <tag k="addr:housenumber" v="207"/>
    <tag k="addr:street" v="South Union Street"/>
    <tag k="addr:state" v="VT"/>
    <tag k="ref:vcgi:esiteid" v="759843"/>
  </node>
  <node id="-12828" visible="true" lat="44.51193726" lon="-73.25066769">
    <!-- multiple: "1356 North Avenue, Burlington, VT" Multiple exact matches in OSM. -->
    <tag k="addr:city" v="Burlington"/>
    <tag k="addr:housenumber" v="1356"/>
    <tag k="addr:street" v="North Avenue"/>
    <tag k="addr:state" v="VT"/>
    <tag k="ref:vcgi:esiteid" v="768188"/>
  </node>
  <node id="-12830" visible="true" lat="44.50263362" lon="-73.23825335">
    <!-- multiple: "914 North Avenue, Burlington, VT" Multiple exact matches in OSM. -->
    <tag k="addr:city" v="Burlington"/>
    <tag k="addr:housenumber" v="914"/>
    <tag k="addr:street" v="North Avenue"/>
    <tag k="addr:state" v="VT"/>
    <tag k="ref:vcgi:esiteid" v="768238"/>
  </node>
  <node id="-12836" visible="true" lat="44.46722263" lon="-73.19315062">
    <!-- multiple: "81 Davis Road, Burlington, VT" Multiple exact matches in OSM. -->
    <tag k="addr:city" v="Burlington"/>
    <tag k="addr:housenumber" v="81"/>
    <tag k="addr:street" v="Davis Road"/>
    <tag k="addr:state" v="VT"/>
    <tag k="ref:vcgi:esiteid" v="768599"/>
  </node>
  <node id="-12864" visible="true" lat="44.47424496" lon="-73.22106206">
    <!-- multiple: "1 King Street, Burlington, VT" Multiple exact matches in OSM. -->
    <tag k="addr:city" v="Burlington"/>
    <tag k="addr:housenumber" v="1"/>
    <tag k="addr:street" v="King Street"/>
    <tag k="addr:state" v="VT"/>
    <tag k="ref:vcgi:esiteid" v="769766"/>
  </node>
  <node id="-12867" visible="true" lat="44.48735171" lon="-73.22410075">
    <!-- multiple: "208 North Avenue, Burlington, VT" Multiple exact matches in OSM. -->
    <tag k="addr:city" v="Burlington"/>
    <tag k="addr:housenumber" v="208"/>
    <tag k="addr:street" v="North Avenue"/>
    <tag k="addr:state" v="VT"/>
    <tag k="ref:vcgi:esiteid" v="769838"/>
  </node>
  <node id="-12870" visible="true" lat="44.48579973" lon="-73.21989243">
    <!-- multiple: "44 Pitkin Street, Burlington, VT" Multiple exact matches in OSM. -->
    <tag k="addr:city" v="Burlington"/>
    <tag k="addr:housenumber" v="44"/>
    <tag k="addr:street" v="Pitkin Street"/>
    <tag k="addr:state" v="VT"/>
    <tag k="ref:vcgi:esiteid" v="769841"/>
  </node>
  <node id="-12871" visible="true" lat="44.48728206" lon="-73.21484466">
    <!-- multiple: "86 Lafountain Street, Burlington, VT" Multiple exact matches in OSM. -->
    <tag k="addr:city" v="Burlington"/>
    <tag k="addr:housenumber" v="86"/>
    <tag k="addr:street" v="Lafountain Street"/>
    <tag k="addr:state" v="VT"/>
    <tag k="ref:vcgi:esiteid" v="769842"/>
  </node>
  <node id="-12872" visible="true" lat="44.50569202" lon="-73.2415287">
    <!-- multiple: "90 Ethan Allen Parkway, Burlington, VT" Multiple exact matches in OSM. -->
    <tag k="addr:city" v="Burlington"/>
    <tag k="addr:housenumber" v="90"/>
    <tag k="addr:street" v="Ethan Allen Parkway"/>
    <tag k="addr:state" v="VT"/>
    <tag k="ref:vcgi:esiteid" v="769860"/>
  </node>
  <node id="-12873" visible="true" lat="44.50567026" lon="-73.24165055">
    <!-- multiple: "90 Ethan Allen Parkway, Burlington, VT" Multiple exact matches in OSM. -->
    <tag k="addr:city" v="Burlington"/>
    <tag k="addr:housenumber" v="90"/>
    <tag k="addr:street" v="Ethan Allen Parkway"/>
    <tag k="addr:state" v="VT"/>
    <tag k="ref:vcgi:esiteid" v="769861"/>
  </node>
  <node id="-12874" visible="true" lat="44.50570947" lon="-73.24175449">
    <!-- multiple: "90 Ethan Allen Parkway, Burlington, VT" Multiple exact matches in OSM. -->
    <tag k="addr:city" v="Burlington"/>
    <tag k="addr:housenumber" v="90"/>
    <tag k="addr:street" v="Ethan Allen Parkway"/>
    <tag k="addr:state" v="VT"/>
    <tag k="ref:vcgi:esiteid" v="769862"/>
  </node>
  <node id="-12876" visible="true" lat="44.50576913" lon="-73.24145638">
    <!-- multiple: "90 Ethan Allen Parkway, Burlington, VT" Multiple exact matches in OSM. -->
    <tag k="addr:city" v="Burlington"/>
    <tag k="addr:housenumber" v="90"/>
    <tag k="addr:street" v="Ethan Allen Parkway"/>
    <tag k="addr:state" v="VT"/>
    <tag k="ref:vcgi:esiteid" v="769947"/>
  </node>
  <node id="-12882" visible="true" lat="44.50924547" lon="-73.24730483">
    <!-- multiple: "1230 North Avenue, Burlington, VT" Multiple exact matches in OSM. -->
    <tag k="addr:city" v="Burlington"/>
    <tag k="addr:housenumber" v="1230"/>
    <tag k="addr:street" v="North Avenue"/>
    <tag k="addr:state" v="VT"/>
    <tag k="ref:vcgi:esiteid" v="771133"/>
  </node>
  <node id="-12884" visible="true" lat="44.47834172" lon="-73.21474694">
    <!-- multiple: "130 Bank Street, Burlington, VT" Multiple exact matches in OSM. -->
    <tag k="addr:city" v="Burlington"/>
    <tag k="addr:housenumber" v="130"/>
    <tag k="addr:street" v="Bank Street"/>
    <tag k="addr:state" v="VT"/>
    <tag k="ref:vcgi:esiteid" v="771440"/>
  </node>
  <node id="-12888" visible="true" lat="44.48710089" lon="-73.18456469">
    <!-- multiple: "67 Chase Street, Burlington, VT" Multiple exact matches in OSM. -->
    <tag k="addr:city" v="Burlington"/>
    <tag k="addr:housenumber" v="67"/>
    <tag k="addr:street" v="Chase Street"/>
    <tag k="addr:state" v="VT"/>
    <tag k="ref:vcgi:esiteid" v="771735"/>
  </node>
</osm>
