<?xml version="1.0" encoding="UTF-8"?>
<osm version="0.6" generator="JOSM" upload="false">
  <node id="-2669" visible="true" lat="44.50783108" lon="-73.24566716">
    <!-- offset: "1174 North Avenue, Burlington, VT" Significant offset - 191.3m -->
    <tag k="addr:city" v="Burlington"/>
    <tag k="addr:housenumber" v="1174"/>
    <tag k="addr:street" v="North Avenue"/>
    <tag k="addr:state" v="VT"/>
    <tag k="ref:vcgi:esiteid" v="45329"/>
  </node>
  <node id="-2953" visible="true" lat="44.5081239" lon="-73.23161597">
    <!-- offset: "1 Ethan Allen Homestead, Burlington, VT" Significant offset - 128m -->
    <tag k="addr:city" v="Burlington"/>
    <tag k="addr:housenumber" v="1"/>
    <tag k="addr:street" v="Ethan Allen Homestead"/>
    <tag k="addr:state" v="VT"/>
    <tag k="ref:vcgi:esiteid" v="45617"/>
  </node>
  <node id="-2954" visible="true" lat="44.50853771" lon="-73.23131975">
    <!-- offset: "1 Ethan Allen Homestead, Burlington, VT" Significant offset - 119.5m -->
    <tag k="addr:city" v="Burlington"/>
    <tag k="addr:housenumber" v="1"/>
    <tag k="addr:street" v="Ethan Allen Homestead"/>
    <tag k="addr:state" v="VT"/>
    <tag k="ref:vcgi:esiteid" v="45618"/>
  </node>
  <node id="-3073" visible="true" lat="44.50634086" lon="-73.2444022">
    <!-- offset: "1127 North Avenue, Burlington, VT" Significant offset - 194.1m -->
    <tag k="addr:city" v="Burlington"/>
    <tag k="addr:housenumber" v="1127"/>
    <tag k="addr:street" v="North Avenue"/>
    <tag k="addr:state" v="VT"/>
    <tag k="ref:vcgi:esiteid" v="45737"/>
  </node>
  <node id="-3075" visible="true" lat="44.50537757" lon="-73.24567598">
    <!-- offset: "1127 North Avenue, Burlington, VT" Significant offset - 213.1m -->
    <tag k="addr:city" v="Burlington"/>
    <tag k="addr:housenumber" v="1127"/>
    <tag k="addr:street" v="North Avenue"/>
    <tag k="addr:state" v="VT"/>
    <tag k="ref:vcgi:esiteid" v="45739"/>
  </node>
  <node id="-3772" visible="true" lat="44.49007916" lon="-73.20677756">
    <!-- offset: "669 Riverside Avenue, Burlington, VT" Significant offset - 112.3m -->
    <tag k="addr:city" v="Burlington"/>
    <tag k="addr:housenumber" v="669"/>
    <tag k="addr:street" v="Riverside Avenue"/>
    <tag k="addr:state" v="VT"/>
    <tag k="ref:vcgi:esiteid" v="46442"/>
  </node>
  <node id="-3776" visible="true" lat="44.48982871" lon="-73.20670787">
    <!-- offset: "669 Riverside Avenue, Burlington, VT" Significant offset - 114.6m -->
    <tag k="addr:city" v="Burlington"/>
    <tag k="addr:housenumber" v="669"/>
    <tag k="addr:street" v="Riverside Avenue"/>
    <tag k="addr:state" v="VT"/>
    <tag k="ref:vcgi:esiteid" v="46446"/>
  </node>
  <node id="-3921" visible="true" lat="44.4861227" lon="-73.19147682">
    <!-- offset: "220 Riverside Avenue, Burlington, VT" Significant offset - 125.8m -->
    <tag k="addr:city" v="Burlington"/>
    <tag k="addr:housenumber" v="220"/>
    <tag k="addr:street" v="Riverside Avenue"/>
    <tag k="addr:state" v="VT"/>
    <tag k="ref:vcgi:esiteid" v="46593"/>
  </node>
  <node id="-6270" visible="true" lat="44.4798207" lon="-73.19396747">
    <!-- offset: "111 Colchester Avenue, Burlington, VT" Significant offset - 146.9m -->
    <tag k="addr:city" v="Burlington"/>
    <tag k="addr:housenumber" v="111"/>
    <tag k="addr:street" v="Colchester Avenue"/>
    <tag k="addr:state" v="VT"/>
    <tag k="ref:vcgi:esiteid" v="48974"/>
  </node>
  <node id="-6687" visible="true" lat="44.47547996" lon="-73.22134432">
    <!-- offset: "1 King Street, Burlington, VT" Significant offset - 125.1m -->
    <tag k="addr:city" v="Burlington"/>
    <tag k="addr:housenumber" v="1"/>
    <tag k="addr:street" v="King Street"/>
    <tag k="addr:state" v="VT"/>
    <tag k="ref:vcgi:esiteid" v="49401"/>
  </node>
  <node id="-6711" visible="true" lat="44.47539028" lon="-73.22076323">
    <!-- offset: "1 King Street, Burlington, VT" Significant offset - 129.1m -->
    <tag k="addr:city" v="Burlington"/>
    <tag k="addr:housenumber" v="1"/>
    <tag k="addr:street" v="King Street"/>
    <tag k="addr:state" v="VT"/>
    <tag k="ref:vcgi:esiteid" v="49425"/>
  </node>
  <node id="-6713" visible="true" lat="44.47486916" lon="-73.22003051">
    <!-- offset: "1 King Street, Burlington, VT" Significant offset - 130.8m -->
    <tag k="addr:city" v="Burlington"/>
    <tag k="addr:housenumber" v="1"/>
    <tag k="addr:street" v="King Street"/>
    <tag k="addr:state" v="VT"/>
    <tag k="ref:vcgi:esiteid" v="49427"/>
  </node>
  <node id="-6714" visible="true" lat="44.47519456" lon="-73.2200824">
    <!-- offset: "1 King Street, Burlington, VT" Significant offset - 146.8m -->
    <tag k="addr:city" v="Burlington"/>
    <tag k="addr:housenumber" v="1"/>
    <tag k="addr:street" v="King Street"/>
    <tag k="addr:state" v="VT"/>
    <tag k="ref:vcgi:esiteid" v="49428"/>
  </node>
  <node id="-7729" visible="true" lat="44.4710594" lon="-73.22063011">
    <!-- offset: "53 Lavalley Lane, Burlington, VT" Significant offset - 122.6m -->
    <tag k="addr:city" v="Burlington"/>
    <tag k="addr:housenumber" v="53"/>
    <tag k="addr:street" v="Lavalley Lane"/>
    <tag k="addr:state" v="VT"/>
    <tag k="ref:vcgi:esiteid" v="50476"/>
  </node>
  <node id="-8107" visible="true" lat="44.46651198" lon="-73.20244357">
    <!-- offset: "545 South Prospect Street, Burlington, VT" Significant offset - 174.9m -->
    <tag k="addr:city" v="Burlington"/>
    <tag k="addr:housenumber" v="545"/>
    <tag k="addr:street" v="South Prospect Street"/>
    <tag k="addr:state" v="VT"/>
    <tag k="ref:vcgi:esiteid" v="50856"/>
  </node>
  <node id="-8151" visible="true" lat="44.46621244" lon="-73.19926302">
    <!-- offset: "500 South Prospect Street, Burlington, VT" Significant offset - 123.4m -->
    <tag k="addr:city" v="Burlington"/>
    <tag k="addr:housenumber" v="500"/>
    <tag k="addr:street" v="South Prospect Street"/>
    <tag k="addr:state" v="VT"/>
    <tag k="ref:vcgi:esiteid" v="50905"/>
  </node>
  <node id="-8153" visible="true" lat="44.46646481" lon="-73.19955062">
    <!-- offset: "500 South Prospect Street, Burlington, VT" Significant offset - 102.3m -->
    <tag k="addr:city" v="Burlington"/>
    <tag k="addr:housenumber" v="500"/>
    <tag k="addr:street" v="South Prospect Street"/>
    <tag k="addr:state" v="VT"/>
    <tag k="ref:vcgi:esiteid" v="50907"/>
  </node>
  <node id="-9778" visible="true" lat="44.48169453" lon="-73.17979629">
    <!-- offset: "284 Grove Street, Burlington, VT" Significant offset - 112.4m -->
    <tag k="addr:city" v="Burlington"/>
    <tag k="addr:housenumber" v="284"/>
    <tag k="addr:street" v="Grove Street"/>
    <tag k="addr:state" v="VT"/>
    <tag k="ref:vcgi:esiteid" v="52823"/>
  </node>
  <node id="-9779" visible="true" lat="44.4815246" lon="-73.17991209">
    <!-- offset: "284 Grove Street, Burlington, VT" Significant offset - 106.5m -->
    <tag k="addr:city" v="Burlington"/>
    <tag k="addr:housenumber" v="284"/>
    <tag k="addr:street" v="Grove Street"/>
    <tag k="addr:state" v="VT"/>
    <tag k="ref:vcgi:esiteid" v="52824"/>
  </node>
  <node id="-9781" visible="true" lat="44.48131618" lon="-73.18001065">
    <!-- offset: "284 Grove Street, Burlington, VT" Significant offset - 107.7m -->
    <tag k="addr:city" v="Burlington"/>
    <tag k="addr:housenumber" v="284"/>
    <tag k="addr:street" v="Grove Street"/>
    <tag k="addr:state" v="VT"/>
    <tag k="ref:vcgi:esiteid" v="52826"/>
  </node>
  <node id="-9782" visible="true" lat="44.48112542" lon="-73.18015706">
    <!-- offset: "284 Grove Street, Burlington, VT" Significant offset - 110.2m -->
    <tag k="addr:city" v="Burlington"/>
    <tag k="addr:housenumber" v="284"/>
    <tag k="addr:street" v="Grove Street"/>
    <tag k="addr:state" v="VT"/>
    <tag k="ref:vcgi:esiteid" v="52827"/>
  </node>
  <node id="-10533" visible="true" lat="44.50682484" lon="-73.24507398">
    <!-- offset: "1127 North Avenue, Burlington, VT" Significant offset - 123.1m -->
    <tag k="addr:city" v="Burlington"/>
    <tag k="addr:housenumber" v="1127"/>
    <tag k="addr:street" v="North Avenue"/>
    <tag k="addr:state" v="VT"/>
    <tag k="ref:vcgi:esiteid" v="53912"/>
  </node>
  <node id="-10534" visible="true" lat="44.50585297" lon="-73.24488128">
    <!-- offset: "1127 North Avenue, Burlington, VT" Significant offset - 198.6m -->
    <tag k="addr:city" v="Burlington"/>
    <tag k="addr:housenumber" v="1127"/>
    <tag k="addr:street" v="North Avenue"/>
    <tag k="addr:state" v="VT"/>
    <tag k="ref:vcgi:esiteid" v="53916"/>
  </node>
  <node id="-11807" visible="true" lat="44.44818842" lon="-73.2097235">
    <!-- offset: "555 Shelburne Street, Burlington, VT" Significant offset - 221.6m -->
    <tag k="addr:city" v="Burlington"/>
    <tag k="addr:housenumber" v="555"/>
    <tag k="addr:street" v="Shelburne Street"/>
    <tag k="addr:state" v="VT"/>
    <tag k="ref:vcgi:esiteid" v="55527"/>
  </node>
  <node id="-12160" visible="true" lat="44.46994555" lon="-73.19749984">
    <!-- offset: "384 South Prospect Street, Burlington, VT" Significant offset - 223.3m -->
    <tag k="addr:city" v="Burlington"/>
    <tag k="addr:housenumber" v="384"/>
    <tag k="addr:street" v="South Prospect Street"/>
    <tag k="addr:state" v="VT"/>
    <tag k="ref:vcgi:esiteid" v="446106"/>
  </node>
</osm>
