<?xml version="1.0" encoding="UTF-8"?>
<osm version="0.6" generator="JOSM" upload="false">
  <node id="-430" visible="true" lat="44.40251541" lon="-72.31145887">
    <!-- multiple: "3087 Main Street, , VT" Multiple exact matches in OSM. -->
    <tag k="addr:housenumber" v="3087"/>
    <tag k="addr:street" v="Main Street"/>
    <tag k="addr:state" v="VT"/>
    <tag k="ref:vcgi:esiteid" v="55861"/>
  </node>
  <node id="-431" visible="true" lat="44.40231045" lon="-72.31159182">
    <!-- multiple: "3075 Main Street, , VT" Multiple exact matches in OSM. -->
    <tag k="addr:housenumber" v="3075"/>
    <tag k="addr:street" v="Main Street"/>
    <tag k="addr:state" v="VT"/>
    <tag k="ref:vcgi:esiteid" v="55862"/>
  </node>
  <node id="-438" visible="true" lat="44.40214449" lon="-72.31105669">
    <!-- multiple: "3084 Main Street, , VT" Multiple exact matches in OSM. -->
    <tag k="addr:housenumber" v="3084"/>
    <tag k="addr:street" v="Main Street"/>
    <tag k="addr:state" v="VT"/>
    <tag k="ref:vcgi:esiteid" v="55869"/>
  </node>
  <node id="-928" visible="true" lat="44.38277545" lon="-72.37918266">
    <!-- multiple: "2509 Ducharme Road, , VT" Multiple exact matches in OSM. -->
    <tag k="addr:housenumber" v="2509"/>
    <tag k="addr:street" v="Ducharme Road"/>
    <tag k="addr:state" v="VT"/>
    <tag k="ref:vcgi:esiteid" v="452630"/>
  </node>
  <node id="-1076" visible="true" lat="44.43522715" lon="-72.25577647">
    <!-- multiple: "964 Bricketts Crossing Road, , VT" Multiple exact matches in OSM. -->
    <tag k="addr:housenumber" v="964"/>
    <tag k="addr:street" v="Bricketts Crossing Road"/>
    <tag k="addr:state" v="VT"/>
    <tag k="ref:vcgi:esiteid" v="1050989"/>
  </node>
</osm>
