<?xml version="1.0" encoding="UTF-8"?>
<osm version="0.6" generator="JOSM" upload="false">
  <node id="-244" visible="true" lat="44.3894269" lon="-72.41372175">
    <!-- multiple: "6420 Vermont Route 14, , VT" Multiple exact matches in OSM. -->
    <tag k="addr:housenumber" v="6420"/>
    <tag k="addr:street" v="Vermont Route 14"/>
    <tag k="addr:state" v="VT"/>
    <tag k="ref:vcgi:esiteid" v="56410"/>
  </node>
  <node id="-259" visible="true" lat="44.38811006" lon="-72.39624788">
    <!-- multiple: "1157 Bliss Road, , VT" Multiple exact matches in OSM. -->
    <tag k="addr:housenumber" v="1157"/>
    <tag k="addr:street" v="Bliss Road"/>
    <tag k="addr:state" v="VT"/>
    <tag k="ref:vcgi:esiteid" v="56425"/>
  </node>
  <node id="-421" visible="true" lat="44.37531176" lon="-72.4952313">
    <!-- multiple: "31 West County Road, , VT" Multiple exact matches in OSM. -->
    <tag k="addr:housenumber" v="31"/>
    <tag k="addr:street" v="West County Road"/>
    <tag k="addr:state" v="VT"/>
    <tag k="ref:vcgi:esiteid" v="56587"/>
  </node>
  <node id="-518" visible="true" lat="44.36603623" lon="-72.53539723">
    <!-- multiple: "67 Dugar Extension, , VT" Multiple exact matches in OSM. -->
    <tag k="addr:housenumber" v="67"/>
    <tag k="addr:street" v="Dugar Extension"/>
    <tag k="addr:state" v="VT"/>
    <tag k="ref:vcgi:esiteid" v="56686"/>
  </node>
  <node id="-529" visible="true" lat="44.36509252" lon="-72.53616925">
    <!-- multiple: "59 Dugar Extension, , VT" Multiple exact matches in OSM. -->
    <tag k="addr:housenumber" v="59"/>
    <tag k="addr:street" v="Dugar Extension"/>
    <tag k="addr:state" v="VT"/>
    <tag k="ref:vcgi:esiteid" v="56698"/>
  </node>
  <node id="-542" visible="true" lat="44.36454927" lon="-72.53670909">
    <!-- multiple: "49 Dugar Extension, , VT" Multiple exact matches in OSM. -->
    <tag k="addr:housenumber" v="49"/>
    <tag k="addr:street" v="Dugar Extension"/>
    <tag k="addr:state" v="VT"/>
    <tag k="ref:vcgi:esiteid" v="56711"/>
  </node>
  <node id="-817" visible="true" lat="44.31965188" lon="-72.45182359">
    <!-- multiple: "321 Lightening Ridge Road, , VT" Multiple exact matches in OSM. -->
    <tag k="addr:housenumber" v="321"/>
    <tag k="addr:street" v="Lightening Ridge Road"/>
    <tag k="addr:state" v="VT"/>
    <tag k="ref:vcgi:esiteid" v="56992"/>
  </node>
  <node id="-831" visible="true" lat="44.3126993" lon="-72.45446042">
    <!-- multiple: "593 Gray Road, , VT" Multiple exact matches in OSM. -->
    <tag k="addr:housenumber" v="593"/>
    <tag k="addr:street" v="Gray Road"/>
    <tag k="addr:state" v="VT"/>
    <tag k="ref:vcgi:esiteid" v="57006"/>
  </node>
  <node id="-928" visible="true" lat="44.34847088" lon="-72.40792257">
    <!-- multiple: "4869 Hollister Hill Road, , VT" Multiple exact matches in OSM. -->
    <tag k="addr:housenumber" v="4869"/>
    <tag k="addr:street" v="Hollister Hill Road"/>
    <tag k="addr:state" v="VT"/>
    <tag k="ref:vcgi:esiteid" v="152706"/>
  </node>
  <node id="-929" visible="true" lat="44.39712271" lon="-72.41677717">
    <!-- multiple: "102 Hemlock Road, , VT" Multiple exact matches in OSM. -->
    <tag k="addr:housenumber" v="102"/>
    <tag k="addr:street" v="Hemlock Road"/>
    <tag k="addr:state" v="VT"/>
    <tag k="ref:vcgi:esiteid" v="302081"/>
  </node>
  <node id="-930" visible="true" lat="44.41406433" lon="-72.4620162">
    <!-- multiple: "569 Scribner Road, , VT" Multiple exact matches in OSM. -->
    <tag k="addr:housenumber" v="569"/>
    <tag k="addr:street" v="Scribner Road"/>
    <tag k="addr:state" v="VT"/>
    <tag k="ref:vcgi:esiteid" v="302098"/>
  </node>
  <node id="-971" visible="true" lat="44.35546221" lon="-72.41330161">
    <!-- multiple: "965 East Hill Road, , VT" Multiple exact matches in OSM. -->
    <tag k="addr:housenumber" v="965"/>
    <tag k="addr:street" v="East Hill Road"/>
    <tag k="addr:state" v="VT"/>
    <tag k="ref:vcgi:esiteid" v="341426"/>
  </node>
  <node id="-978" visible="true" lat="44.32805501" lon="-72.42296408">
    <!-- multiple: "3613 Hollister Hill Road, , VT" Multiple exact matches in OSM. -->
    <tag k="addr:housenumber" v="3613"/>
    <tag k="addr:street" v="Hollister Hill Road"/>
    <tag k="addr:state" v="VT"/>
    <tag k="ref:vcgi:esiteid" v="346161"/>
  </node>
</osm>
