<?xml version="1.0" encoding="UTF-8"?>
<osm version="0.6" generator="JOSM" upload="false">
  <node id="-587" visible="true" lat="43.6431156" lon="-73.22225091">
    <!-- multiple: "51 Clements Point Road, , VT" Multiple exact matches in OSM. -->
    <tag k="addr:housenumber" v="51"/>
    <tag k="addr:street" v="Clements Point Road"/>
    <tag k="addr:state" v="VT"/>
    <tag k="ref:vcgi:esiteid" v="59758"/>
  </node>
  <node id="-1073" visible="true" lat="43.61594397" lon="-73.16051335">
    <!-- multiple: "101 Cramton Road, , VT" Multiple exact matches in OSM. -->
    <tag k="addr:housenumber" v="101"/>
    <tag k="addr:street" v="Cramton Road"/>
    <tag k="addr:state" v="VT"/>
    <tag k="ref:vcgi:esiteid" v="60247"/>
  </node>
  <node id="-1074" visible="true" lat="43.61599065" lon="-73.1618552">
    <!-- multiple: "81 Cramton Road, , VT" Multiple exact matches in OSM. -->
    <tag k="addr:housenumber" v="81"/>
    <tag k="addr:street" v="Cramton Road"/>
    <tag k="addr:state" v="VT"/>
    <tag k="ref:vcgi:esiteid" v="60248"/>
  </node>
  <node id="-1075" visible="true" lat="43.61597192" lon="-73.16229436">
    <!-- multiple: "81 Cramton Road, , VT" Multiple exact matches in OSM. -->
    <tag k="addr:housenumber" v="81"/>
    <tag k="addr:street" v="Cramton Road"/>
    <tag k="addr:state" v="VT"/>
    <tag k="ref:vcgi:esiteid" v="60249"/>
  </node>
  <node id="-1076" visible="true" lat="43.61595126" lon="-73.16141003">
    <!-- multiple: "81 Cramton Road, , VT" Multiple exact matches in OSM. -->
    <tag k="addr:housenumber" v="81"/>
    <tag k="addr:street" v="Cramton Road"/>
    <tag k="addr:state" v="VT"/>
    <tag k="ref:vcgi:esiteid" v="60250"/>
  </node>
  <node id="-1077" visible="true" lat="43.61585333" lon="-73.16186283">
    <!-- multiple: "81 Cramton Road, , VT" Multiple exact matches in OSM. -->
    <tag k="addr:housenumber" v="81"/>
    <tag k="addr:street" v="Cramton Road"/>
    <tag k="addr:state" v="VT"/>
    <tag k="ref:vcgi:esiteid" v="60251"/>
  </node>
  <node id="-1079" visible="true" lat="43.61582315" lon="-73.16229436">
    <!-- multiple: "81 Cramton Road, , VT" Multiple exact matches in OSM. -->
    <tag k="addr:housenumber" v="81"/>
    <tag k="addr:street" v="Cramton Road"/>
    <tag k="addr:state" v="VT"/>
    <tag k="ref:vcgi:esiteid" v="60253"/>
  </node>
  <node id="-1080" visible="true" lat="43.61582398" lon="-73.1613967">
    <!-- multiple: "81 Cramton Road, , VT" Multiple exact matches in OSM. -->
    <tag k="addr:housenumber" v="81"/>
    <tag k="addr:street" v="Cramton Road"/>
    <tag k="addr:state" v="VT"/>
    <tag k="ref:vcgi:esiteid" v="60254"/>
  </node>
  <node id="-1082" visible="true" lat="43.61571968" lon="-73.16185317">
    <!-- multiple: "81 Cramton Road, , VT" Multiple exact matches in OSM. -->
    <tag k="addr:housenumber" v="81"/>
    <tag k="addr:street" v="Cramton Road"/>
    <tag k="addr:state" v="VT"/>
    <tag k="ref:vcgi:esiteid" v="60256"/>
  </node>
  <node id="-1084" visible="true" lat="43.61569216" lon="-73.16273136">
    <!-- multiple: "81 Cramton Road, , VT" Multiple exact matches in OSM. -->
    <tag k="addr:housenumber" v="81"/>
    <tag k="addr:street" v="Cramton Road"/>
    <tag k="addr:state" v="VT"/>
    <tag k="ref:vcgi:esiteid" v="60258"/>
  </node>
  <node id="-1086" visible="true" lat="43.61569049" lon="-73.1613925">
    <!-- multiple: "81 Cramton Road, , VT" Multiple exact matches in OSM. -->
    <tag k="addr:housenumber" v="81"/>
    <tag k="addr:street" v="Cramton Road"/>
    <tag k="addr:state" v="VT"/>
    <tag k="ref:vcgi:esiteid" v="60260"/>
  </node>
  <node id="-1088" visible="true" lat="43.61566675" lon="-73.1622791">
    <!-- multiple: "81 Cramton Road, , VT" Multiple exact matches in OSM. -->
    <tag k="addr:housenumber" v="81"/>
    <tag k="addr:street" v="Cramton Road"/>
    <tag k="addr:state" v="VT"/>
    <tag k="ref:vcgi:esiteid" v="60262"/>
  </node>
  <node id="-1090" visible="true" lat="43.61556169" lon="-73.16270833">
    <!-- multiple: "81 Cramton Road, , VT" Multiple exact matches in OSM. -->
    <tag k="addr:housenumber" v="81"/>
    <tag k="addr:street" v="Cramton Road"/>
    <tag k="addr:state" v="VT"/>
    <tag k="ref:vcgi:esiteid" v="60264"/>
  </node>
  <node id="-1091" visible="true" lat="43.61558551" lon="-73.16182892">
    <!-- multiple: "81 Cramton Road, , VT" Multiple exact matches in OSM. -->
    <tag k="addr:housenumber" v="81"/>
    <tag k="addr:street" v="Cramton Road"/>
    <tag k="addr:state" v="VT"/>
    <tag k="ref:vcgi:esiteid" v="60265"/>
  </node>
  <node id="-1092" visible="true" lat="43.61556978" lon="-73.16139914">
    <!-- multiple: "81 Cramton Road, , VT" Multiple exact matches in OSM. -->
    <tag k="addr:housenumber" v="81"/>
    <tag k="addr:street" v="Cramton Road"/>
    <tag k="addr:state" v="VT"/>
    <tag k="ref:vcgi:esiteid" v="60266"/>
  </node>
  <node id="-1094" visible="true" lat="43.61553705" lon="-73.16227147">
    <!-- multiple: "81 Cramton Road, , VT" Multiple exact matches in OSM. -->
    <tag k="addr:housenumber" v="81"/>
    <tag k="addr:street" v="Cramton Road"/>
    <tag k="addr:state" v="VT"/>
    <tag k="ref:vcgi:esiteid" v="60268"/>
  </node>
  <node id="-1097" visible="true" lat="43.61567053" lon="-73.160663">
    <!-- multiple: "101 Cramton Road, , VT" Multiple exact matches in OSM. -->
    <tag k="addr:housenumber" v="101"/>
    <tag k="addr:street" v="Cramton Road"/>
    <tag k="addr:state" v="VT"/>
    <tag k="ref:vcgi:esiteid" v="60271"/>
  </node>
  <node id="-1098" visible="true" lat="43.6156629" lon="-73.1608461">
    <!-- multiple: "101 Cramton Road, , VT" Multiple exact matches in OSM. -->
    <tag k="addr:housenumber" v="101"/>
    <tag k="addr:street" v="Cramton Road"/>
    <tag k="addr:state" v="VT"/>
    <tag k="ref:vcgi:esiteid" v="60272"/>
  </node>
  <node id="-1099" visible="true" lat="43.61565527" lon="-73.16022049">
    <!-- multiple: "101 Cramton Road, , VT" Multiple exact matches in OSM. -->
    <tag k="addr:housenumber" v="101"/>
    <tag k="addr:street" v="Cramton Road"/>
    <tag k="addr:state" v="VT"/>
    <tag k="ref:vcgi:esiteid" v="60273"/>
  </node>
  <node id="-1100" visible="true" lat="43.61565145" lon="-73.16041123">
    <!-- multiple: "101 Cramton Road, , VT" Multiple exact matches in OSM. -->
    <tag k="addr:housenumber" v="101"/>
    <tag k="addr:street" v="Cramton Road"/>
    <tag k="addr:state" v="VT"/>
    <tag k="ref:vcgi:esiteid" v="60274"/>
  </node>
  <node id="-1101" visible="true" lat="43.6154428" lon="-73.16182523">
    <!-- multiple: "81 Cramton Road, , VT" Multiple exact matches in OSM. -->
    <tag k="addr:housenumber" v="81"/>
    <tag k="addr:street" v="Cramton Road"/>
    <tag k="addr:state" v="VT"/>
    <tag k="ref:vcgi:esiteid" v="60275"/>
  </node>
  <node id="-1103" visible="true" lat="43.6153048" lon="-73.16088182">
    <!-- multiple: "101 Cramton Road, , VT" Multiple exact matches in OSM. -->
    <tag k="addr:housenumber" v="101"/>
    <tag k="addr:street" v="Cramton Road"/>
    <tag k="addr:state" v="VT"/>
    <tag k="ref:vcgi:esiteid" v="60277"/>
  </node>
  <node id="-1104" visible="true" lat="43.61541751" lon="-73.16270847">
    <!-- multiple: "81 Cramton Road, , VT" Multiple exact matches in OSM. -->
    <tag k="addr:housenumber" v="81"/>
    <tag k="addr:street" v="Cramton Road"/>
    <tag k="addr:state" v="VT"/>
    <tag k="ref:vcgi:esiteid" v="60278"/>
  </node>
  <node id="-1105" visible="true" lat="43.61540501" lon="-73.16139043">
    <!-- multiple: "81 Cramton Road, , VT" Multiple exact matches in OSM. -->
    <tag k="addr:housenumber" v="81"/>
    <tag k="addr:street" v="Cramton Road"/>
    <tag k="addr:state" v="VT"/>
    <tag k="ref:vcgi:esiteid" v="60279"/>
  </node>
  <node id="-1106" visible="true" lat="43.61529392" lon="-73.16070179">
    <!-- multiple: "101 Cramton Road, , VT" Multiple exact matches in OSM. -->
    <tag k="addr:housenumber" v="101"/>
    <tag k="addr:street" v="Cramton Road"/>
    <tag k="addr:state" v="VT"/>
    <tag k="ref:vcgi:esiteid" v="60280"/>
  </node>
  <node id="-1107" visible="true" lat="43.61529392" lon="-73.16048817">
    <!-- multiple: "101 Cramton Road, , VT" Multiple exact matches in OSM. -->
    <tag k="addr:housenumber" v="101"/>
    <tag k="addr:street" v="Cramton Road"/>
    <tag k="addr:state" v="VT"/>
    <tag k="ref:vcgi:esiteid" v="60281"/>
  </node>
  <node id="-1108" visible="true" lat="43.61529011" lon="-73.16024403">
    <!-- multiple: "101 Cramton Road, , VT" Multiple exact matches in OSM. -->
    <tag k="addr:housenumber" v="101"/>
    <tag k="addr:street" v="Cramton Road"/>
    <tag k="addr:state" v="VT"/>
    <tag k="ref:vcgi:esiteid" v="60282"/>
  </node>
  <node id="-1109" visible="true" lat="43.6153959" lon="-73.16226384">
    <!-- multiple: "81 Cramton Road, , VT" Multiple exact matches in OSM. -->
    <tag k="addr:housenumber" v="81"/>
    <tag k="addr:street" v="Cramton Road"/>
    <tag k="addr:state" v="VT"/>
    <tag k="ref:vcgi:esiteid" v="60283"/>
  </node>
  <node id="-1110" visible="true" lat="43.61531231" lon="-73.16182184">
    <!-- multiple: "81 Cramton Road, , VT" Multiple exact matches in OSM. -->
    <tag k="addr:housenumber" v="81"/>
    <tag k="addr:street" v="Cramton Road"/>
    <tag k="addr:state" v="VT"/>
    <tag k="ref:vcgi:esiteid" v="60284"/>
  </node>
  <node id="-1112" visible="true" lat="43.61527255" lon="-73.16270084">
    <!-- multiple: "81 Cramton Road, , VT" Multiple exact matches in OSM. -->
    <tag k="addr:housenumber" v="81"/>
    <tag k="addr:street" v="Cramton Road"/>
    <tag k="addr:state" v="VT"/>
    <tag k="ref:vcgi:esiteid" v="60286"/>
  </node>
  <node id="-1114" visible="true" lat="43.61526239" lon="-73.16225621">
    <!-- multiple: "81 Cramton Road, , VT" Multiple exact matches in OSM. -->
    <tag k="addr:housenumber" v="81"/>
    <tag k="addr:street" v="Cramton Road"/>
    <tag k="addr:state" v="VT"/>
    <tag k="ref:vcgi:esiteid" v="60288"/>
  </node>
  <node id="-1117" visible="true" lat="43.61517352" lon="-73.16180913">
    <!-- multiple: "81 Cramton Road, , VT" Multiple exact matches in OSM. -->
    <tag k="addr:housenumber" v="81"/>
    <tag k="addr:street" v="Cramton Road"/>
    <tag k="addr:state" v="VT"/>
    <tag k="ref:vcgi:esiteid" v="60291"/>
  </node>
  <node id="-1139" visible="true" lat="43.61345891" lon="-73.17127774">
    <!-- multiple: "266 Main Street, , VT" Multiple exact matches in OSM. -->
    <tag k="addr:housenumber" v="266"/>
    <tag k="addr:street" v="Main Street"/>
    <tag k="addr:state" v="VT"/>
    <tag k="ref:vcgi:esiteid" v="60316"/>
  </node>
  <node id="-1222" visible="true" lat="43.61168526" lon="-73.17685399">
    <!-- multiple: "575 Main Street, , VT" Multiple exact matches in OSM. -->
    <tag k="addr:housenumber" v="575"/>
    <tag k="addr:street" v="Main Street"/>
    <tag k="addr:state" v="VT"/>
    <tag k="ref:vcgi:esiteid" v="60406"/>
  </node>
  <node id="-1400" visible="true" lat="43.6092453" lon="-73.17797851">
    <!-- multiple: "62 Alumni Drive, , VT" Multiple exact matches in OSM. -->
    <tag k="addr:housenumber" v="62"/>
    <tag k="addr:street" v="Alumni Drive"/>
    <tag k="addr:state" v="VT"/>
    <tag k="ref:vcgi:esiteid" v="60598"/>
  </node>
  <node id="-1466" visible="true" lat="43.60826874" lon="-73.21892548">
    <!-- multiple: "528 Vermont Route 4A West, , VT" Multiple exact matches in OSM. -->
    <tag k="addr:housenumber" v="528"/>
    <tag k="addr:street" v="Vermont Route 4A West"/>
    <tag k="addr:state" v="VT"/>
    <tag k="ref:vcgi:esiteid" v="60669"/>
  </node>
  <node id="-1654" visible="true" lat="43.60445404" lon="-73.23454285">
    <!-- multiple: "17 Pine Street, , VT" Multiple exact matches in OSM. -->
    <tag k="addr:housenumber" v="17"/>
    <tag k="addr:street" v="Pine Street"/>
    <tag k="addr:state" v="VT"/>
    <tag k="ref:vcgi:esiteid" v="60869"/>
  </node>
  <node id="-1703" visible="true" lat="43.60203678" lon="-73.23252163">
    <!-- multiple: "197 Blissville Road, , VT" Multiple exact matches in OSM. -->
    <tag k="addr:housenumber" v="197"/>
    <tag k="addr:street" v="Blissville Road"/>
    <tag k="addr:state" v="VT"/>
    <tag k="ref:vcgi:esiteid" v="60920"/>
  </node>
  <node id="-1745" visible="true" lat="43.60038375" lon="-73.171669">
    <!-- multiple: "393 Staso Road, , VT" Multiple exact matches in OSM. -->
    <tag k="addr:housenumber" v="393"/>
    <tag k="addr:street" v="Staso Road"/>
    <tag k="addr:state" v="VT"/>
    <tag k="ref:vcgi:esiteid" v="60964"/>
  </node>
  <node id="-1884" visible="true" lat="43.59260349" lon="-73.23795071">
    <!-- multiple: "413 River Street, , VT" Multiple exact matches in OSM. -->
    <tag k="addr:housenumber" v="413"/>
    <tag k="addr:street" v="River Street"/>
    <tag k="addr:state" v="VT"/>
    <tag k="ref:vcgi:esiteid" v="61108"/>
  </node>
  <node id="-2320" visible="true" lat="43.64142017" lon="-73.10583317">
    <!-- multiple: "1710 Belgo Road, , VT" Multiple exact matches in OSM. -->
    <tag k="addr:housenumber" v="1710"/>
    <tag k="addr:street" v="Belgo Road"/>
    <tag k="addr:state" v="VT"/>
    <tag k="ref:vcgi:esiteid" v="450136"/>
  </node>
  <node id="-2412" visible="true" lat="43.62703924" lon="-73.16265146">
    <!-- multiple: "820 Frisbie Hill Road, , VT" Multiple exact matches in OSM. -->
    <tag k="addr:housenumber" v="820"/>
    <tag k="addr:street" v="Frisbie Hill Road"/>
    <tag k="addr:state" v="VT"/>
    <tag k="ref:vcgi:esiteid" v="751265"/>
  </node>
  <node id="-2434" visible="true" lat="43.59472462" lon="-73.24262045">
    <!-- multiple: "548 River Street, , VT" Multiple exact matches in OSM. -->
    <tag k="addr:housenumber" v="548"/>
    <tag k="addr:street" v="River Street"/>
    <tag k="addr:state" v="VT"/>
    <tag k="ref:vcgi:esiteid" v="759945"/>
  </node>
  <node id="-2473" visible="true" lat="43.60880776" lon="-73.21901499">
    <!-- multiple: "528 Vermont Route 4A West, , VT" Multiple exact matches in OSM. -->
    <tag k="addr:housenumber" v="528"/>
    <tag k="addr:street" v="Vermont Route 4A West"/>
    <tag k="addr:state" v="VT"/>
    <tag k="ref:vcgi:esiteid" v="764396"/>
  </node>
</osm>
