<?xml version="1.0" encoding="UTF-8"?>
<osm version="0.6" generator="JOSM" upload="false">
  <node id="-670" visible="true" lat="44.31590229" lon="-73.2240603">
    <!-- multiple: "2766 Mount Philo Road, Charlotte, VT" Multiple exact matches in OSM. -->
    <tag k="addr:city" v="Charlotte"/>
    <tag k="addr:housenumber" v="2766"/>
    <tag k="addr:street" v="Mount Philo Road"/>
    <tag k="addr:state" v="VT"/>
    <tag k="ref:vcgi:esiteid" v="63699"/>
  </node>
  <node id="-696" visible="true" lat="44.31518793" lon="-73.22626046">
    <!-- multiple: "408 Hinesburg Road, Charlotte, VT" Multiple exact matches in OSM. -->
    <tag k="addr:city" v="Charlotte"/>
    <tag k="addr:housenumber" v="408"/>
    <tag k="addr:street" v="Hinesburg Road"/>
    <tag k="addr:state" v="VT"/>
    <tag k="ref:vcgi:esiteid" v="63726"/>
  </node>
  <node id="-901" visible="true" lat="44.30598306" lon="-73.24529506">
    <!-- multiple: "3488 Ethan Allen Highway, Charlotte, VT" Multiple exact matches in OSM. -->
    <tag k="addr:city" v="Charlotte"/>
    <tag k="addr:housenumber" v="3488"/>
    <tag k="addr:street" v="Ethan Allen Highway"/>
    <tag k="addr:state" v="VT"/>
    <tag k="ref:vcgi:esiteid" v="63939"/>
  </node>
  <node id="-1818" visible="true" lat="44.31070196" lon="-73.24928929">
    <!-- multiple: "115 Ferry Road, Charlotte, VT" Multiple exact matches in OSM. -->
    <tag k="addr:city" v="Charlotte"/>
    <tag k="addr:housenumber" v="115"/>
    <tag k="addr:street" v="Ferry Road"/>
    <tag k="addr:state" v="VT"/>
    <tag k="ref:vcgi:esiteid" v="64924"/>
  </node>
  <node id="-1872" visible="true" lat="44.31101554" lon="-73.26112339">
    <!-- multiple: "818 Ferry Road, Charlotte, VT" Multiple exact matches in OSM. -->
    <tag k="addr:city" v="Charlotte"/>
    <tag k="addr:housenumber" v="818"/>
    <tag k="addr:street" v="Ferry Road"/>
    <tag k="addr:state" v="VT"/>
    <tag k="ref:vcgi:esiteid" v="64982"/>
  </node>
</osm>
