<?xml version="1.0" encoding="UTF-8"?>
<osm version="0.6" generator="JOSM" upload="false">
  <node id="-798" visible="true" lat="43.67397711" lon="-72.94317741">
    <!-- duplicates-in-different-towns: "11 Chittenden Road, Chittenden, VT"  ignoring town mismatch for duplicate housenumber/street when matching to esiteid 188595: "11 Chittenden Road, , VT" -->
    <tag k="addr:city" v="Chittenden"/>
    <tag k="addr:housenumber" v="11"/>
    <tag k="addr:street" v="Chittenden Road"/>
    <tag k="addr:state" v="VT"/>
    <tag k="ref:vcgi:esiteid" v="339146"/>
  </node>
  <node id="-799" visible="true" lat="43.67671847" lon="-72.9452185">
    <!-- duplicates-in-different-towns: "33 Chittenden Road, Chittenden, VT"  ignoring town mismatch for duplicate housenumber/street when matching to esiteid 188560: "33 Chittenden Road, , VT" -->
    <tag k="addr:city" v="Chittenden"/>
    <tag k="addr:housenumber" v="33"/>
    <tag k="addr:street" v="Chittenden Road"/>
    <tag k="addr:state" v="VT"/>
    <tag k="ref:vcgi:esiteid" v="339147"/>
  </node>
  <node id="-813" visible="true" lat="43.67643206" lon="-72.94496404">
    <!-- duplicates-in-different-towns: "31 Chittenden Road, Chittenden, VT"  ignoring town mismatch for duplicate housenumber/street when matching to esiteid 345270: "31 Chittenden Road, , VT" -->
    <tag k="addr:city" v="Chittenden"/>
    <tag k="addr:housenumber" v="31"/>
    <tag k="addr:street" v="Chittenden Road"/>
    <tag k="addr:state" v="VT"/>
    <tag k="ref:vcgi:esiteid" v="449618"/>
  </node>
  <node id="-814" visible="true" lat="43.67673697" lon="-72.94523718">
    <!-- duplicates-in-different-towns: "35 Chittenden Road, Chittenden, VT"  ignoring town mismatch for duplicate housenumber/street when matching to esiteid 188562: "35 Chittenden Road, , VT" -->
    <tag k="addr:city" v="Chittenden"/>
    <tag k="addr:housenumber" v="35"/>
    <tag k="addr:street" v="Chittenden Road"/>
    <tag k="addr:state" v="VT"/>
    <tag k="ref:vcgi:esiteid" v="449621"/>
  </node>
  <node id="-838" visible="true" lat="43.67835819" lon="-72.94591849">
    <!-- duplicates-in-different-towns: "47 Chittenden Road, Chittenden, VT"  ignoring town mismatch for duplicate housenumber/street when matching to esiteid 315357: "47 Chittenden Road, , VT" -->
    <tag k="addr:city" v="Chittenden"/>
    <tag k="addr:housenumber" v="47"/>
    <tag k="addr:street" v="Chittenden Road"/>
    <tag k="addr:state" v="VT"/>
    <tag k="ref:vcgi:esiteid" v="451529"/>
  </node>
  <node id="-889" visible="true" lat="43.69117661" lon="-72.95532248">
    <!-- duplicates-in-different-towns: "2162 Sangamon Road, Chittenden, VT"  ignoring town mismatch for duplicate housenumber/street when matching to esiteid 188800: "2162 Sangamon Road, , VT" -->
    <tag k="addr:city" v="Chittenden"/>
    <tag k="addr:housenumber" v="2162"/>
    <tag k="addr:street" v="Sangamon Road"/>
    <tag k="addr:state" v="VT"/>
    <tag k="ref:vcgi:esiteid" v="772491"/>
  </node>
</osm>
