<?xml version="1.0" encoding="UTF-8"?>
<osm version="0.6" generator="JOSM" upload="false">
  <node id="-255" visible="true" lat="42.93956518" lon="-72.86942883">
    <!-- multiple: "65 Country Club Road, , VT" Multiple exact matches in OSM. -->
    <tag k="addr:housenumber" v="65"/>
    <tag k="addr:street" v="Country Club Road"/>
    <tag k="addr:state" v="VT"/>
    <tag k="ref:vcgi:esiteid" v="85793"/>
  </node>
  <node id="-259" visible="true" lat="42.94100022" lon="-72.87111018">
    <!-- multiple: "56 Country Club Road, , VT" Multiple exact matches in OSM. -->
    <tag k="addr:housenumber" v="56"/>
    <tag k="addr:street" v="Country Club Road"/>
    <tag k="addr:state" v="VT"/>
    <tag k="ref:vcgi:esiteid" v="85801"/>
  </node>
  <node id="-267" visible="true" lat="42.94249006" lon="-72.86999095">
    <!-- multiple: "42 Country Club Road, , VT" Multiple exact matches in OSM. -->
    <tag k="addr:housenumber" v="42"/>
    <tag k="addr:street" v="Country Club Road"/>
    <tag k="addr:state" v="VT"/>
    <tag k="ref:vcgi:esiteid" v="85809"/>
  </node>
  <node id="-313" visible="true" lat="42.94302062" lon="-72.86497565">
    <!-- multiple: "17 Country Club Road, , VT" Multiple exact matches in OSM. -->
    <tag k="addr:housenumber" v="17"/>
    <tag k="addr:street" v="Country Club Road"/>
    <tag k="addr:state" v="VT"/>
    <tag k="ref:vcgi:esiteid" v="85857"/>
  </node>
  <node id="-314" visible="true" lat="42.94335916" lon="-72.86457305">
    <!-- multiple: "11 Country Club Road, , VT" Multiple exact matches in OSM. -->
    <tag k="addr:housenumber" v="11"/>
    <tag k="addr:street" v="Country Club Road"/>
    <tag k="addr:state" v="VT"/>
    <tag k="ref:vcgi:esiteid" v="85858"/>
  </node>
  <node id="-539" visible="true" lat="42.95251218" lon="-72.87650986">
    <!-- multiple: "6 Chipmunk Lane, , VT" Multiple exact matches in OSM. -->
    <tag k="addr:housenumber" v="6"/>
    <tag k="addr:street" v="Chipmunk Lane"/>
    <tag k="addr:state" v="VT"/>
    <tag k="ref:vcgi:esiteid" v="86126"/>
  </node>
  <node id="-835" visible="true" lat="42.96549806" lon="-72.89210766">
    <!-- multiple: "13 Grand Summit Way, , VT" Multiple exact matches in OSM. -->
    <tag k="addr:housenumber" v="13"/>
    <tag k="addr:street" v="Grand Summit Way"/>
    <tag k="addr:state" v="VT"/>
    <tag k="ref:vcgi:esiteid" v="86472"/>
  </node>
  <node id="-1296" visible="true" lat="42.94191264" lon="-72.84870692">
    <!-- multiple: "37 Valley View Road, , VT" Multiple exact matches in OSM. -->
    <tag k="addr:housenumber" v="37"/>
    <tag k="addr:street" v="Valley View Road"/>
    <tag k="addr:state" v="VT"/>
    <tag k="ref:vcgi:esiteid" v="86984"/>
  </node>
  <node id="-1297" visible="true" lat="42.94209112" lon="-72.84828778">
    <!-- multiple: "37 Valley View Road, , VT" Multiple exact matches in OSM. -->
    <tag k="addr:housenumber" v="37"/>
    <tag k="addr:street" v="Valley View Road"/>
    <tag k="addr:state" v="VT"/>
    <tag k="ref:vcgi:esiteid" v="86985"/>
  </node>
  <node id="-1437" visible="true" lat="42.93311099" lon="-72.79427523">
    <!-- multiple: "12 Beech Tree Lane, , VT" Multiple exact matches in OSM. -->
    <tag k="addr:housenumber" v="12"/>
    <tag k="addr:street" v="Beech Tree Lane"/>
    <tag k="addr:state" v="VT"/>
    <tag k="ref:vcgi:esiteid" v="87125"/>
  </node>
  <node id="-1512" visible="true" lat="42.95034802" lon="-72.77008763">
    <!-- multiple: "22 Dover Hill Road, , VT" Multiple exact matches in OSM. -->
    <tag k="addr:housenumber" v="22"/>
    <tag k="addr:street" v="Dover Hill Road"/>
    <tag k="addr:state" v="VT"/>
    <tag k="ref:vcgi:esiteid" v="87200"/>
  </node>
  <node id="-1838" visible="true" lat="42.95238666" lon="-72.87689039">
    <!-- multiple: "5 Chipmunk Lane, , VT" Multiple exact matches in OSM. -->
    <tag k="addr:housenumber" v="5"/>
    <tag k="addr:street" v="Chipmunk Lane"/>
    <tag k="addr:state" v="VT"/>
    <tag k="ref:vcgi:esiteid" v="87637"/>
  </node>
  <node id="-1940" visible="true" lat="42.94779376" lon="-72.80151928">
    <!-- multiple: "52 Holland Road, , VT" Multiple exact matches in OSM. -->
    <tag k="addr:housenumber" v="52"/>
    <tag k="addr:street" v="Holland Road"/>
    <tag k="addr:state" v="VT"/>
    <tag k="ref:vcgi:esiteid" v="87742"/>
  </node>
  <node id="-1941" visible="true" lat="42.94854277" lon="-72.8013216">
    <!-- multiple: "52 Holland Road, , VT" Multiple exact matches in OSM. -->
    <tag k="addr:housenumber" v="52"/>
    <tag k="addr:street" v="Holland Road"/>
    <tag k="addr:state" v="VT"/>
    <tag k="ref:vcgi:esiteid" v="87743"/>
  </node>
  <node id="-2135" visible="true" lat="42.94755373" lon="-72.86967278">
    <!-- multiple: "231 Vermont Route 100, , VT" Multiple exact matches in OSM. -->
    <tag k="addr:housenumber" v="231"/>
    <tag k="addr:street" v="Vermont Route 100"/>
    <tag k="addr:state" v="VT"/>
    <tag k="ref:vcgi:esiteid" v="88179"/>
  </node>
  <node id="-2136" visible="true" lat="42.9474171" lon="-72.87009584">
    <!-- multiple: "231 Vermont Route 100, , VT" Multiple exact matches in OSM. -->
    <tag k="addr:housenumber" v="231"/>
    <tag k="addr:street" v="Vermont Route 100"/>
    <tag k="addr:state" v="VT"/>
    <tag k="ref:vcgi:esiteid" v="88183"/>
  </node>
  <node id="-2172" visible="true" lat="42.94250549" lon="-72.86740544">
    <!-- multiple: "31 Country Club Road, , VT" Multiple exact matches in OSM. -->
    <tag k="addr:housenumber" v="31"/>
    <tag k="addr:street" v="Country Club Road"/>
    <tag k="addr:state" v="VT"/>
    <tag k="ref:vcgi:esiteid" v="88853"/>
  </node>
  <node id="-2459" visible="true" lat="42.93501622" lon="-72.77117024">
    <!-- multiple: "29 Carroll Trail, , VT" Multiple exact matches in OSM. -->
    <tag k="addr:housenumber" v="29"/>
    <tag k="addr:street" v="Carroll Trail"/>
    <tag k="addr:state" v="VT"/>
    <tag k="ref:vcgi:esiteid" v="340737"/>
  </node>
</osm>
