<?xml version="1.0" encoding="UTF-8"?>
<osm version="0.6" generator="JOSM" upload="false">
  <node id="-119" visible="true" lat="42.9642849" lon="-72.534834">
    <!-- multiple: "20 Locust Lane, , VT" Multiple exact matches in OSM. -->
    <tag k="addr:housenumber" v="20"/>
    <tag k="addr:street" v="Locust Lane"/>
    <tag k="addr:state" v="VT"/>
    <tag k="ref:vcgi:esiteid" v="88992"/>
  </node>
  <node id="-124" visible="true" lat="42.96395157" lon="-72.53495953">
    <!-- multiple: "19 Locust Lane, , VT" Multiple exact matches in OSM. -->
    <tag k="addr:housenumber" v="19"/>
    <tag k="addr:street" v="Locust Lane"/>
    <tag k="addr:state" v="VT"/>
    <tag k="ref:vcgi:esiteid" v="88997"/>
  </node>
  <node id="-128" visible="true" lat="42.96372587" lon="-72.52710083">
    <!-- multiple: "2536 U.S. Route 5, , VT" Multiple exact matches in OSM. -->
    <tag k="addr:housenumber" v="2536"/>
    <tag k="addr:street" v="U.S. Route 5"/>
    <tag k="addr:state" v="VT"/>
    <tag k="ref:vcgi:esiteid" v="89004"/>
  </node>
  <node id="-421" visible="true" lat="42.93628892" lon="-72.57252421">
    <!-- multiple: "1523 Middle Road, , VT" Multiple exact matches in OSM. -->
    <tag k="addr:housenumber" v="1523"/>
    <tag k="addr:street" v="Middle Road"/>
    <tag k="addr:state" v="VT"/>
    <tag k="ref:vcgi:esiteid" v="89304"/>
  </node>
  <node id="-457" visible="true" lat="42.93366824" lon="-72.53791936">
    <!-- multiple: "52 School House Road, , VT" Multiple exact matches in OSM. -->
    <tag k="addr:housenumber" v="52"/>
    <tag k="addr:street" v="School House Road"/>
    <tag k="addr:state" v="VT"/>
    <tag k="ref:vcgi:esiteid" v="89341"/>
  </node>
  <node id="-880" visible="true" lat="42.89821137" lon="-72.56422696">
    <!-- multiple: "481 Kipling Road, , VT" Multiple exact matches in OSM. -->
    <tag k="addr:housenumber" v="481"/>
    <tag k="addr:street" v="Kipling Road"/>
    <tag k="addr:state" v="VT"/>
    <tag k="ref:vcgi:esiteid" v="89774"/>
  </node>
  <node id="-1111" visible="true" lat="42.90224567" lon="-72.640578">
    <!-- multiple: "671 Kelly Road, , VT" Multiple exact matches in OSM. -->
    <tag k="addr:housenumber" v="671"/>
    <tag k="addr:street" v="Kelly Road"/>
    <tag k="addr:state" v="VT"/>
    <tag k="ref:vcgi:esiteid" v="759492"/>
  </node>
  <node id="-1117" visible="true" lat="42.89777196" lon="-72.59182375">
    <!-- multiple: "487 Rice Farm Road, , VT" Multiple exact matches in OSM. -->
    <tag k="addr:housenumber" v="487"/>
    <tag k="addr:street" v="Rice Farm Road"/>
    <tag k="addr:state" v="VT"/>
    <tag k="ref:vcgi:esiteid" v="764221"/>
  </node>
</osm>
