<?xml version="1.0" encoding="UTF-8"?>
<osm version="0.6" generator="JOSM" upload="false">
  <node id="-101" visible="true" lat="44.83847791" lon="-72.76434972">
    <!-- offset: "2850 Witchcat Road, , VT" Significant offset - 147m -->
    <tag k="addr:housenumber" v="2850"/>
    <tag k="addr:street" v="Witchcat Road"/>
    <tag k="addr:state" v="VT"/>
    <tag k="ref:vcgi:esiteid" v="5798"/>
  </node>
  <node id="-102" visible="true" lat="44.92594675" lon="-72.73365634">
    <!-- offset: "246 Choquette Road, , VT" Significant offset - 164.1m -->
    <tag k="addr:housenumber" v="246"/>
    <tag k="addr:street" v="Choquette Road"/>
    <tag k="addr:state" v="VT"/>
    <tag k="ref:vcgi:esiteid" v="22577"/>
  </node>
  <node id="-1277" visible="true" lat="44.91631468" lon="-72.78219956">
    <!-- offset: "775 Sampsonville Road, , VT" Significant offset - 1142.1m -->
    <tag k="addr:housenumber" v="775"/>
    <tag k="addr:street" v="Sampsonville Road"/>
    <tag k="addr:state" v="VT"/>
    <tag k="ref:vcgi:esiteid" v="310053"/>
  </node>
  <node id="-1282" visible="true" lat="44.9223681" lon="-72.71604375">
    <!-- offset: "335 River Road, , VT" Significant offset - 3225.7m -->
    <tag k="addr:housenumber" v="335"/>
    <tag k="addr:street" v="River Road"/>
    <tag k="addr:state" v="VT"/>
    <tag k="ref:vcgi:esiteid" v="326390"/>
  </node>
  <node id="-1327" visible="true" lat="44.8388753" lon="-72.70482472">
    <!-- offset: "1408 Enosburg Mountain Road, , VT" Significant offset - 225.2m -->
    <tag k="addr:housenumber" v="1408"/>
    <tag k="addr:street" v="Enosburg Mountain Road"/>
    <tag k="addr:state" v="VT"/>
    <tag k="ref:vcgi:esiteid" v="343949"/>
  </node>
  <node id="-1422" visible="true" lat="44.9274309" lon="-72.70111426">
    <!-- offset: "20 Woodward Nbrhd Road, , VT" Significant offset - 188.7m -->
    <tag k="addr:housenumber" v="20"/>
    <tag k="addr:street" v="Woodward Nbrhd Road"/>
    <tag k="addr:state" v="VT"/>
    <tag k="ref:vcgi:esiteid" v="756007"/>
  </node>
  <node id="-1504" visible="true" lat="44.83787802" lon="-72.71833864">
    <!-- offset: "722 Enosburg Mountain Road, , VT" Significant offset - 395.2m -->
    <tag k="addr:housenumber" v="722"/>
    <tag k="addr:street" v="Enosburg Mountain Road"/>
    <tag k="addr:state" v="VT"/>
    <tag k="ref:vcgi:esiteid" v="800023"/>
  </node>
</osm>
