<?xml version="1.0" encoding="UTF-8"?>
<osm version="0.6" generator="JOSM" upload="false">
  <node id="-599" visible="true" lat="44.49671809" lon="-73.12806884">
    <!-- offset: "111 West Street, Essex Junction, VT" Significant offset - 114.7m -->
    <tag k="addr:city" v="Essex Junction"/>
    <tag k="addr:housenumber" v="111"/>
    <tag k="addr:street" v="West Street"/>
    <tag k="addr:state" v="VT"/>
    <tag k="ref:vcgi:esiteid" v="97344"/>
  </node>
  <node id="-1052" visible="true" lat="44.49369811" lon="-73.09511566">
    <!-- offset: "36 Brickyard Road, Essex Junction, VT" Significant offset - 100.8m -->
    <tag k="addr:city" v="Essex Junction"/>
    <tag k="addr:housenumber" v="36"/>
    <tag k="addr:street" v="Brickyard Road"/>
    <tag k="addr:state" v="VT"/>
    <tag k="ref:vcgi:esiteid" v="97958"/>
  </node>
  <node id="-1087" visible="true" lat="44.49347686" lon="-73.0947113">
    <!-- offset: "36 Brickyard Road, Essex Junction, VT" Significant offset - 113.2m -->
    <tag k="addr:city" v="Essex Junction"/>
    <tag k="addr:housenumber" v="36"/>
    <tag k="addr:street" v="Brickyard Road"/>
    <tag k="addr:state" v="VT"/>
    <tag k="ref:vcgi:esiteid" v="98007"/>
  </node>
  <node id="-2346" visible="true" lat="44.48645019" lon="-73.10546112">
    <!-- offset: "43 Jackson Street, Essex Junction, VT" Significant offset - 124.6m -->
    <tag k="addr:city" v="Essex Junction"/>
    <tag k="addr:housenumber" v="43"/>
    <tag k="addr:street" v="Jackson Street"/>
    <tag k="addr:state" v="VT"/>
    <tag k="ref:vcgi:esiteid" v="99727"/>
  </node>
  <node id="-2359" visible="true" lat="44.48635287" lon="-73.10894625">
    <!-- offset: "11 Jackson Street, Essex Junction, VT" Significant offset - 102m -->
    <tag k="addr:city" v="Essex Junction"/>
    <tag k="addr:housenumber" v="11"/>
    <tag k="addr:street" v="Jackson Street"/>
    <tag k="addr:state" v="VT"/>
    <tag k="ref:vcgi:esiteid" v="99752"/>
  </node>
  <node id="-3278" visible="true" lat="44.49751722" lon="-73.12047325">
    <!-- offset: "105 Pearl Street, Essex Junction, VT" Significant offset - 186.5m -->
    <tag k="addr:city" v="Essex Junction"/>
    <tag k="addr:housenumber" v="105"/>
    <tag k="addr:street" v="Pearl Street"/>
    <tag k="addr:state" v="VT"/>
    <tag k="ref:vcgi:esiteid" v="326874"/>
  </node>
  <node id="-3280" visible="true" lat="44.49719077" lon="-73.12283654">
    <!-- offset: "105 Pearl Street, Essex Junction, VT" Significant offset - 139.1m -->
    <tag k="addr:city" v="Essex Junction"/>
    <tag k="addr:housenumber" v="105"/>
    <tag k="addr:street" v="Pearl Street"/>
    <tag k="addr:state" v="VT"/>
    <tag k="ref:vcgi:esiteid" v="326876"/>
  </node>
  <node id="-3281" visible="true" lat="44.49685152" lon="-73.12308114">
    <!-- offset: "105 Pearl Street, Essex Junction, VT" Significant offset - 180.4m -->
    <tag k="addr:city" v="Essex Junction"/>
    <tag k="addr:housenumber" v="105"/>
    <tag k="addr:street" v="Pearl Street"/>
    <tag k="addr:state" v="VT"/>
    <tag k="ref:vcgi:esiteid" v="326877"/>
  </node>
  <node id="-3282" visible="true" lat="44.49644917" lon="-73.12172512">
    <!-- offset: "105 Pearl Street, Essex Junction, VT" Significant offset - 226m -->
    <tag k="addr:city" v="Essex Junction"/>
    <tag k="addr:housenumber" v="105"/>
    <tag k="addr:street" v="Pearl Street"/>
    <tag k="addr:state" v="VT"/>
    <tag k="ref:vcgi:esiteid" v="326878"/>
  </node>
  <node id="-3283" visible="true" lat="44.49633578" lon="-73.12287098">
    <!-- offset: "105 Pearl Street, Essex Junction, VT" Significant offset - 233.2m -->
    <tag k="addr:city" v="Essex Junction"/>
    <tag k="addr:housenumber" v="105"/>
    <tag k="addr:street" v="Pearl Street"/>
    <tag k="addr:state" v="VT"/>
    <tag k="ref:vcgi:esiteid" v="326879"/>
  </node>
  <node id="-3284" visible="true" lat="44.49618092" lon="-73.12155218">
    <!-- offset: "105 Pearl Street, Essex Junction, VT" Significant offset - 258.4m -->
    <tag k="addr:city" v="Essex Junction"/>
    <tag k="addr:housenumber" v="105"/>
    <tag k="addr:street" v="Pearl Street"/>
    <tag k="addr:state" v="VT"/>
    <tag k="ref:vcgi:esiteid" v="326880"/>
  </node>
  <node id="-3285" visible="true" lat="44.49620417" lon="-73.12199576">
    <!-- offset: "105 Pearl Street, Essex Junction, VT" Significant offset - 248.3m -->
    <tag k="addr:city" v="Essex Junction"/>
    <tag k="addr:housenumber" v="105"/>
    <tag k="addr:street" v="Pearl Street"/>
    <tag k="addr:state" v="VT"/>
    <tag k="ref:vcgi:esiteid" v="326881"/>
  </node>
  <node id="-3469" visible="true" lat="44.47861429" lon="-73.10052502">
    <!-- offset: "1000 River Street, Essex Junction, VT" Significant offset - 352m -->
    <tag k="addr:city" v="Essex Junction"/>
    <tag k="addr:housenumber" v="1000"/>
    <tag k="addr:street" v="River Street"/>
    <tag k="addr:state" v="VT"/>
    <tag k="ref:vcgi:esiteid" v="755097"/>
  </node>
</osm>
