<?xml version="1.0" encoding="UTF-8"?>
<osm version="0.6" generator="JOSM" upload="false">
  <node id="-124" visible="true" lat="44.76203904" lon="-73.03558248">
    <!-- multiple: "91 Rugg Road, , VT" Multiple exact matches in OSM. -->
    <tag k="addr:housenumber" v="91"/>
    <tag k="addr:street" v="Rugg Road"/>
    <tag k="addr:state" v="VT"/>
    <tag k="ref:vcgi:esiteid" v="102735"/>
  </node>
  <node id="-481" visible="true" lat="44.73661018" lon="-72.99873309">
    <!-- multiple: "970 Buck Hollow Road, , VT" Multiple exact matches in OSM. -->
    <tag k="addr:housenumber" v="970"/>
    <tag k="addr:street" v="Buck Hollow Road"/>
    <tag k="addr:state" v="VT"/>
    <tag k="ref:vcgi:esiteid" v="103094"/>
  </node>
  <node id="-482" visible="true" lat="44.73624505" lon="-72.99816307">
    <!-- multiple: "970 Buck Hollow Road, , VT" Multiple exact matches in OSM. -->
    <tag k="addr:housenumber" v="970"/>
    <tag k="addr:street" v="Buck Hollow Road"/>
    <tag k="addr:state" v="VT"/>
    <tag k="ref:vcgi:esiteid" v="103095"/>
  </node>
  <node id="-824" visible="true" lat="44.66483468" lon="-73.01050962">
    <!-- multiple: "16 School Street, , VT" Multiple exact matches in OSM. -->
    <tag k="addr:housenumber" v="16"/>
    <tag k="addr:street" v="School Street"/>
    <tag k="addr:state" v="VT"/>
    <tag k="ref:vcgi:esiteid" v="103446"/>
  </node>
  <node id="-879" visible="true" lat="44.65676917" lon="-73.00847732">
    <!-- multiple: "997 Main Street, , VT" Multiple exact matches in OSM. -->
    <tag k="addr:housenumber" v="997"/>
    <tag k="addr:street" v="Main Street"/>
    <tag k="addr:state" v="VT"/>
    <tag k="ref:vcgi:esiteid" v="103502"/>
  </node>
  <node id="-970" visible="true" lat="44.65263007" lon="-72.97443275">
    <!-- multiple: "191 Goose Pond Road, , VT" Multiple exact matches in OSM. -->
    <tag k="addr:housenumber" v="191"/>
    <tag k="addr:street" v="Goose Pond Road"/>
    <tag k="addr:state" v="VT"/>
    <tag k="ref:vcgi:esiteid" v="103595"/>
  </node>
  <node id="-1006" visible="true" lat="44.65329464" lon="-73.00045742">
    <!-- multiple: "874 Main Street, , VT" Multiple exact matches in OSM. -->
    <tag k="addr:housenumber" v="874"/>
    <tag k="addr:street" v="Main Street"/>
    <tag k="addr:state" v="VT"/>
    <tag k="ref:vcgi:esiteid" v="103631"/>
  </node>
  <node id="-1021" visible="true" lat="44.65345911" lon="-73.00592678">
    <!-- multiple: "930 Main Street, , VT" Multiple exact matches in OSM. -->
    <tag k="addr:housenumber" v="930"/>
    <tag k="addr:street" v="Main Street"/>
    <tag k="addr:state" v="VT"/>
    <tag k="ref:vcgi:esiteid" v="103646"/>
  </node>
  <node id="-1025" visible="true" lat="44.65312921" lon="-73.00557966">
    <!-- multiple: "930 Main Street, , VT" Multiple exact matches in OSM. -->
    <tag k="addr:housenumber" v="930"/>
    <tag k="addr:street" v="Main Street"/>
    <tag k="addr:state" v="VT"/>
    <tag k="ref:vcgi:esiteid" v="103650"/>
  </node>
  <node id="-1308" visible="true" lat="44.66354811" lon="-73.01334789">
    <!-- multiple: "75 Hunt Street, , VT" Multiple exact matches in OSM. -->
    <tag k="addr:housenumber" v="75"/>
    <tag k="addr:street" v="Hunt Street"/>
    <tag k="addr:state" v="VT"/>
    <tag k="ref:vcgi:esiteid" v="103939"/>
  </node>
  <node id="-1311" visible="true" lat="44.66216614" lon="-73.01351051">
    <!-- multiple: "8 Mountain View Street, , VT" Multiple exact matches in OSM. -->
    <tag k="addr:housenumber" v="8"/>
    <tag k="addr:street" v="Mountain View Street"/>
    <tag k="addr:state" v="VT"/>
    <tag k="ref:vcgi:esiteid" v="103942"/>
  </node>
  <node id="-1452" visible="true" lat="44.66216619" lon="-73.01476892">
    <!-- multiple: "8 Mountain View Street, , VT" Multiple exact matches in OSM. -->
    <tag k="addr:housenumber" v="8"/>
    <tag k="addr:street" v="Mountain View Street"/>
    <tag k="addr:state" v="VT"/>
    <tag k="ref:vcgi:esiteid" v="104089"/>
  </node>
  <node id="-1534" visible="true" lat="44.75916427" lon="-73.03439817">
    <!-- multiple: "53 Rugg Road, , VT" Multiple exact matches in OSM. -->
    <tag k="addr:housenumber" v="53"/>
    <tag k="addr:street" v="Rugg Road"/>
    <tag k="addr:state" v="VT"/>
    <tag k="ref:vcgi:esiteid" v="104190"/>
  </node>
  <node id="-1640" visible="true" lat="44.72761385" lon="-73.04449462">
    <!-- multiple: "2117 Main Street, , VT" Multiple exact matches in OSM. -->
    <tag k="addr:housenumber" v="2117"/>
    <tag k="addr:street" v="Main Street"/>
    <tag k="addr:state" v="VT"/>
    <tag k="ref:vcgi:esiteid" v="104306"/>
  </node>
  <node id="-1892" visible="true" lat="44.65424297" lon="-72.99882924">
    <!-- multiple: "16 East Road, , VT" Multiple exact matches in OSM. -->
    <tag k="addr:housenumber" v="16"/>
    <tag k="addr:street" v="East Road"/>
    <tag k="addr:state" v="VT"/>
    <tag k="ref:vcgi:esiteid" v="330961"/>
  </node>
  <node id="-1939" visible="true" lat="44.68221137" lon="-73.03809762">
    <!-- multiple: "117 Highbridge Road, , VT" Multiple exact matches in OSM. -->
    <tag k="addr:housenumber" v="117"/>
    <tag k="addr:street" v="Highbridge Road"/>
    <tag k="addr:state" v="VT"/>
    <tag k="ref:vcgi:esiteid" v="338186"/>
  </node>
  <node id="-2045" visible="true" lat="44.76719072" lon="-73.08263523">
    <!-- multiple: "2962 Main Street, , VT" Multiple exact matches in OSM. -->
    <tag k="addr:housenumber" v="2962"/>
    <tag k="addr:street" v="Main Street"/>
    <tag k="addr:state" v="VT"/>
    <tag k="ref:vcgi:esiteid" v="450516"/>
  </node>
  <node id="-2321" visible="true" lat="44.76166902" lon="-73.08035065">
    <!-- multiple: "3731 Oakland Station Road, , VT" Multiple exact matches in OSM. -->
    <tag k="addr:housenumber" v="3731"/>
    <tag k="addr:street" v="Oakland Station Road"/>
    <tag k="addr:state" v="VT"/>
    <tag k="ref:vcgi:esiteid" v="769547"/>
  </node>
</osm>
