<?xml version="1.0" encoding="UTF-8"?>
<osm version="0.6" generator="JOSM" upload="false">
  <node id="-101" visible="true" lat="44.21854869" lon="-73.18696597">
    <!-- offset: "268 Nuthatch Lane, , VT" Significant offset - 168.1m -->
    <tag k="addr:housenumber" v="268"/>
    <tag k="addr:street" v="Nuthatch Lane"/>
    <tag k="addr:state" v="VT"/>
    <tag k="ref:vcgi:esiteid" v="319"/>
  </node>
  <node id="-1365" visible="true" lat="44.1641363" lon="-73.35878582">
    <!-- offset: "836 Spencer Farm Road, , VT" Significant offset - 7838.7m -->
    <tag k="addr:housenumber" v="836"/>
    <tag k="addr:street" v="Spencer Farm Road"/>
    <tag k="addr:state" v="VT"/>
    <tag k="ref:vcgi:esiteid" v="108145"/>
  </node>
  <node id="-1443" visible="true" lat="44.21043979" lon="-73.26458549">
    <!-- offset: "655 Hawkins Road, , VT" Significant offset - 109m -->
    <tag k="addr:housenumber" v="655"/>
    <tag k="addr:street" v="Hawkins Road"/>
    <tag k="addr:state" v="VT"/>
    <tag k="ref:vcgi:esiteid" v="108226"/>
  </node>
  <node id="-1539" visible="true" lat="44.20995266" lon="-73.26448688">
    <!-- offset: "571 Hawkins Road, , VT" Significant offset - 109.4m -->
    <tag k="addr:housenumber" v="571"/>
    <tag k="addr:street" v="Hawkins Road"/>
    <tag k="addr:state" v="VT"/>
    <tag k="ref:vcgi:esiteid" v="108327"/>
  </node>
  <node id="-1581" visible="true" lat="44.15602531" lon="-73.18514439">
    <!-- offset: "630 Leduc Road, , VT" Significant offset - 118.2m -->
    <tag k="addr:housenumber" v="630"/>
    <tag k="addr:street" v="Leduc Road"/>
    <tag k="addr:state" v="VT"/>
    <tag k="ref:vcgi:esiteid" v="108369"/>
  </node>
  <node id="-1767" visible="true" lat="44.16201798" lon="-73.22656549">
    <!-- offset: "442 Plank Road, , VT" Significant offset - 107.9m -->
    <tag k="addr:housenumber" v="442"/>
    <tag k="addr:street" v="Plank Road"/>
    <tag k="addr:state" v="VT"/>
    <tag k="ref:vcgi:esiteid" v="452667"/>
  </node>
  <node id="-1783" visible="true" lat="44.17187352" lon="-73.23991182">
    <!-- offset: "115 Monkton Road, , VT" Significant offset - 263.5m -->
    <tag k="addr:housenumber" v="115"/>
    <tag k="addr:street" v="Monkton Road"/>
    <tag k="addr:state" v="VT"/>
    <tag k="ref:vcgi:esiteid" v="454787"/>
  </node>
  <node id="-1854" visible="true" lat="44.21779218" lon="-73.29089362">
    <!-- offset: "4628 Sand Road, , VT" Significant offset - 1008.1m -->
    <tag k="addr:housenumber" v="4628"/>
    <tag k="addr:street" v="Sand Road"/>
    <tag k="addr:state" v="VT"/>
    <tag k="ref:vcgi:esiteid" v="761001"/>
  </node>
  <node id="-1856" visible="true" lat="44.23047787" lon="-73.24893262">
    <!-- offset: "292 Westin Road, , VT" Significant offset - 141.4m -->
    <tag k="addr:housenumber" v="292"/>
    <tag k="addr:street" v="Westin Road"/>
    <tag k="addr:state" v="VT"/>
    <tag k="ref:vcgi:esiteid" v="761209"/>
  </node>
</osm>
