<?xml version="1.0" encoding="UTF-8"?>
<osm version="0.6" generator="JOSM" upload="false">
  <node id="-615" visible="true" lat="44.66651081" lon="-72.23252478">
    <!-- offset: "2018 Shadow Lake Road, , VT" Significant offset - 5960.7m -->
    <tag k="addr:housenumber" v="2018"/>
    <tag k="addr:street" v="Shadow Lake Road"/>
    <tag k="addr:state" v="VT"/>
    <tag k="ref:vcgi:esiteid" v="112236"/>
  </node>
  <node id="-674" visible="true" lat="44.66343917" lon="-72.22315651">
    <!-- offset: "1501 Shadow Lake Road, , VT" Significant offset - 7423.6m -->
    <tag k="addr:housenumber" v="1501"/>
    <tag k="addr:street" v="Shadow Lake Road"/>
    <tag k="addr:state" v="VT"/>
    <tag k="ref:vcgi:esiteid" v="112297"/>
  </node>
  <node id="-734" visible="true" lat="44.63667406" lon="-72.2090841">
    <!-- offset: "3877 Dry Pond Road, , VT" Significant offset - 113.2m -->
    <tag k="addr:housenumber" v="3877"/>
    <tag k="addr:street" v="Dry Pond Road"/>
    <tag k="addr:state" v="VT"/>
    <tag k="ref:vcgi:esiteid" v="112357"/>
  </node>
  <node id="-903" visible="true" lat="44.70180951" lon="-72.28754925">
    <!-- offset: "410 Andersonville Road, , VT" Significant offset - 466.5m -->
    <tag k="addr:housenumber" v="410"/>
    <tag k="addr:street" v="Andersonville Road"/>
    <tag k="addr:state" v="VT"/>
    <tag k="ref:vcgi:esiteid" v="448953"/>
  </node>
  <node id="-904" visible="true" lat="44.70144531" lon="-72.2875676">
    <!-- offset: "408 Andersonville Road, , VT" Significant offset - 447.5m -->
    <tag k="addr:housenumber" v="408"/>
    <tag k="addr:street" v="Andersonville Road"/>
    <tag k="addr:state" v="VT"/>
    <tag k="ref:vcgi:esiteid" v="448954"/>
  </node>
</osm>
