<?xml version="1.0" encoding="UTF-8"?>
<osm version="0.6" generator="JOSM" upload="false">
  <node id="-1821" visible="true" lat="44.27829505" lon="-73.13471033">
    <!-- offset: "3120 Baldwin Road, Hinesburg, VT" Significant offset - 109.3m -->
    <tag k="addr:city" v="Hinesburg"/>
    <tag k="addr:housenumber" v="3120"/>
    <tag k="addr:street" v="Baldwin Road"/>
    <tag k="addr:state" v="VT"/>
    <tag k="ref:vcgi:esiteid" v="307350"/>
  </node>
  <node id="-1822" visible="true" lat="44.27813681" lon="-73.133324">
    <!-- offset: "3122 Baldwin Road, Hinesburg, VT" Significant offset - 117.2m -->
    <tag k="addr:city" v="Hinesburg"/>
    <tag k="addr:housenumber" v="3122"/>
    <tag k="addr:street" v="Baldwin Road"/>
    <tag k="addr:state" v="VT"/>
    <tag k="ref:vcgi:esiteid" v="307351"/>
  </node>
  <node id="-1859" visible="true" lat="44.32359805" lon="-73.08893915">
    <!-- offset: "139 Goodrich Lane, Hinesburg, VT" Significant offset - 132.6m -->
    <tag k="addr:city" v="Hinesburg"/>
    <tag k="addr:housenumber" v="139"/>
    <tag k="addr:street" v="Goodrich Lane"/>
    <tag k="addr:state" v="VT"/>
    <tag k="ref:vcgi:esiteid" v="328145"/>
  </node>
  <node id="-2056" visible="true" lat="44.34306372" lon="-73.15222331">
    <!-- offset: "69 Wolf Tree Lane, Hinesburg, VT" Significant offset - 114.2m -->
    <tag k="addr:city" v="Hinesburg"/>
    <tag k="addr:housenumber" v="69"/>
    <tag k="addr:street" v="Wolf Tree Lane"/>
    <tag k="addr:state" v="VT"/>
    <tag k="ref:vcgi:esiteid" v="655896"/>
  </node>
</osm>
