<?xml version="1.0" encoding="UTF-8"?>
<osm version="0.6" generator="JOSM" upload="false">
  <node id="-281" visible="true" lat="44.80810547" lon="-72.26927948">
    <!-- multiple: "182 Covered Bridge Road, , VT" Multiple exact matches in OSM. -->
    <tag k="addr:housenumber" v="182"/>
    <tag k="addr:street" v="Covered Bridge Road"/>
    <tag k="addr:state" v="VT"/>
    <tag k="ref:vcgi:esiteid" v="133628"/>
  </node>
  <node id="-356" visible="true" lat="44.80208572" lon="-72.27845004">
    <!-- multiple: "94 Park Avenue, , VT" Multiple exact matches in OSM. -->
    <tag k="addr:housenumber" v="94"/>
    <tag k="addr:street" v="Park Avenue"/>
    <tag k="addr:state" v="VT"/>
    <tag k="ref:vcgi:esiteid" v="133704"/>
  </node>
  <node id="-693" visible="true" lat="44.84921529" lon="-72.23983662">
    <!-- multiple: "1185 Airport Road, , VT" Multiple exact matches in OSM. -->
    <tag k="addr:housenumber" v="1185"/>
    <tag k="addr:street" v="Airport Road"/>
    <tag k="addr:state" v="VT"/>
    <tag k="ref:vcgi:esiteid" v="341115"/>
  </node>
  <node id="-712" visible="true" lat="44.79277409" lon="-72.22419691">
    <!-- multiple: "978 Lake Region Road, , VT" Multiple exact matches in OSM. -->
    <tag k="addr:housenumber" v="978"/>
    <tag k="addr:street" v="Lake Region Road"/>
    <tag k="addr:state" v="VT"/>
    <tag k="ref:vcgi:esiteid" v="452384"/>
  </node>
  <node id="-713" visible="true" lat="44.79250918" lon="-72.2241477">
    <!-- multiple: "948 Lake Region Road, , VT" Multiple exact matches in OSM. -->
    <tag k="addr:housenumber" v="948"/>
    <tag k="addr:street" v="Lake Region Road"/>
    <tag k="addr:state" v="VT"/>
    <tag k="ref:vcgi:esiteid" v="452385"/>
  </node>
</osm>
