<?xml version="1.0" encoding="UTF-8"?>
<osm version="0.6" generator="JOSM" upload="false">
  <node id="-125" visible="true" lat="44.5111684" lon="-72.96125268">
    <!-- multiple: "253 Vermont Route 15, Jericho, VT" Multiple exact matches in OSM. -->
    <tag k="addr:city" v="Jericho"/>
    <tag k="addr:housenumber" v="253"/>
    <tag k="addr:street" v="Vermont Route 15"/>
    <tag k="addr:state" v="VT"/>
    <tag k="ref:vcgi:esiteid" v="135906"/>
  </node>
  <node id="-177" visible="true" lat="44.51230297" lon="-72.95655736">
    <!-- multiple: "279 Vermont Route 15, Jericho, VT" Multiple exact matches in OSM. -->
    <tag k="addr:city" v="Jericho"/>
    <tag k="addr:housenumber" v="279"/>
    <tag k="addr:street" v="Vermont Route 15"/>
    <tag k="addr:state" v="VT"/>
    <tag k="ref:vcgi:esiteid" v="135958"/>
  </node>
  <node id="-293" visible="true" lat="44.52277546" lon="-72.94659538">
    <!-- multiple: "379 Vermont Route 15, Jericho, VT" Multiple exact matches in OSM. -->
    <tag k="addr:city" v="Jericho"/>
    <tag k="addr:housenumber" v="379"/>
    <tag k="addr:street" v="Vermont Route 15"/>
    <tag k="addr:state" v="VT"/>
    <tag k="ref:vcgi:esiteid" v="136074"/>
  </node>
  <node id="-481" visible="true" lat="44.51138216" lon="-72.96794488">
    <!-- multiple: "22 Raceway Road, Jericho, VT" Multiple exact matches in OSM. -->
    <tag k="addr:city" v="Jericho"/>
    <tag k="addr:housenumber" v="22"/>
    <tag k="addr:street" v="Raceway Road"/>
    <tag k="addr:state" v="VT"/>
    <tag k="ref:vcgi:esiteid" v="136263"/>
  </node>
  <node id="-485" visible="true" lat="44.51090534" lon="-72.96237144">
    <!-- multiple: "249 Vermont Route 15, Jericho, VT" Multiple exact matches in OSM. -->
    <tag k="addr:city" v="Jericho"/>
    <tag k="addr:housenumber" v="249"/>
    <tag k="addr:street" v="Vermont Route 15"/>
    <tag k="addr:state" v="VT"/>
    <tag k="ref:vcgi:esiteid" v="136267"/>
  </node>
  <node id="-493" visible="true" lat="44.52311627" lon="-72.94582916">
    <!-- multiple: "382 Vermont Route 15, Jericho, VT" Multiple exact matches in OSM. -->
    <tag k="addr:city" v="Jericho"/>
    <tag k="addr:housenumber" v="382"/>
    <tag k="addr:street" v="Vermont Route 15"/>
    <tag k="addr:state" v="VT"/>
    <tag k="ref:vcgi:esiteid" v="136275"/>
  </node>
  <node id="-734" visible="true" lat="44.46995729" lon="-72.97322416">
    <!-- multiple: "25 Jericho Center Circle, Jericho, VT" Multiple exact matches in OSM. -->
    <tag k="addr:city" v="Jericho"/>
    <tag k="addr:housenumber" v="25"/>
    <tag k="addr:street" v="Jericho Center Circle"/>
    <tag k="addr:state" v="VT"/>
    <tag k="ref:vcgi:esiteid" v="136518"/>
  </node>
  <node id="-1362" visible="true" lat="44.5031355" lon="-73.00080604">
    <!-- multiple: "30 Vermont Route 15, Jericho, VT" Multiple exact matches in OSM. -->
    <tag k="addr:city" v="Jericho"/>
    <tag k="addr:housenumber" v="30"/>
    <tag k="addr:street" v="Vermont Route 15"/>
    <tag k="addr:state" v="VT"/>
    <tag k="ref:vcgi:esiteid" v="137150"/>
  </node>
  <node id="-1398" visible="true" lat="44.50400189" lon="-72.99905939">
    <!-- multiple: "42 Vermont Route 15, Jericho, VT" Multiple exact matches in OSM. -->
    <tag k="addr:city" v="Jericho"/>
    <tag k="addr:housenumber" v="42"/>
    <tag k="addr:street" v="Vermont Route 15"/>
    <tag k="addr:state" v="VT"/>
    <tag k="ref:vcgi:esiteid" v="137187"/>
  </node>
  <node id="-1476" visible="true" lat="44.50473295" lon="-72.99949076">
    <!-- multiple: "30 Red Mill Drive, Jericho, VT" Multiple exact matches in OSM. -->
    <tag k="addr:city" v="Jericho"/>
    <tag k="addr:housenumber" v="30"/>
    <tag k="addr:street" v="Red Mill Drive"/>
    <tag k="addr:state" v="VT"/>
    <tag k="ref:vcgi:esiteid" v="137266"/>
  </node>
  <node id="-1491" visible="true" lat="44.50461296" lon="-72.99773084">
    <!-- multiple: "51 Vermont Route 15, Jericho, VT" Multiple exact matches in OSM. -->
    <tag k="addr:city" v="Jericho"/>
    <tag k="addr:housenumber" v="51"/>
    <tag k="addr:street" v="Vermont Route 15"/>
    <tag k="addr:state" v="VT"/>
    <tag k="ref:vcgi:esiteid" v="137282"/>
  </node>
  <node id="-1495" visible="true" lat="44.50532924" lon="-72.99572109">
    <!-- multiple: "64 Vermont Route 15, Jericho, VT" Multiple exact matches in OSM. -->
    <tag k="addr:city" v="Jericho"/>
    <tag k="addr:housenumber" v="64"/>
    <tag k="addr:street" v="Vermont Route 15"/>
    <tag k="addr:state" v="VT"/>
    <tag k="ref:vcgi:esiteid" v="137286"/>
  </node>
  <node id="-1505" visible="true" lat="44.50665602" lon="-72.99240081">
    <!-- multiple: "19 Old Pump Road, Jericho, VT" Multiple exact matches in OSM. -->
    <tag k="addr:city" v="Jericho"/>
    <tag k="addr:housenumber" v="19"/>
    <tag k="addr:street" v="Old Pump Road"/>
    <tag k="addr:state" v="VT"/>
    <tag k="ref:vcgi:esiteid" v="137296"/>
  </node>
  <node id="-1534" visible="true" lat="44.50605592" lon="-72.98998864">
    <!-- multiple: "90 Vermont Route 15, Jericho, VT" Multiple exact matches in OSM. -->
    <tag k="addr:city" v="Jericho"/>
    <tag k="addr:housenumber" v="90"/>
    <tag k="addr:street" v="Vermont Route 15"/>
    <tag k="addr:state" v="VT"/>
    <tag k="ref:vcgi:esiteid" v="137325"/>
  </node>
  <node id="-1612" visible="true" lat="44.4644574" lon="-72.9781578">
    <!-- multiple: "22 Barber Farm Road, Jericho, VT" Multiple exact matches in OSM. -->
    <tag k="addr:city" v="Jericho"/>
    <tag k="addr:housenumber" v="22"/>
    <tag k="addr:street" v="Barber Farm Road"/>
    <tag k="addr:state" v="VT"/>
    <tag k="ref:vcgi:esiteid" v="137406"/>
  </node>
</osm>
