<?xml version="1.0" encoding="UTF-8"?>
<osm version="0.6" generator="JOSM" upload="false">
  <node id="-442" visible="true" lat="43.41576529" lon="-72.67132431">
    <!-- offset: "1007 Bixby Road, Ludlow, VT" Significant offset - 181.7m -->
    <tag k="addr:city" v="Ludlow"/>
    <tag k="addr:housenumber" v="1007"/>
    <tag k="addr:street" v="Bixby Road"/>
    <tag k="addr:state" v="VT"/>
    <tag k="ref:vcgi:esiteid" v="142924"/>
  </node>
  <node id="-625" visible="true" lat="43.40097044" lon="-72.70616141">
    <!-- offset: "57 Pond Street, Ludlow, VT" Significant offset - 125.8m -->
    <tag k="addr:city" v="Ludlow"/>
    <tag k="addr:housenumber" v="57"/>
    <tag k="addr:street" v="Pond Street"/>
    <tag k="addr:state" v="VT"/>
    <tag k="ref:vcgi:esiteid" v="143113"/>
  </node>
  <node id="-1038" visible="true" lat="43.38876804" lon="-72.66282689">
    <!-- offset: "611 Vermont Route 103 South, Ludlow, VT" Significant offset - 110.3m -->
    <tag k="addr:city" v="Ludlow"/>
    <tag k="addr:housenumber" v="611"/>
    <tag k="addr:street" v="Vermont Route 103 South"/>
    <tag k="addr:state" v="VT"/>
    <tag k="ref:vcgi:esiteid" v="143548"/>
  </node>
  <node id="-1079" visible="true" lat="43.39492465" lon="-72.68419988">
    <!-- offset: "32 Vermont Route 103 South, Ludlow, VT" Significant offset - 126.8m -->
    <tag k="addr:city" v="Ludlow"/>
    <tag k="addr:housenumber" v="32"/>
    <tag k="addr:street" v="Vermont Route 103 South"/>
    <tag k="addr:state" v="VT"/>
    <tag k="ref:vcgi:esiteid" v="143595"/>
  </node>
  <node id="-1080" visible="true" lat="43.39466735" lon="-72.68425397">
    <!-- offset: "32 Vermont Route 103 South, Ludlow, VT" Significant offset - 114.6m -->
    <tag k="addr:city" v="Ludlow"/>
    <tag k="addr:housenumber" v="32"/>
    <tag k="addr:street" v="Vermont Route 103 South"/>
    <tag k="addr:state" v="VT"/>
    <tag k="ref:vcgi:esiteid" v="143596"/>
  </node>
  <node id="-2726" visible="true" lat="43.42425447" lon="-72.66429029">
    <!-- offset: "300 Barker Road, Ludlow, VT" Significant offset - 203.1m -->
    <tag k="addr:city" v="Ludlow"/>
    <tag k="addr:housenumber" v="300"/>
    <tag k="addr:street" v="Barker Road"/>
    <tag k="addr:state" v="VT"/>
    <tag k="ref:vcgi:esiteid" v="618320"/>
  </node>
</osm>
