<?xml version="1.0" encoding="UTF-8"?>
<osm version="0.6" generator="JOSM" upload="false">
  <node id="-272" visible="true" lat="44.68602499" lon="-73.15932501">
    <!-- multiple: "350 Murray Avenue, Milton, VT" Multiple exact matches in OSM. -->
    <tag k="addr:city" v="Milton"/>
    <tag k="addr:housenumber" v="350"/>
    <tag k="addr:street" v="Murray Avenue"/>
    <tag k="addr:state" v="VT"/>
    <tag k="ref:vcgi:esiteid" v="158397"/>
  </node>
  <node id="-465" visible="true" lat="44.66513788" lon="-73.16035866">
    <!-- multiple: "524 Lake Road, Milton, VT" Multiple exact matches in OSM. -->
    <tag k="addr:city" v="Milton"/>
    <tag k="addr:housenumber" v="524"/>
    <tag k="addr:street" v="Lake Road"/>
    <tag k="addr:state" v="VT"/>
    <tag k="ref:vcgi:esiteid" v="158590"/>
  </node>
  <node id="-697" visible="true" lat="44.6592227" lon="-73.14475427">
    <!-- multiple: "7 Sanderson Road, Milton, VT" Multiple exact matches in OSM. -->
    <tag k="addr:city" v="Milton"/>
    <tag k="addr:housenumber" v="7"/>
    <tag k="addr:street" v="Sanderson Road"/>
    <tag k="addr:state" v="VT"/>
    <tag k="ref:vcgi:esiteid" v="158822"/>
  </node>
  <node id="-698" visible="true" lat="44.65890984" lon="-73.14551143">
    <!-- multiple: "7 Sanderson Road, Milton, VT" Multiple exact matches in OSM. -->
    <tag k="addr:city" v="Milton"/>
    <tag k="addr:housenumber" v="7"/>
    <tag k="addr:street" v="Sanderson Road"/>
    <tag k="addr:state" v="VT"/>
    <tag k="ref:vcgi:esiteid" v="158823"/>
  </node>
  <node id="-818" visible="true" lat="44.64498374" lon="-73.13323799">
    <!-- multiple: "215 Poor Farm Road, Milton, VT" Multiple exact matches in OSM. -->
    <tag k="addr:city" v="Milton"/>
    <tag k="addr:housenumber" v="215"/>
    <tag k="addr:street" v="Poor Farm Road"/>
    <tag k="addr:state" v="VT"/>
    <tag k="ref:vcgi:esiteid" v="158947"/>
  </node>
  <node id="-821" visible="true" lat="44.64508578" lon="-73.13441578">
    <!-- multiple: "215 Poor Farm Road, Milton, VT" Multiple exact matches in OSM. -->
    <tag k="addr:city" v="Milton"/>
    <tag k="addr:housenumber" v="215"/>
    <tag k="addr:street" v="Poor Farm Road"/>
    <tag k="addr:state" v="VT"/>
    <tag k="ref:vcgi:esiteid" v="158950"/>
  </node>
  <node id="-901" visible="true" lat="44.64019927" lon="-73.11327929">
    <!-- multiple: "2 River Street, Milton, VT" Multiple exact matches in OSM. -->
    <tag k="addr:city" v="Milton"/>
    <tag k="addr:housenumber" v="2"/>
    <tag k="addr:street" v="River Street"/>
    <tag k="addr:state" v="VT"/>
    <tag k="ref:vcgi:esiteid" v="159033"/>
  </node>
  <node id="-1105" visible="true" lat="44.63206853" lon="-73.17035872">
    <!-- multiple: "308 West Milton Road, Milton, VT" Multiple exact matches in OSM. -->
    <tag k="addr:city" v="Milton"/>
    <tag k="addr:housenumber" v="308"/>
    <tag k="addr:street" v="West Milton Road"/>
    <tag k="addr:state" v="VT"/>
    <tag k="ref:vcgi:esiteid" v="159238"/>
  </node>
  <node id="-1316" visible="true" lat="44.63240242" lon="-73.11547094">
    <!-- multiple: "105 River Street, Milton, VT" Multiple exact matches in OSM. -->
    <tag k="addr:city" v="Milton"/>
    <tag k="addr:housenumber" v="105"/>
    <tag k="addr:street" v="River Street"/>
    <tag k="addr:state" v="VT"/>
    <tag k="ref:vcgi:esiteid" v="159453"/>
  </node>
  <node id="-1366" visible="true" lat="44.63130858" lon="-73.11975672">
    <!-- multiple: "37 Lamoille Terrace, Milton, VT" Multiple exact matches in OSM. -->
    <tag k="addr:city" v="Milton"/>
    <tag k="addr:housenumber" v="37"/>
    <tag k="addr:street" v="Lamoille Terrace"/>
    <tag k="addr:state" v="VT"/>
    <tag k="ref:vcgi:esiteid" v="159503"/>
  </node>
  <node id="-1712" visible="true" lat="44.62423382" lon="-73.13126798">
    <!-- multiple: "13 Landfill Road, Milton, VT" Multiple exact matches in OSM. -->
    <tag k="addr:city" v="Milton"/>
    <tag k="addr:housenumber" v="13"/>
    <tag k="addr:street" v="Landfill Road"/>
    <tag k="addr:state" v="VT"/>
    <tag k="ref:vcgi:esiteid" v="159858"/>
  </node>
  <node id="-1773" visible="true" lat="44.62329308" lon="-73.1234202">
    <!-- multiple: "11 Haydenberry Drive, Milton, VT" Multiple exact matches in OSM. -->
    <tag k="addr:city" v="Milton"/>
    <tag k="addr:housenumber" v="11"/>
    <tag k="addr:street" v="Haydenberry Drive"/>
    <tag k="addr:state" v="VT"/>
    <tag k="ref:vcgi:esiteid" v="159922"/>
  </node>
  <node id="-1835" visible="true" lat="44.62226579" lon="-73.1212528">
    <!-- multiple: "250 U.S. Route 7 South, Milton, VT" Multiple exact matches in OSM. -->
    <tag k="addr:city" v="Milton"/>
    <tag k="addr:housenumber" v="250"/>
    <tag k="addr:street" v="U.S. Route 7 South"/>
    <tag k="addr:state" v="VT"/>
    <tag k="ref:vcgi:esiteid" v="159988"/>
  </node>
  <node id="-1915" visible="true" lat="44.61885301" lon="-73.1204243">
    <!-- multiple: "69 Middle Road, Milton, VT" Multiple exact matches in OSM. -->
    <tag k="addr:city" v="Milton"/>
    <tag k="addr:housenumber" v="69"/>
    <tag k="addr:street" v="Middle Road"/>
    <tag k="addr:state" v="VT"/>
    <tag k="ref:vcgi:esiteid" v="160075"/>
  </node>
  <node id="-1919" visible="true" lat="44.61904517" lon="-73.12396281">
    <!-- multiple: "43 Bombardier Road, Milton, VT" Multiple exact matches in OSM. -->
    <tag k="addr:city" v="Milton"/>
    <tag k="addr:housenumber" v="43"/>
    <tag k="addr:street" v="Bombardier Road"/>
    <tag k="addr:state" v="VT"/>
    <tag k="ref:vcgi:esiteid" v="160079"/>
  </node>
  <node id="-2193" visible="true" lat="44.60993752" lon="-73.15932837">
    <!-- multiple: "37 Precast Road, Milton, VT" Multiple exact matches in OSM. -->
    <tag k="addr:city" v="Milton"/>
    <tag k="addr:housenumber" v="37"/>
    <tag k="addr:street" v="Precast Road"/>
    <tag k="addr:state" v="VT"/>
    <tag k="ref:vcgi:esiteid" v="160359"/>
  </node>
  <node id="-2436" visible="true" lat="44.6059094" lon="-73.21159876">
    <!-- multiple: "117 Gravelle Road, Milton, VT" Multiple exact matches in OSM. -->
    <tag k="addr:city" v="Milton"/>
    <tag k="addr:housenumber" v="117"/>
    <tag k="addr:street" v="Gravelle Road"/>
    <tag k="addr:state" v="VT"/>
    <tag k="ref:vcgi:esiteid" v="160605"/>
  </node>
  <node id="-2500" visible="true" lat="44.60539859" lon="-73.12462386">
    <!-- multiple: "262 Middle Road, Milton, VT" Multiple exact matches in OSM. -->
    <tag k="addr:city" v="Milton"/>
    <tag k="addr:housenumber" v="262"/>
    <tag k="addr:street" v="Middle Road"/>
    <tag k="addr:state" v="VT"/>
    <tag k="ref:vcgi:esiteid" v="160669"/>
  </node>
  <node id="-2501" visible="true" lat="44.60498725" lon="-73.12460346">
    <!-- multiple: "262 Middle Road, Milton, VT" Multiple exact matches in OSM. -->
    <tag k="addr:city" v="Milton"/>
    <tag k="addr:housenumber" v="262"/>
    <tag k="addr:street" v="Middle Road"/>
    <tag k="addr:state" v="VT"/>
    <tag k="ref:vcgi:esiteid" v="160670"/>
  </node>
  <node id="-2705" visible="true" lat="44.60621865" lon="-73.21175195">
    <!-- multiple: "117 Gravelle Road, Milton, VT" Multiple exact matches in OSM. -->
    <tag k="addr:city" v="Milton"/>
    <tag k="addr:housenumber" v="117"/>
    <tag k="addr:street" v="Gravelle Road"/>
    <tag k="addr:state" v="VT"/>
    <tag k="ref:vcgi:esiteid" v="160881"/>
  </node>
  <node id="-2833" visible="true" lat="44.61386202" lon="-73.08265922">
    <!-- multiple: "313 Hardscrabble Road, Milton, VT" Multiple exact matches in OSM. -->
    <tag k="addr:city" v="Milton"/>
    <tag k="addr:housenumber" v="313"/>
    <tag k="addr:street" v="Hardscrabble Road"/>
    <tag k="addr:state" v="VT"/>
    <tag k="ref:vcgi:esiteid" v="161011"/>
  </node>
  <node id="-2984" visible="true" lat="44.63448437" lon="-73.10961824">
    <!-- multiple: "13 Herrick Avenue, Milton, VT" Multiple exact matches in OSM. -->
    <tag k="addr:city" v="Milton"/>
    <tag k="addr:housenumber" v="13"/>
    <tag k="addr:street" v="Herrick Avenue"/>
    <tag k="addr:state" v="VT"/>
    <tag k="ref:vcgi:esiteid" v="161166"/>
  </node>
  <node id="-2997" visible="true" lat="44.63252647" lon="-73.10986773">
    <!-- multiple: "42 Herrick Avenue, Milton, VT" Multiple exact matches in OSM. -->
    <tag k="addr:city" v="Milton"/>
    <tag k="addr:housenumber" v="42"/>
    <tag k="addr:street" v="Herrick Avenue"/>
    <tag k="addr:state" v="VT"/>
    <tag k="ref:vcgi:esiteid" v="161179"/>
  </node>
  <node id="-3106" visible="true" lat="44.64185109" lon="-73.10853667">
    <!-- multiple: "36 Maplewood Avenue, Milton, VT" Multiple exact matches in OSM. -->
    <tag k="addr:city" v="Milton"/>
    <tag k="addr:housenumber" v="36"/>
    <tag k="addr:street" v="Maplewood Avenue"/>
    <tag k="addr:state" v="VT"/>
    <tag k="ref:vcgi:esiteid" v="161290"/>
  </node>
  <node id="-3441" visible="true" lat="44.6093147" lon="-73.15945652">
    <!-- multiple: "37 Precast Road, Milton, VT" Multiple exact matches in OSM. -->
    <tag k="addr:city" v="Milton"/>
    <tag k="addr:housenumber" v="37"/>
    <tag k="addr:street" v="Precast Road"/>
    <tag k="addr:state" v="VT"/>
    <tag k="ref:vcgi:esiteid" v="161653"/>
  </node>
  <node id="-3471" visible="true" lat="44.63128299" lon="-73.11962194">
    <!-- multiple: "39 Lamoille Terrace, Milton, VT" Multiple exact matches in OSM. -->
    <tag k="addr:city" v="Milton"/>
    <tag k="addr:housenumber" v="39"/>
    <tag k="addr:street" v="Lamoille Terrace"/>
    <tag k="addr:state" v="VT"/>
    <tag k="ref:vcgi:esiteid" v="161724"/>
  </node>
  <node id="-4006" visible="true" lat="44.6768188" lon="-73.20918965">
    <!-- multiple: "365 Eagle Mountain Harbor Road, Milton, VT" Multiple exact matches in OSM. -->
    <tag k="addr:city" v="Milton"/>
    <tag k="addr:housenumber" v="365"/>
    <tag k="addr:street" v="Eagle Mountain Harbor Road"/>
    <tag k="addr:state" v="VT"/>
    <tag k="ref:vcgi:esiteid" v="162414"/>
  </node>
  <node id="-4007" visible="true" lat="44.67699158" lon="-73.20872462">
    <!-- multiple: "365 Eagle Mountain Harbor Road, Milton, VT" Multiple exact matches in OSM. -->
    <tag k="addr:city" v="Milton"/>
    <tag k="addr:housenumber" v="365"/>
    <tag k="addr:street" v="Eagle Mountain Harbor Road"/>
    <tag k="addr:state" v="VT"/>
    <tag k="ref:vcgi:esiteid" v="162415"/>
  </node>
  <node id="-4008" visible="true" lat="44.67754662" lon="-73.20963048">
    <!-- multiple: "365 Eagle Mountain Harbor Road, Milton, VT" Multiple exact matches in OSM. -->
    <tag k="addr:city" v="Milton"/>
    <tag k="addr:housenumber" v="365"/>
    <tag k="addr:street" v="Eagle Mountain Harbor Road"/>
    <tag k="addr:state" v="VT"/>
    <tag k="ref:vcgi:esiteid" v="162416"/>
  </node>
  <node id="-4009" visible="true" lat="44.67720699" lon="-73.20935765">
    <!-- multiple: "365 Eagle Mountain Harbor Road, Milton, VT" Multiple exact matches in OSM. -->
    <tag k="addr:city" v="Milton"/>
    <tag k="addr:housenumber" v="365"/>
    <tag k="addr:street" v="Eagle Mountain Harbor Road"/>
    <tag k="addr:state" v="VT"/>
    <tag k="ref:vcgi:esiteid" v="162417"/>
  </node>
  <node id="-4011" visible="true" lat="44.67741846" lon="-73.20961906">
    <!-- multiple: "365 Eagle Mountain Harbor Road, Milton, VT" Multiple exact matches in OSM. -->
    <tag k="addr:city" v="Milton"/>
    <tag k="addr:housenumber" v="365"/>
    <tag k="addr:street" v="Eagle Mountain Harbor Road"/>
    <tag k="addr:state" v="VT"/>
    <tag k="ref:vcgi:esiteid" v="162419"/>
  </node>
  <node id="-4012" visible="true" lat="44.67738255" lon="-73.20989543">
    <!-- multiple: "365 Eagle Mountain Harbor Road, Milton, VT" Multiple exact matches in OSM. -->
    <tag k="addr:city" v="Milton"/>
    <tag k="addr:housenumber" v="365"/>
    <tag k="addr:street" v="Eagle Mountain Harbor Road"/>
    <tag k="addr:state" v="VT"/>
    <tag k="ref:vcgi:esiteid" v="162420"/>
  </node>
  <node id="-4013" visible="true" lat="44.67747971" lon="-73.20994634">
    <!-- multiple: "365 Eagle Mountain Harbor Road, Milton, VT" Multiple exact matches in OSM. -->
    <tag k="addr:city" v="Milton"/>
    <tag k="addr:housenumber" v="365"/>
    <tag k="addr:street" v="Eagle Mountain Harbor Road"/>
    <tag k="addr:state" v="VT"/>
    <tag k="ref:vcgi:esiteid" v="162421"/>
  </node>
  <node id="-4138" visible="true" lat="44.6322227" lon="-73.14800179">
    <!-- multiple: "67 West Milton Road, Milton, VT" Multiple exact matches in OSM. -->
    <tag k="addr:city" v="Milton"/>
    <tag k="addr:housenumber" v="67"/>
    <tag k="addr:street" v="West Milton Road"/>
    <tag k="addr:state" v="VT"/>
    <tag k="ref:vcgi:esiteid" v="162564"/>
  </node>
  <node id="-4240" visible="true" lat="44.62491033" lon="-73.11953687">
    <!-- multiple: "199 U.S. Route 7 South, Milton, VT" Multiple exact matches in OSM. -->
    <tag k="addr:city" v="Milton"/>
    <tag k="addr:housenumber" v="199"/>
    <tag k="addr:street" v="U.S. Route 7 South"/>
    <tag k="addr:state" v="VT"/>
    <tag k="ref:vcgi:esiteid" v="339171"/>
  </node>
  <node id="-4566" visible="true" lat="44.62321371" lon="-73.13298826">
    <!-- multiple: "7 Southerberry Drive, Milton, VT" Multiple exact matches in OSM. -->
    <tag k="addr:city" v="Milton"/>
    <tag k="addr:housenumber" v="7"/>
    <tag k="addr:street" v="Southerberry Drive"/>
    <tag k="addr:state" v="VT"/>
    <tag k="ref:vcgi:esiteid" v="365108"/>
  </node>
  <node id="-4568" visible="true" lat="44.62357655" lon="-73.13366171">
    <!-- multiple: "5 Southerberry Drive, Milton, VT" Multiple exact matches in OSM. -->
    <tag k="addr:city" v="Milton"/>
    <tag k="addr:housenumber" v="5"/>
    <tag k="addr:street" v="Southerberry Drive"/>
    <tag k="addr:state" v="VT"/>
    <tag k="ref:vcgi:esiteid" v="365110"/>
  </node>
  <node id="-4696" visible="true" lat="44.62290812" lon="-73.1322281">
    <!-- multiple: "4 Southerberry Drive, Milton, VT" Multiple exact matches in OSM. -->
    <tag k="addr:city" v="Milton"/>
    <tag k="addr:housenumber" v="4"/>
    <tag k="addr:street" v="Southerberry Drive"/>
    <tag k="addr:state" v="VT"/>
    <tag k="ref:vcgi:esiteid" v="451299"/>
  </node>
  <node id="-4953" visible="true" lat="44.69714207" lon="-73.18870598">
    <!-- multiple: "105 Beebe Hill Road, Milton, VT" Multiple exact matches in OSM. -->
    <tag k="addr:city" v="Milton"/>
    <tag k="addr:housenumber" v="105"/>
    <tag k="addr:street" v="Beebe Hill Road"/>
    <tag k="addr:state" v="VT"/>
    <tag k="ref:vcgi:esiteid" v="759930"/>
  </node>
</osm>
