<?xml version="1.0" encoding="UTF-8"?>
<osm version="0.6" generator="JOSM" upload="false">
  <node id="-240" visible="true" lat="44.27329642" lon="-72.55694261">
    <!-- multiple: "1996 Main Street, Montpelier, VT" Multiple exact matches in OSM. -->
    <tag k="addr:city" v="Montpelier"/>
    <tag k="addr:housenumber" v="1996"/>
    <tag k="addr:street" v="Main Street"/>
    <tag k="addr:state" v="VT"/>
    <tag k="ref:vcgi:esiteid" v="164296"/>
  </node>
  <node id="-434" visible="true" lat="44.26786418" lon="-72.56257733">
    <!-- multiple: "404 Cityside Drive, Montpelier, VT" Multiple exact matches in OSM. -->
    <tag k="addr:city" v="Montpelier"/>
    <tag k="addr:housenumber" v="404"/>
    <tag k="addr:street" v="Cityside Drive"/>
    <tag k="addr:state" v="VT"/>
    <tag k="ref:vcgi:esiteid" v="164507"/>
  </node>
  <node id="-722" visible="true" lat="44.26400151" lon="-72.5836219">
    <!-- multiple: "15 Terrace Street, Montpelier, VT" Multiple exact matches in OSM. -->
    <tag k="addr:city" v="Montpelier"/>
    <tag k="addr:housenumber" v="15"/>
    <tag k="addr:street" v="Terrace Street"/>
    <tag k="addr:state" v="VT"/>
    <tag k="ref:vcgi:esiteid" v="164821"/>
  </node>
  <node id="-803" visible="true" lat="44.26307795" lon="-72.57139019">
    <!-- multiple: "156 Main Street, Montpelier, VT" Multiple exact matches in OSM. -->
    <tag k="addr:city" v="Montpelier"/>
    <tag k="addr:housenumber" v="156"/>
    <tag k="addr:street" v="Main Street"/>
    <tag k="addr:state" v="VT"/>
    <tag k="ref:vcgi:esiteid" v="164908"/>
  </node>
  <node id="-838" visible="true" lat="44.26268948" lon="-72.58227245">
    <!-- multiple: "6 Baldwin Street, Montpelier, VT" Multiple exact matches in OSM. -->
    <tag k="addr:city" v="Montpelier"/>
    <tag k="addr:housenumber" v="6"/>
    <tag k="addr:street" v="Baldwin Street"/>
    <tag k="addr:state" v="VT"/>
    <tag k="ref:vcgi:esiteid" v="164947"/>
  </node>
  <node id="-924" visible="true" lat="44.26213795" lon="-72.58581781">
    <!-- multiple: "152 State Street, Montpelier, VT" Multiple exact matches in OSM. -->
    <tag k="addr:city" v="Montpelier"/>
    <tag k="addr:housenumber" v="152"/>
    <tag k="addr:street" v="State Street"/>
    <tag k="addr:state" v="VT"/>
    <tag k="ref:vcgi:esiteid" v="165046"/>
  </node>
  <node id="-969" visible="true" lat="44.26189622" lon="-72.58203088">
    <!-- multiple: "133 State Street, Montpelier, VT" Multiple exact matches in OSM. -->
    <tag k="addr:city" v="Montpelier"/>
    <tag k="addr:housenumber" v="133"/>
    <tag k="addr:street" v="State Street"/>
    <tag k="addr:state" v="VT"/>
    <tag k="ref:vcgi:esiteid" v="165097"/>
  </node>
  <node id="-1031" visible="true" lat="44.26136542" lon="-72.57564448">
    <!-- multiple: "41 Elm Street, Montpelier, VT" Multiple exact matches in OSM. -->
    <tag k="addr:city" v="Montpelier"/>
    <tag k="addr:housenumber" v="41"/>
    <tag k="addr:street" v="Elm Street"/>
    <tag k="addr:state" v="VT"/>
    <tag k="ref:vcgi:esiteid" v="165165"/>
  </node>
  <node id="-1036" visible="true" lat="44.26125983" lon="-72.58174372">
    <!-- multiple: "126 State Street, Montpelier, VT" Multiple exact matches in OSM. -->
    <tag k="addr:city" v="Montpelier"/>
    <tag k="addr:housenumber" v="126"/>
    <tag k="addr:street" v="State Street"/>
    <tag k="addr:state" v="VT"/>
    <tag k="ref:vcgi:esiteid" v="165170"/>
  </node>
  <node id="-1089" visible="true" lat="44.26108129" lon="-72.57880462">
    <!-- multiple: "99 State Street, Montpelier, VT" Multiple exact matches in OSM. -->
    <tag k="addr:city" v="Montpelier"/>
    <tag k="addr:housenumber" v="99"/>
    <tag k="addr:street" v="State Street"/>
    <tag k="addr:state" v="VT"/>
    <tag k="ref:vcgi:esiteid" v="165229"/>
  </node>
  <node id="-1099" visible="true" lat="44.26100166" lon="-72.5786408">
    <!-- multiple: "97 State Street, Montpelier, VT" Multiple exact matches in OSM. -->
    <tag k="addr:city" v="Montpelier"/>
    <tag k="addr:housenumber" v="97"/>
    <tag k="addr:street" v="State Street"/>
    <tag k="addr:state" v="VT"/>
    <tag k="ref:vcgi:esiteid" v="165240"/>
  </node>
  <node id="-1109" visible="true" lat="44.26107573" lon="-72.57833377">
    <!-- multiple: "93 State Street, Montpelier, VT" Multiple exact matches in OSM. -->
    <tag k="addr:city" v="Montpelier"/>
    <tag k="addr:housenumber" v="93"/>
    <tag k="addr:street" v="State Street"/>
    <tag k="addr:state" v="VT"/>
    <tag k="ref:vcgi:esiteid" v="165252"/>
  </node>
  <node id="-1128" visible="true" lat="44.26061642" lon="-72.57863302">
    <!-- multiple: "100 State Street, Montpelier, VT" Multiple exact matches in OSM. -->
    <tag k="addr:city" v="Montpelier"/>
    <tag k="addr:housenumber" v="100"/>
    <tag k="addr:street" v="State Street"/>
    <tag k="addr:state" v="VT"/>
    <tag k="ref:vcgi:esiteid" v="165274"/>
  </node>
  <node id="-1131" visible="true" lat="44.26093396" lon="-72.57768601">
    <!-- multiple: "87 State Street, Montpelier, VT" Multiple exact matches in OSM. -->
    <tag k="addr:city" v="Montpelier"/>
    <tag k="addr:housenumber" v="87"/>
    <tag k="addr:street" v="State Street"/>
    <tag k="addr:state" v="VT"/>
    <tag k="ref:vcgi:esiteid" v="165277"/>
  </node>
  <node id="-1137" visible="true" lat="44.26083971" lon="-72.57997728">
    <!-- multiple: "112 State Street, Montpelier, VT" Multiple exact matches in OSM. -->
    <tag k="addr:city" v="Montpelier"/>
    <tag k="addr:housenumber" v="112"/>
    <tag k="addr:street" v="State Street"/>
    <tag k="addr:state" v="VT"/>
    <tag k="ref:vcgi:esiteid" v="165283"/>
  </node>
  <node id="-1184" visible="true" lat="44.26027865" lon="-72.57458147">
    <!-- multiple: "89 Main Street, Montpelier, VT" Multiple exact matches in OSM. -->
    <tag k="addr:city" v="Montpelier"/>
    <tag k="addr:housenumber" v="89"/>
    <tag k="addr:street" v="Main Street"/>
    <tag k="addr:state" v="VT"/>
    <tag k="ref:vcgi:esiteid" v="165336"/>
  </node>
  <node id="-1186" visible="true" lat="44.26030893" lon="-72.57547417">
    <!-- multiple: "90 Main Street, Montpelier, VT" Multiple exact matches in OSM. -->
    <tag k="addr:city" v="Montpelier"/>
    <tag k="addr:housenumber" v="90"/>
    <tag k="addr:street" v="Main Street"/>
    <tag k="addr:state" v="VT"/>
    <tag k="ref:vcgi:esiteid" v="165338"/>
  </node>
  <node id="-1189" visible="true" lat="44.26031944" lon="-72.57565881">
    <!-- multiple: "5 State Street, Montpelier, VT" Multiple exact matches in OSM. -->
    <tag k="addr:city" v="Montpelier"/>
    <tag k="addr:housenumber" v="5"/>
    <tag k="addr:street" v="State Street"/>
    <tag k="addr:state" v="VT"/>
    <tag k="ref:vcgi:esiteid" v="165342"/>
  </node>
  <node id="-1193" visible="true" lat="44.26035064" lon="-72.57578597">
    <!-- multiple: "15 State Street, Montpelier, VT" Multiple exact matches in OSM. -->
    <tag k="addr:city" v="Montpelier"/>
    <tag k="addr:housenumber" v="15"/>
    <tag k="addr:street" v="State Street"/>
    <tag k="addr:state" v="VT"/>
    <tag k="ref:vcgi:esiteid" v="165347"/>
  </node>
  <node id="-1214" visible="true" lat="44.26011833" lon="-72.5761591">
    <!-- multiple: "18 State Street, Montpelier, VT" Multiple exact matches in OSM. -->
    <tag k="addr:city" v="Montpelier"/>
    <tag k="addr:housenumber" v="18"/>
    <tag k="addr:street" v="State Street"/>
    <tag k="addr:state" v="VT"/>
    <tag k="ref:vcgi:esiteid" v="165371"/>
  </node>
  <node id="-1226" visible="true" lat="44.26005698" lon="-72.57590511">
    <!-- multiple: "6 State Street, Montpelier, VT" Multiple exact matches in OSM. -->
    <tag k="addr:city" v="Montpelier"/>
    <tag k="addr:housenumber" v="6"/>
    <tag k="addr:street" v="State Street"/>
    <tag k="addr:state" v="VT"/>
    <tag k="ref:vcgi:esiteid" v="165384"/>
  </node>
  <node id="-1229" visible="true" lat="44.26001852" lon="-72.57575642">
    <!-- multiple: "2 State Street, Montpelier, VT" Multiple exact matches in OSM. -->
    <tag k="addr:city" v="Montpelier"/>
    <tag k="addr:housenumber" v="2"/>
    <tag k="addr:street" v="State Street"/>
    <tag k="addr:state" v="VT"/>
    <tag k="ref:vcgi:esiteid" v="165387"/>
  </node>
  <node id="-1255" visible="true" lat="44.25996191" lon="-72.5750957">
    <!-- multiple: "83 Main Street, Montpelier, VT" Multiple exact matches in OSM. -->
    <tag k="addr:city" v="Montpelier"/>
    <tag k="addr:housenumber" v="83"/>
    <tag k="addr:street" v="Main Street"/>
    <tag k="addr:state" v="VT"/>
    <tag k="ref:vcgi:esiteid" v="165415"/>
  </node>
  <node id="-1262" visible="true" lat="44.25963557" lon="-72.57600427">
    <!-- multiple: "64 Main Street, Montpelier, VT" Multiple exact matches in OSM. -->
    <tag k="addr:city" v="Montpelier"/>
    <tag k="addr:housenumber" v="64"/>
    <tag k="addr:street" v="Main Street"/>
    <tag k="addr:state" v="VT"/>
    <tag k="ref:vcgi:esiteid" v="165423"/>
  </node>
  <node id="-1294" visible="true" lat="44.25949048" lon="-72.57612648">
    <!-- multiple: "54 Main Street, Montpelier, VT" Multiple exact matches in OSM. -->
    <tag k="addr:city" v="Montpelier"/>
    <tag k="addr:housenumber" v="54"/>
    <tag k="addr:street" v="Main Street"/>
    <tag k="addr:state" v="VT"/>
    <tag k="ref:vcgi:esiteid" v="165457"/>
  </node>
  <node id="-1309" visible="true" lat="44.25940287" lon="-72.57621353">
    <!-- multiple: "44 Main Street, Montpelier, VT" Multiple exact matches in OSM. -->
    <tag k="addr:city" v="Montpelier"/>
    <tag k="addr:housenumber" v="44"/>
    <tag k="addr:street" v="Main Street"/>
    <tag k="addr:state" v="VT"/>
    <tag k="ref:vcgi:esiteid" v="165472"/>
  </node>
  <node id="-1315" visible="true" lat="44.25923576" lon="-72.57557034">
    <!-- multiple: "39 Main Street, Montpelier, VT" Multiple exact matches in OSM. -->
    <tag k="addr:city" v="Montpelier"/>
    <tag k="addr:housenumber" v="39"/>
    <tag k="addr:street" v="Main Street"/>
    <tag k="addr:state" v="VT"/>
    <tag k="ref:vcgi:esiteid" v="165479"/>
  </node>
  <node id="-1332" visible="true" lat="44.25931927" lon="-72.56417444">
    <!-- multiple: "9 Heaton Street, Montpelier, VT" Multiple exact matches in OSM. -->
    <tag k="addr:city" v="Montpelier"/>
    <tag k="addr:housenumber" v="9"/>
    <tag k="addr:street" v="Heaton Street"/>
    <tag k="addr:state" v="VT"/>
    <tag k="ref:vcgi:esiteid" v="165499"/>
  </node>
  <node id="-1351" visible="true" lat="44.25905864" lon="-72.57647627">
    <!-- multiple: "28 Main Street, Montpelier, VT" Multiple exact matches in OSM. -->
    <tag k="addr:city" v="Montpelier"/>
    <tag k="addr:housenumber" v="28"/>
    <tag k="addr:street" v="Main Street"/>
    <tag k="addr:state" v="VT"/>
    <tag k="ref:vcgi:esiteid" v="165518"/>
  </node>
  <node id="-1436" visible="true" lat="44.25822761" lon="-72.57680387">
    <!-- multiple: "7 Main Street, Montpelier, VT" Multiple exact matches in OSM. -->
    <tag k="addr:city" v="Montpelier"/>
    <tag k="addr:housenumber" v="7"/>
    <tag k="addr:street" v="Main Street"/>
    <tag k="addr:state" v="VT"/>
    <tag k="ref:vcgi:esiteid" v="165608"/>
  </node>
  <node id="-1465" visible="true" lat="44.25799359" lon="-72.57239968">
    <!-- multiple: "20 Hubbard Street, Montpelier, VT" Multiple exact matches in OSM. -->
    <tag k="addr:city" v="Montpelier"/>
    <tag k="addr:housenumber" v="20"/>
    <tag k="addr:street" v="Hubbard Street"/>
    <tag k="addr:state" v="VT"/>
    <tag k="ref:vcgi:esiteid" v="165638"/>
  </node>
  <node id="-1506" visible="true" lat="44.25767645" lon="-72.57456544">
    <!-- multiple: "46 Barre Street, Montpelier, VT" Multiple exact matches in OSM. -->
    <tag k="addr:city" v="Montpelier"/>
    <tag k="addr:housenumber" v="46"/>
    <tag k="addr:street" v="Barre Street"/>
    <tag k="addr:state" v="VT"/>
    <tag k="ref:vcgi:esiteid" v="165679"/>
  </node>
  <node id="-1533" visible="true" lat="44.25740296" lon="-72.57446027">
    <!-- multiple: "58 Barre Street, Montpelier, VT" Multiple exact matches in OSM. -->
    <tag k="addr:city" v="Montpelier"/>
    <tag k="addr:housenumber" v="58"/>
    <tag k="addr:street" v="Barre Street"/>
    <tag k="addr:state" v="VT"/>
    <tag k="ref:vcgi:esiteid" v="165710"/>
  </node>
  <node id="-1552" visible="true" lat="44.25705601" lon="-72.5777297">
    <!-- multiple: "3 Berlin Street, Montpelier, VT" Multiple exact matches in OSM. -->
    <tag k="addr:city" v="Montpelier"/>
    <tag k="addr:housenumber" v="3"/>
    <tag k="addr:street" v="Berlin Street"/>
    <tag k="addr:state" v="VT"/>
    <tag k="ref:vcgi:esiteid" v="165729"/>
  </node>
  <node id="-1576" visible="true" lat="44.25695073" lon="-72.57732228">
    <!-- multiple: "15 Berlin Street, Montpelier, VT" Multiple exact matches in OSM. -->
    <tag k="addr:city" v="Montpelier"/>
    <tag k="addr:housenumber" v="15"/>
    <tag k="addr:street" v="Berlin Street"/>
    <tag k="addr:state" v="VT"/>
    <tag k="ref:vcgi:esiteid" v="165755"/>
  </node>
  <node id="-1653" visible="true" lat="44.25597512" lon="-72.57620129">
    <!-- multiple: "37 Berlin Street, Montpelier, VT" Multiple exact matches in OSM. -->
    <tag k="addr:city" v="Montpelier"/>
    <tag k="addr:housenumber" v="37"/>
    <tag k="addr:street" v="Berlin Street"/>
    <tag k="addr:state" v="VT"/>
    <tag k="ref:vcgi:esiteid" v="165843"/>
  </node>
  <node id="-1754" visible="true" lat="44.25521919" lon="-72.56751421">
    <!-- multiple: "36 College Street, Montpelier, VT" Multiple exact matches in OSM. -->
    <tag k="addr:city" v="Montpelier"/>
    <tag k="addr:housenumber" v="36"/>
    <tag k="addr:street" v="College Street"/>
    <tag k="addr:state" v="VT"/>
    <tag k="ref:vcgi:esiteid" v="165951"/>
  </node>
  <node id="-1770" visible="true" lat="44.25495365" lon="-72.60029137">
    <!-- multiple: "949 Dog River Road, Montpelier, VT" Multiple exact matches in OSM. -->
    <tag k="addr:city" v="Montpelier"/>
    <tag k="addr:housenumber" v="949"/>
    <tag k="addr:street" v="Dog River Road"/>
    <tag k="addr:state" v="VT"/>
    <tag k="ref:vcgi:esiteid" v="165971"/>
  </node>
  <node id="-1801" visible="true" lat="44.25467334" lon="-72.56753451">
    <!-- multiple: "32 College Street, Montpelier, VT" Multiple exact matches in OSM. -->
    <tag k="addr:city" v="Montpelier"/>
    <tag k="addr:housenumber" v="32"/>
    <tag k="addr:street" v="College Street"/>
    <tag k="addr:state" v="VT"/>
    <tag k="ref:vcgi:esiteid" v="166006"/>
  </node>
  <node id="-1876" visible="true" lat="44.25326502" lon="-72.59943953">
    <!-- multiple: "783 Dog River Road, Montpelier, VT" Multiple exact matches in OSM. -->
    <tag k="addr:city" v="Montpelier"/>
    <tag k="addr:housenumber" v="783"/>
    <tag k="addr:street" v="Dog River Road"/>
    <tag k="addr:state" v="VT"/>
    <tag k="ref:vcgi:esiteid" v="166087"/>
  </node>
  <node id="-1997" visible="true" lat="44.25046728" lon="-72.557043">
    <!-- multiple: "186 River Street, Montpelier, VT" Multiple exact matches in OSM. -->
    <tag k="addr:city" v="Montpelier"/>
    <tag k="addr:housenumber" v="186"/>
    <tag k="addr:street" v="River Street"/>
    <tag k="addr:state" v="VT"/>
    <tag k="ref:vcgi:esiteid" v="166229"/>
  </node>
  <node id="-2001" visible="true" lat="44.25038944" lon="-72.55872853">
    <!-- multiple: "2 Pioneer Street, Montpelier, VT" Multiple exact matches in OSM. -->
    <tag k="addr:city" v="Montpelier"/>
    <tag k="addr:housenumber" v="2"/>
    <tag k="addr:street" v="Pioneer Street"/>
    <tag k="addr:state" v="VT"/>
    <tag k="ref:vcgi:esiteid" v="166234"/>
  </node>
  <node id="-2045" visible="true" lat="44.24936122" lon="-72.56580665">
    <!-- multiple: "56 River Street, Montpelier, VT" Multiple exact matches in OSM. -->
    <tag k="addr:city" v="Montpelier"/>
    <tag k="addr:housenumber" v="56"/>
    <tag k="addr:street" v="River Street"/>
    <tag k="addr:state" v="VT"/>
    <tag k="ref:vcgi:esiteid" v="166286"/>
  </node>
  <node id="-2049" visible="true" lat="44.24933705" lon="-72.56519095">
    <!-- multiple: "62 River Street, Montpelier, VT" Multiple exact matches in OSM. -->
    <tag k="addr:city" v="Montpelier"/>
    <tag k="addr:housenumber" v="62"/>
    <tag k="addr:street" v="River Street"/>
    <tag k="addr:state" v="VT"/>
    <tag k="ref:vcgi:esiteid" v="166290"/>
  </node>
  <node id="-2061" visible="true" lat="44.24919775" lon="-72.56437466">
    <!-- multiple: "90 River Street, Montpelier, VT" Multiple exact matches in OSM. -->
    <tag k="addr:city" v="Montpelier"/>
    <tag k="addr:housenumber" v="90"/>
    <tag k="addr:street" v="River Street"/>
    <tag k="addr:state" v="VT"/>
    <tag k="ref:vcgi:esiteid" v="166305"/>
  </node>
  <node id="-2066" visible="true" lat="44.24919169" lon="-72.56355347">
    <!-- multiple: "92 River Street, Montpelier, VT" Multiple exact matches in OSM. -->
    <tag k="addr:city" v="Montpelier"/>
    <tag k="addr:housenumber" v="92"/>
    <tag k="addr:street" v="River Street"/>
    <tag k="addr:state" v="VT"/>
    <tag k="ref:vcgi:esiteid" v="166311"/>
  </node>
  <node id="-2264" visible="true" lat="44.24487806" lon="-72.54877234">
    <!-- multiple: "1 Home Farm Way, Montpelier, VT" Multiple exact matches in OSM. -->
    <tag k="addr:city" v="Montpelier"/>
    <tag k="addr:housenumber" v="1"/>
    <tag k="addr:street" v="Home Farm Way"/>
    <tag k="addr:state" v="VT"/>
    <tag k="ref:vcgi:esiteid" v="166533"/>
  </node>
  <node id="-2332" visible="true" lat="44.24317364" lon="-72.54396995">
    <!-- multiple: "46 Gallison Hill Road, Montpelier, VT" Multiple exact matches in OSM. -->
    <tag k="addr:city" v="Montpelier"/>
    <tag k="addr:housenumber" v="46"/>
    <tag k="addr:street" v="Gallison Hill Road"/>
    <tag k="addr:state" v="VT"/>
    <tag k="ref:vcgi:esiteid" v="166609"/>
  </node>
  <node id="-2372" visible="true" lat="44.24188222" lon="-72.54444993">
    <!-- multiple: "456 East Montpelier Road, Montpelier, VT" Multiple exact matches in OSM. -->
    <tag k="addr:city" v="Montpelier"/>
    <tag k="addr:housenumber" v="456"/>
    <tag k="addr:street" v="East Montpelier Road"/>
    <tag k="addr:state" v="VT"/>
    <tag k="ref:vcgi:esiteid" v="166659"/>
  </node>
  <node id="-2418" visible="true" lat="44.2382431" lon="-72.55273437">
    <!-- multiple: "364 River Street, Montpelier, VT" Multiple exact matches in OSM. -->
    <tag k="addr:city" v="Montpelier"/>
    <tag k="addr:housenumber" v="364"/>
    <tag k="addr:street" v="River Street"/>
    <tag k="addr:state" v="VT"/>
    <tag k="ref:vcgi:esiteid" v="166712"/>
  </node>
  <node id="-2463" visible="true" lat="44.23607157" lon="-72.55431856">
    <!-- multiple: "377 River Street, Montpelier, VT" Multiple exact matches in OSM. -->
    <tag k="addr:city" v="Montpelier"/>
    <tag k="addr:housenumber" v="377"/>
    <tag k="addr:street" v="River Street"/>
    <tag k="addr:state" v="VT"/>
    <tag k="ref:vcgi:esiteid" v="166763"/>
  </node>
  <node id="-2506" visible="true" lat="44.2611997" lon="-72.57704923">
    <!-- multiple: "10 Elm Street, Montpelier, VT" Multiple exact matches in OSM. -->
    <tag k="addr:city" v="Montpelier"/>
    <tag k="addr:housenumber" v="10"/>
    <tag k="addr:street" v="Elm Street"/>
    <tag k="addr:state" v="VT"/>
    <tag k="ref:vcgi:esiteid" v="166810"/>
  </node>
  <node id="-2517" visible="true" lat="44.25218881" lon="-72.57050454">
    <!-- multiple: "3 Granite Street, Montpelier, VT" Multiple exact matches in OSM. -->
    <tag k="addr:city" v="Montpelier"/>
    <tag k="addr:housenumber" v="3"/>
    <tag k="addr:street" v="Granite Street"/>
    <tag k="addr:state" v="VT"/>
    <tag k="ref:vcgi:esiteid" v="166821"/>
  </node>
  <node id="-2545" visible="true" lat="44.24711884" lon="-72.55035084">
    <!-- multiple: "265 River Street, Montpelier, VT" Multiple exact matches in OSM. -->
    <tag k="addr:city" v="Montpelier"/>
    <tag k="addr:housenumber" v="265"/>
    <tag k="addr:street" v="River Street"/>
    <tag k="addr:state" v="VT"/>
    <tag k="ref:vcgi:esiteid" v="166850"/>
  </node>
  <node id="-2712" visible="true" lat="44.26078571" lon="-72.58064208">
    <!-- multiple: "118 State Street, Montpelier, VT" Multiple exact matches in OSM. -->
    <tag k="addr:city" v="Montpelier"/>
    <tag k="addr:housenumber" v="118"/>
    <tag k="addr:street" v="State Street"/>
    <tag k="addr:state" v="VT"/>
    <tag k="ref:vcgi:esiteid" v="167025"/>
  </node>
  <node id="-2807" visible="true" lat="44.26253469" lon="-72.58207651">
    <!-- multiple: "4 Governor Aiken Avenue, Montpelier, VT" Multiple exact matches in OSM. -->
    <tag k="addr:city" v="Montpelier"/>
    <tag k="addr:housenumber" v="4"/>
    <tag k="addr:street" v="Governor Aiken Avenue"/>
    <tag k="addr:state" v="VT"/>
    <tag k="ref:vcgi:esiteid" v="307574"/>
  </node>
  <node id="-2817" visible="true" lat="44.2609854" lon="-72.57853694">
    <!-- multiple: "95 State Street, Montpelier, VT" Multiple exact matches in OSM. -->
    <tag k="addr:city" v="Montpelier"/>
    <tag k="addr:housenumber" v="95"/>
    <tag k="addr:street" v="State Street"/>
    <tag k="addr:state" v="VT"/>
    <tag k="ref:vcgi:esiteid" v="325293"/>
  </node>
  <node id="-2836" visible="true" lat="44.24421221" lon="-72.54547459">
    <!-- multiple: "55 Country Club Road, Montpelier, VT" Multiple exact matches in OSM. -->
    <tag k="addr:city" v="Montpelier"/>
    <tag k="addr:housenumber" v="55"/>
    <tag k="addr:street" v="Country Club Road"/>
    <tag k="addr:state" v="VT"/>
    <tag k="ref:vcgi:esiteid" v="334052"/>
  </node>
  <node id="-2847" visible="true" lat="44.25961917" lon="-72.57553408">
    <!-- multiple: "65 Main Street, Montpelier, VT" Multiple exact matches in OSM. -->
    <tag k="addr:city" v="Montpelier"/>
    <tag k="addr:housenumber" v="65"/>
    <tag k="addr:street" v="Main Street"/>
    <tag k="addr:state" v="VT"/>
    <tag k="ref:vcgi:esiteid" v="338707"/>
  </node>
  <node id="-2848" visible="true" lat="44.25968462" lon="-72.57547528">
    <!-- multiple: "69 Main Street, Montpelier, VT" Multiple exact matches in OSM. -->
    <tag k="addr:city" v="Montpelier"/>
    <tag k="addr:housenumber" v="69"/>
    <tag k="addr:street" v="Main Street"/>
    <tag k="addr:state" v="VT"/>
    <tag k="ref:vcgi:esiteid" v="338708"/>
  </node>
  <node id="-2849" visible="true" lat="44.25973274" lon="-72.57542448">
    <!-- multiple: "71 Main Street, Montpelier, VT" Multiple exact matches in OSM. -->
    <tag k="addr:city" v="Montpelier"/>
    <tag k="addr:housenumber" v="71"/>
    <tag k="addr:street" v="Main Street"/>
    <tag k="addr:state" v="VT"/>
    <tag k="ref:vcgi:esiteid" v="338709"/>
  </node>
  <node id="-2850" visible="true" lat="44.25995178" lon="-72.57519741">
    <!-- multiple: "79 Main Street, Montpelier, VT" Multiple exact matches in OSM. -->
    <tag k="addr:city" v="Montpelier"/>
    <tag k="addr:housenumber" v="79"/>
    <tag k="addr:street" v="Main Street"/>
    <tag k="addr:state" v="VT"/>
    <tag k="ref:vcgi:esiteid" v="338710"/>
  </node>
  <node id="-2853" visible="true" lat="44.25987325" lon="-72.57530421">
    <!-- multiple: "77 Main Street, Montpelier, VT" Multiple exact matches in OSM. -->
    <tag k="addr:city" v="Montpelier"/>
    <tag k="addr:housenumber" v="77"/>
    <tag k="addr:street" v="Main Street"/>
    <tag k="addr:state" v="VT"/>
    <tag k="ref:vcgi:esiteid" v="338713"/>
  </node>
  <node id="-2888" visible="true" lat="44.26101726" lon="-72.57621312">
    <!-- multiple: "4 Langdon Street, Montpelier, VT" Multiple exact matches in OSM. -->
    <tag k="addr:city" v="Montpelier"/>
    <tag k="addr:housenumber" v="4"/>
    <tag k="addr:street" v="Langdon Street"/>
    <tag k="addr:state" v="VT"/>
    <tag k="ref:vcgi:esiteid" v="365260"/>
  </node>
  <node id="-2982" visible="true" lat="44.25808666" lon="-72.57258602">
    <!-- multiple: "20 Hubbard Street, Montpelier, VT" Multiple exact matches in OSM. -->
    <tag k="addr:city" v="Montpelier"/>
    <tag k="addr:housenumber" v="20"/>
    <tag k="addr:street" v="Hubbard Street"/>
    <tag k="addr:state" v="VT"/>
    <tag k="ref:vcgi:esiteid" v="751216"/>
  </node>
  <node id="-2991" visible="true" lat="44.26070102" lon="-72.57510314">
    <!-- multiple: "110 Main Street, Montpelier, VT" Multiple exact matches in OSM. -->
    <tag k="addr:city" v="Montpelier"/>
    <tag k="addr:housenumber" v="110"/>
    <tag k="addr:street" v="Main Street"/>
    <tag k="addr:state" v="VT"/>
    <tag k="ref:vcgi:esiteid" v="754912"/>
  </node>
  <node id="-2993" visible="true" lat="44.26405317" lon="-72.58345747">
    <!-- multiple: "15 Terrace Street, Montpelier, VT" Multiple exact matches in OSM. -->
    <tag k="addr:city" v="Montpelier"/>
    <tag k="addr:housenumber" v="15"/>
    <tag k="addr:street" v="Terrace Street"/>
    <tag k="addr:state" v="VT"/>
    <tag k="ref:vcgi:esiteid" v="755665"/>
  </node>
  <node id="-3053" visible="true" lat="44.25931588" lon="-72.57629976">
    <!-- multiple: "40 Main Street, Montpelier, VT" Multiple exact matches in OSM. -->
    <tag k="addr:city" v="Montpelier"/>
    <tag k="addr:housenumber" v="40"/>
    <tag k="addr:street" v="Main Street"/>
    <tag k="addr:state" v="VT"/>
    <tag k="ref:vcgi:esiteid" v="1051095"/>
  </node>
  <node id="-3056" visible="true" lat="44.26005892" lon="-72.57603469">
    <!-- multiple: "10 State Street, Montpelier, VT" Multiple exact matches in OSM. -->
    <tag k="addr:city" v="Montpelier"/>
    <tag k="addr:housenumber" v="10"/>
    <tag k="addr:street" v="State Street"/>
    <tag k="addr:state" v="VT"/>
    <tag k="ref:vcgi:esiteid" v="1051098"/>
  </node>
  <node id="-3058" visible="true" lat="44.26001031" lon="-72.57608234">
    <!-- multiple: "14 State Street, Montpelier, VT" Multiple exact matches in OSM. -->
    <tag k="addr:city" v="Montpelier"/>
    <tag k="addr:housenumber" v="14"/>
    <tag k="addr:street" v="State Street"/>
    <tag k="addr:state" v="VT"/>
    <tag k="ref:vcgi:esiteid" v="1051100"/>
  </node>
  <node id="-3072" visible="true" lat="44.26059901" lon="-72.57517901">
    <!-- multiple: "104 Main Street, Montpelier, VT" Multiple exact matches in OSM. -->
    <tag k="addr:city" v="Montpelier"/>
    <tag k="addr:housenumber" v="104"/>
    <tag k="addr:street" v="Main Street"/>
    <tag k="addr:state" v="VT"/>
    <tag k="ref:vcgi:esiteid" v="1051133"/>
  </node>
  <node id="-3074" visible="true" lat="44.26067287" lon="-72.57510621">
    <!-- multiple: "108 Main Street, Montpelier, VT" Multiple exact matches in OSM. -->
    <tag k="addr:city" v="Montpelier"/>
    <tag k="addr:housenumber" v="108"/>
    <tag k="addr:street" v="Main Street"/>
    <tag k="addr:state" v="VT"/>
    <tag k="ref:vcgi:esiteid" v="1051136"/>
  </node>
</osm>
