<?xml version="1.0" encoding="UTF-8"?>
<osm version="0.6" generator="JOSM" upload="false">
  <node id="-100" visible="true" lat="44.06241093" lon="-72.19478688">
    <!-- multiple: "2002 Page Hill Road, , VT" Multiple exact matches in OSM. -->
    <tag k="addr:housenumber" v="2002"/>
    <tag k="addr:street" v="Page Hill Road"/>
    <tag k="addr:state" v="VT"/>
    <tag k="ref:vcgi:esiteid" v="109"/>
  </node>
  <node id="-275" visible="true" lat="44.15341792" lon="-72.04707758">
    <!-- multiple: "33 Main Street North, , VT" Multiple exact matches in OSM. -->
    <tag k="addr:housenumber" v="33"/>
    <tag k="addr:street" v="Main Street North"/>
    <tag k="addr:state" v="VT"/>
    <tag k="ref:vcgi:esiteid" v="173617"/>
  </node>
  <node id="-1024" visible="true" lat="44.06394577" lon="-72.11824798">
    <!-- multiple: "2745 Snake Road, , VT" Multiple exact matches in OSM. -->
    <tag k="addr:housenumber" v="2745"/>
    <tag k="addr:street" v="Snake Road"/>
    <tag k="addr:state" v="VT"/>
    <tag k="ref:vcgi:esiteid" v="174419"/>
  </node>
  <node id="-1504" visible="true" lat="44.04878155" lon="-72.14729455">
    <!-- multiple: "681 Upper Rogers Road, , VT" Multiple exact matches in OSM. -->
    <tag k="addr:housenumber" v="681"/>
    <tag k="addr:street" v="Upper Rogers Road"/>
    <tag k="addr:state" v="VT"/>
    <tag k="ref:vcgi:esiteid" v="617808"/>
  </node>
  <node id="-1505" visible="true" lat="44.04745831" lon="-72.14255867">
    <!-- multiple: "425 Upper Rogers Road, , VT" Multiple exact matches in OSM. -->
    <tag k="addr:housenumber" v="425"/>
    <tag k="addr:street" v="Upper Rogers Road"/>
    <tag k="addr:state" v="VT"/>
    <tag k="ref:vcgi:esiteid" v="617809"/>
  </node>
  <node id="-1506" visible="true" lat="44.04774976" lon="-72.14377453">
    <!-- multiple: "487 Upper Rogers Road, , VT" Multiple exact matches in OSM. -->
    <tag k="addr:housenumber" v="487"/>
    <tag k="addr:street" v="Upper Rogers Road"/>
    <tag k="addr:state" v="VT"/>
    <tag k="ref:vcgi:esiteid" v="617810"/>
  </node>
  <node id="-1515" visible="true" lat="44.06657388" lon="-72.05165314">
    <!-- multiple: "391 Newbury Crossing Road, , VT" Multiple exact matches in OSM. -->
    <tag k="addr:housenumber" v="391"/>
    <tag k="addr:street" v="Newbury Crossing Road"/>
    <tag k="addr:state" v="VT"/>
    <tag k="ref:vcgi:esiteid" v="751770"/>
  </node>
</osm>
