<?xml version="1.0" encoding="UTF-8"?>
<osm version="0.6" generator="JOSM" upload="false">
  <node id="-934" visible="true" lat="44.91612721" lon="-72.32943338">
    <!-- offset: "2841 Vermont Route 100, , VT" Significant offset - 9944m -->
    <tag k="addr:housenumber" v="2841"/>
    <tag k="addr:street" v="Vermont Route 100"/>
    <tag k="addr:state" v="VT"/>
    <tag k="ref:vcgi:esiteid" v="365431"/>
  </node>
  <node id="-998" visible="true" lat="44.97350232" lon="-72.30161124">
    <!-- offset: "1329 Buzzell Road, , VT" Significant offset - 335m -->
    <tag k="addr:housenumber" v="1329"/>
    <tag k="addr:street" v="Buzzell Road"/>
    <tag k="addr:state" v="VT"/>
    <tag k="ref:vcgi:esiteid" v="655931"/>
  </node>
  <node id="-1003" visible="true" lat="44.99231292" lon="-72.32701236">
    <!-- offset: "3504 Bear Mountain Road, , VT" Significant offset - 130.8m -->
    <tag k="addr:housenumber" v="3504"/>
    <tag k="addr:street" v="Bear Mountain Road"/>
    <tag k="addr:state" v="VT"/>
    <tag k="ref:vcgi:esiteid" v="656144"/>
  </node>
</osm>
