<?xml version="1.0" encoding="UTF-8"?>
<osm version="0.6" generator="JOSM" upload="false">
  <node id="-335" visible="true" lat="44.95411919" lon="-72.21140777">
    <!-- multiple: "171 Scott Farm Road, Newport, VT" Multiple exact matches in OSM. -->
    <tag k="addr:city" v="Newport"/>
    <tag k="addr:housenumber" v="171"/>
    <tag k="addr:street" v="Scott Farm Road"/>
    <tag k="addr:state" v="VT"/>
    <tag k="ref:vcgi:esiteid" v="176130"/>
  </node>
  <node id="-822" visible="true" lat="44.9435168" lon="-72.1932147">
    <!-- multiple: "535 East Main Street, Newport, VT" Multiple exact matches in OSM. -->
    <tag k="addr:city" v="Newport"/>
    <tag k="addr:housenumber" v="535"/>
    <tag k="addr:street" v="East Main Street"/>
    <tag k="addr:state" v="VT"/>
    <tag k="ref:vcgi:esiteid" v="176687"/>
  </node>
  <node id="-835" visible="true" lat="44.94327154" lon="-72.19423627">
    <!-- multiple: "477 East Main Street, Newport, VT" Multiple exact matches in OSM. -->
    <tag k="addr:city" v="Newport"/>
    <tag k="addr:housenumber" v="477"/>
    <tag k="addr:street" v="East Main Street"/>
    <tag k="addr:state" v="VT"/>
    <tag k="ref:vcgi:esiteid" v="176701"/>
  </node>
  <node id="-911" visible="true" lat="44.94228341" lon="-72.20683436">
    <!-- multiple: "47 Landing Street, Newport, VT" Multiple exact matches in OSM. -->
    <tag k="addr:city" v="Newport"/>
    <tag k="addr:housenumber" v="47"/>
    <tag k="addr:street" v="Landing Street"/>
    <tag k="addr:state" v="VT"/>
    <tag k="ref:vcgi:esiteid" v="176790"/>
  </node>
  <node id="-934" visible="true" lat="44.94166681" lon="-72.20511537">
    <!-- multiple: "187 Waterfront Plaza, Newport, VT" Multiple exact matches in OSM. -->
    <tag k="addr:city" v="Newport"/>
    <tag k="addr:housenumber" v="187"/>
    <tag k="addr:street" v="Waterfront Plaza"/>
    <tag k="addr:state" v="VT"/>
    <tag k="ref:vcgi:esiteid" v="176817"/>
  </node>
  <node id="-1191" visible="true" lat="44.93650126" lon="-72.20864329">
    <!-- multiple: "100 Main Street, Newport, VT" Multiple exact matches in OSM. -->
    <tag k="addr:city" v="Newport"/>
    <tag k="addr:housenumber" v="100"/>
    <tag k="addr:street" v="Main Street"/>
    <tag k="addr:state" v="VT"/>
    <tag k="ref:vcgi:esiteid" v="177118"/>
  </node>
  <node id="-1248" visible="true" lat="44.93584026" lon="-72.2098545">
    <!-- multiple: "194 Main Street, Newport, VT" Multiple exact matches in OSM. -->
    <tag k="addr:city" v="Newport"/>
    <tag k="addr:housenumber" v="194"/>
    <tag k="addr:street" v="Main Street"/>
    <tag k="addr:state" v="VT"/>
    <tag k="ref:vcgi:esiteid" v="177185"/>
  </node>
  <node id="-1303" visible="true" lat="44.93486434" lon="-72.21128958">
    <!-- multiple: "273 Main Street, Newport, VT" Multiple exact matches in OSM. -->
    <tag k="addr:city" v="Newport"/>
    <tag k="addr:housenumber" v="273"/>
    <tag k="addr:street" v="Main Street"/>
    <tag k="addr:state" v="VT"/>
    <tag k="ref:vcgi:esiteid" v="177254"/>
  </node>
  <node id="-1316" visible="true" lat="44.93499244" lon="-72.21234458">
    <!-- multiple: "316 Main Street, Newport, VT" Multiple exact matches in OSM. -->
    <tag k="addr:city" v="Newport"/>
    <tag k="addr:housenumber" v="316"/>
    <tag k="addr:street" v="Main Street"/>
    <tag k="addr:state" v="VT"/>
    <tag k="ref:vcgi:esiteid" v="177271"/>
  </node>
  <node id="-1535" visible="true" lat="44.93292595" lon="-72.19337112">
    <!-- multiple: "590 Mount Vernon Street, Newport, VT" Multiple exact matches in OSM. -->
    <tag k="addr:city" v="Newport"/>
    <tag k="addr:housenumber" v="590"/>
    <tag k="addr:street" v="Mount Vernon Street"/>
    <tag k="addr:state" v="VT"/>
    <tag k="ref:vcgi:esiteid" v="177538"/>
  </node>
</osm>
