<?xml version="1.0" encoding="UTF-8"?>
<osm version="0.6" generator="JOSM" upload="false">
  <node id="-192" visible="true" lat="44.17367149" lon="-72.64553933">
    <!-- multiple: "49 Moody Lane, , VT" Multiple exact matches in OSM. -->
    <tag k="addr:housenumber" v="49"/>
    <tag k="addr:street" v="Moody Lane"/>
    <tag k="addr:state" v="VT"/>
    <tag k="ref:vcgi:esiteid" v="179990"/>
  </node>
  <node id="-209" visible="true" lat="44.1730137" lon="-72.64758033">
    <!-- multiple: "716 Vermont Route 12 North, , VT" Multiple exact matches in OSM. -->
    <tag k="addr:housenumber" v="716"/>
    <tag k="addr:street" v="Vermont Route 12 North"/>
    <tag k="addr:state" v="VT"/>
    <tag k="ref:vcgi:esiteid" v="180008"/>
  </node>
  <node id="-341" visible="true" lat="44.16750717" lon="-72.6523056">
    <!-- multiple: "19 First Street, , VT" Multiple exact matches in OSM. -->
    <tag k="addr:housenumber" v="19"/>
    <tag k="addr:street" v="First Street"/>
    <tag k="addr:state" v="VT"/>
    <tag k="ref:vcgi:esiteid" v="180152"/>
  </node>
  <node id="-418" visible="true" lat="44.16413697" lon="-72.65531994">
    <!-- multiple: "1086 North Main Street, , VT" Multiple exact matches in OSM. -->
    <tag k="addr:housenumber" v="1086"/>
    <tag k="addr:street" v="North Main Street"/>
    <tag k="addr:state" v="VT"/>
    <tag k="ref:vcgi:esiteid" v="180235"/>
  </node>
  <node id="-419" visible="true" lat="44.16417572" lon="-72.65694214">
    <!-- multiple: "242 Dog River Drive, , VT" Multiple exact matches in OSM. -->
    <tag k="addr:housenumber" v="242"/>
    <tag k="addr:street" v="Dog River Drive"/>
    <tag k="addr:state" v="VT"/>
    <tag k="ref:vcgi:esiteid" v="180236"/>
  </node>
  <node id="-454" visible="true" lat="44.16157325" lon="-72.65516513">
    <!-- multiple: "63 Plaza Drive, , VT" Multiple exact matches in OSM. -->
    <tag k="addr:housenumber" v="63"/>
    <tag k="addr:street" v="Plaza Drive"/>
    <tag k="addr:state" v="VT"/>
    <tag k="ref:vcgi:esiteid" v="180276"/>
  </node>
  <node id="-467" visible="true" lat="44.16076403" lon="-72.65741821">
    <!-- multiple: "31 Dog River Drive, , VT" Multiple exact matches in OSM. -->
    <tag k="addr:housenumber" v="31"/>
    <tag k="addr:street" v="Dog River Drive"/>
    <tag k="addr:state" v="VT"/>
    <tag k="ref:vcgi:esiteid" v="180289"/>
  </node>
  <node id="-503" visible="true" lat="44.158813" lon="-72.65663447">
    <!-- multiple: "706 North Main Street, , VT" Multiple exact matches in OSM. -->
    <tag k="addr:housenumber" v="706"/>
    <tag k="addr:street" v="North Main Street"/>
    <tag k="addr:state" v="VT"/>
    <tag k="ref:vcgi:esiteid" v="180329"/>
  </node>
  <node id="-580" visible="true" lat="44.15498033" lon="-72.65654565">
    <!-- multiple: "438 North Main Street, , VT" Multiple exact matches in OSM. -->
    <tag k="addr:housenumber" v="438"/>
    <tag k="addr:street" v="North Main Street"/>
    <tag k="addr:state" v="VT"/>
    <tag k="ref:vcgi:esiteid" v="180410"/>
  </node>
  <node id="-647" visible="true" lat="44.15335923" lon="-72.65647756">
    <!-- multiple: "47 Cole Avenue, , VT" Multiple exact matches in OSM. -->
    <tag k="addr:housenumber" v="47"/>
    <tag k="addr:street" v="Cole Avenue"/>
    <tag k="addr:state" v="VT"/>
    <tag k="ref:vcgi:esiteid" v="180485"/>
  </node>
  <node id="-689" visible="true" lat="44.15260668" lon="-72.66368296">
    <!-- multiple: "64 School Street Extension, , VT" Multiple exact matches in OSM. -->
    <tag k="addr:housenumber" v="64"/>
    <tag k="addr:street" v="School Street Extension"/>
    <tag k="addr:state" v="VT"/>
    <tag k="ref:vcgi:esiteid" v="180533"/>
  </node>
  <node id="-775" visible="true" lat="44.15108224" lon="-72.65467645">
    <!-- multiple: "168 North Main Street, , VT" Multiple exact matches in OSM. -->
    <tag k="addr:housenumber" v="168"/>
    <tag k="addr:street" v="North Main Street"/>
    <tag k="addr:state" v="VT"/>
    <tag k="ref:vcgi:esiteid" v="180626"/>
  </node>
  <node id="-803" visible="true" lat="44.15071492" lon="-72.6577086">
    <!-- multiple: "94 Water Street, , VT" Multiple exact matches in OSM. -->
    <tag k="addr:housenumber" v="94"/>
    <tag k="addr:street" v="Water Street"/>
    <tag k="addr:state" v="VT"/>
    <tag k="ref:vcgi:esiteid" v="180658"/>
  </node>
  <node id="-872" visible="true" lat="44.14911603" lon="-72.65728737">
    <!-- multiple: "56 Depot Square, , VT" Multiple exact matches in OSM. -->
    <tag k="addr:housenumber" v="56"/>
    <tag k="addr:street" v="Depot Square"/>
    <tag k="addr:state" v="VT"/>
    <tag k="ref:vcgi:esiteid" v="180740"/>
  </node>
  <node id="-873" visible="true" lat="44.14916631" lon="-72.65738974">
    <!-- multiple: "58 Depot Square, , VT" Multiple exact matches in OSM. -->
    <tag k="addr:housenumber" v="58"/>
    <tag k="addr:street" v="Depot Square"/>
    <tag k="addr:state" v="VT"/>
    <tag k="ref:vcgi:esiteid" v="180741"/>
  </node>
  <node id="-878" visible="true" lat="44.14909522" lon="-72.65709341">
    <!-- multiple: "48 Depot Square, , VT" Multiple exact matches in OSM. -->
    <tag k="addr:housenumber" v="48"/>
    <tag k="addr:street" v="Depot Square"/>
    <tag k="addr:state" v="VT"/>
    <tag k="ref:vcgi:esiteid" v="180746"/>
  </node>
  <node id="-882" visible="true" lat="44.14904325" lon="-72.65688659">
    <!-- multiple: "40 Depot Square, , VT" Multiple exact matches in OSM. -->
    <tag k="addr:housenumber" v="40"/>
    <tag k="addr:street" v="Depot Square"/>
    <tag k="addr:state" v="VT"/>
    <tag k="ref:vcgi:esiteid" v="180751"/>
  </node>
  <node id="-884" visible="true" lat="44.14899218" lon="-72.6566845">
    <!-- multiple: "32 Depot Square, , VT" Multiple exact matches in OSM. -->
    <tag k="addr:housenumber" v="32"/>
    <tag k="addr:street" v="Depot Square"/>
    <tag k="addr:state" v="VT"/>
    <tag k="ref:vcgi:esiteid" v="180753"/>
  </node>
  <node id="-885" visible="true" lat="44.14895403" lon="-72.6565329">
    <!-- multiple: "24 Depot Square, , VT" Multiple exact matches in OSM. -->
    <tag k="addr:housenumber" v="24"/>
    <tag k="addr:street" v="Depot Square"/>
    <tag k="addr:state" v="VT"/>
    <tag k="ref:vcgi:esiteid" v="180755"/>
  </node>
  <node id="-886" visible="true" lat="44.1488936" lon="-72.65628474">
    <!-- multiple: "12 Depot Square, , VT" Multiple exact matches in OSM. -->
    <tag k="addr:housenumber" v="12"/>
    <tag k="addr:street" v="Depot Square"/>
    <tag k="addr:state" v="VT"/>
    <tag k="ref:vcgi:esiteid" v="180756"/>
  </node>
  <node id="-887" visible="true" lat="44.14891865" lon="-72.65640253">
    <!-- multiple: "14 Depot Square, , VT" Multiple exact matches in OSM. -->
    <tag k="addr:housenumber" v="14"/>
    <tag k="addr:street" v="Depot Square"/>
    <tag k="addr:state" v="VT"/>
    <tag k="ref:vcgi:esiteid" v="180757"/>
  </node>
  <node id="-888" visible="true" lat="44.14889651" lon="-72.65566599">
    <!-- multiple: "17 East Street, , VT" Multiple exact matches in OSM. -->
    <tag k="addr:housenumber" v="17"/>
    <tag k="addr:street" v="East Street"/>
    <tag k="addr:state" v="VT"/>
    <tag k="ref:vcgi:esiteid" v="180758"/>
  </node>
  <node id="-890" visible="true" lat="44.14895005" lon="-72.65582923">
    <!-- multiple: "9 East Street, , VT" Multiple exact matches in OSM. -->
    <tag k="addr:housenumber" v="9"/>
    <tag k="addr:street" v="East Street"/>
    <tag k="addr:state" v="VT"/>
    <tag k="ref:vcgi:esiteid" v="180760"/>
  </node>
  <node id="-891" visible="true" lat="44.14884351" lon="-72.65547226">
    <!-- multiple: "21 East Street, , VT" Multiple exact matches in OSM. -->
    <tag k="addr:housenumber" v="21"/>
    <tag k="addr:street" v="East Street"/>
    <tag k="addr:state" v="VT"/>
    <tag k="ref:vcgi:esiteid" v="180761"/>
  </node>
  <node id="-893" visible="true" lat="44.14878291" lon="-72.655348">
    <!-- multiple: "29 East Street, , VT" Multiple exact matches in OSM. -->
    <tag k="addr:housenumber" v="29"/>
    <tag k="addr:street" v="East Street"/>
    <tag k="addr:state" v="VT"/>
    <tag k="ref:vcgi:esiteid" v="180764"/>
  </node>
  <node id="-895" visible="true" lat="44.14877751" lon="-72.65764194">
    <!-- multiple: "70 Depot Square, , VT" Multiple exact matches in OSM. -->
    <tag k="addr:housenumber" v="70"/>
    <tag k="addr:street" v="Depot Square"/>
    <tag k="addr:state" v="VT"/>
    <tag k="ref:vcgi:esiteid" v="180767"/>
  </node>
  <node id="-914" visible="true" lat="44.14836768" lon="-72.65591434">
    <!-- multiple: "33 South Main Street, , VT" Multiple exact matches in OSM. -->
    <tag k="addr:housenumber" v="33"/>
    <tag k="addr:street" v="South Main Street"/>
    <tag k="addr:state" v="VT"/>
    <tag k="ref:vcgi:esiteid" v="180794"/>
  </node>
  <node id="-946" visible="true" lat="44.14750603" lon="-72.6559912">
    <!-- multiple: "93 South Main Street, , VT" Multiple exact matches in OSM. -->
    <tag k="addr:housenumber" v="93"/>
    <tag k="addr:street" v="South Main Street"/>
    <tag k="addr:state" v="VT"/>
    <tag k="ref:vcgi:esiteid" v="180835"/>
  </node>
  <node id="-1208" visible="true" lat="44.13838525" lon="-72.65897648">
    <!-- multiple: "158 Harmon Drive, , VT" Multiple exact matches in OSM. -->
    <tag k="addr:housenumber" v="158"/>
    <tag k="addr:street" v="Harmon Drive"/>
    <tag k="addr:state" v="VT"/>
    <tag k="ref:vcgi:esiteid" v="181139"/>
  </node>
  <node id="-1560" visible="true" lat="44.11953331" lon="-72.65704782">
    <!-- multiple: "974 Vermont Route 12 South, , VT" Multiple exact matches in OSM. -->
    <tag k="addr:housenumber" v="974"/>
    <tag k="addr:street" v="Vermont Route 12 South"/>
    <tag k="addr:state" v="VT"/>
    <tag k="ref:vcgi:esiteid" v="181516"/>
  </node>
  <node id="-1946" visible="true" lat="44.11352089" lon="-72.7205854">
    <!-- multiple: "150 Evans Road, , VT" Multiple exact matches in OSM. -->
    <tag k="addr:housenumber" v="150"/>
    <tag k="addr:street" v="Evans Road"/>
    <tag k="addr:state" v="VT"/>
    <tag k="ref:vcgi:esiteid" v="339336"/>
  </node>
  <node id="-1948" visible="true" lat="44.11831928" lon="-72.72952078">
    <!-- multiple: "429 Rabbit Hollow Road, , VT" Multiple exact matches in OSM. -->
    <tag k="addr:housenumber" v="429"/>
    <tag k="addr:street" v="Rabbit Hollow Road"/>
    <tag k="addr:state" v="VT"/>
    <tag k="ref:vcgi:esiteid" v="342884"/>
  </node>
</osm>
