<?xml version="1.0" encoding="UTF-8"?>
<osm version="0.6" generator="JOSM" upload="false">
  <node id="-415" visible="true" lat="42.91783086" lon="-73.256667">
    <!-- duplicates-in-different-towns: "379 Harrington Road, North Bennington, VT"  ignoring town mismatch for duplicate housenumber/street when matching to esiteid 454275: "379 Harrington Road, , VT" -->
    <tag k="addr:city" v="North Bennington"/>
    <tag k="addr:housenumber" v="379"/>
    <tag k="addr:street" v="Harrington Road"/>
    <tag k="addr:state" v="VT"/>
    <tag k="ref:vcgi:esiteid" v="305076"/>
  </node>
  <node id="-547" visible="true" lat="42.93353291" lon="-73.24696414">
    <!-- duplicates-in-different-towns: "39 Bank Street, North Bennington, VT"  ignoring town mismatch for duplicate housenumber/street when matching to esiteid 218872: "39 Bank Street, , VT" -->
    <tag k="addr:city" v="North Bennington"/>
    <tag k="addr:housenumber" v="39"/>
    <tag k="addr:street" v="Bank Street"/>
    <tag k="addr:state" v="VT"/>
    <tag k="ref:vcgi:esiteid" v="336097"/>
  </node>
  <node id="-555" visible="true" lat="42.93330692" lon="-73.24053588">
    <!-- duplicates-in-different-towns: "1887 Vermont Route 67 East, North Bennington, VT"  ignoring town mismatch for duplicate housenumber/street when matching to esiteid 341858: "1887 Vermont Route 67 East, , VT" -->
    <tag k="addr:city" v="North Bennington"/>
    <tag k="addr:housenumber" v="1887"/>
    <tag k="addr:street" v="Vermont Route 67 East"/>
    <tag k="addr:state" v="VT"/>
    <tag k="ref:vcgi:esiteid" v="339196"/>
  </node>
  <node id="-576" visible="true" lat="42.9191376" lon="-73.22748306">
    <!-- duplicates-in-different-towns: "504 Matteson Road, North Bennington, VT"  ignoring town mismatch for duplicate housenumber/street when matching to esiteid 16220: "504 Matteson Road, , VT" -->
    <tag k="addr:city" v="North Bennington"/>
    <tag k="addr:housenumber" v="504"/>
    <tag k="addr:street" v="Matteson Road"/>
    <tag k="addr:state" v="VT"/>
    <tag k="ref:vcgi:esiteid" v="752767"/>
  </node>
  <node id="-594" visible="true" lat="42.91851202" lon="-73.23838351">
    <!-- duplicates-in-different-towns: "36 First Street, North Bennington, VT"  ignoring town mismatch for duplicate housenumber/street when matching to esiteid 16224: "36 First Street, , VT" -->
    <tag k="addr:city" v="North Bennington"/>
    <tag k="addr:housenumber" v="36"/>
    <tag k="addr:street" v="First Street"/>
    <tag k="addr:state" v="VT"/>
    <tag k="ref:vcgi:esiteid" v="763812"/>
  </node>
</osm>
