<?xml version="1.0" encoding="UTF-8"?>
<osm version="0.6" generator="JOSM" upload="false">
  <node id="-101" visible="true" lat="43.68343309" lon="-72.95035183">
    <!-- multiple: "95 Chittenden Road, , VT" Multiple exact matches in OSM. -->
    <tag k="addr:housenumber" v="95"/>
    <tag k="addr:street" v="Chittenden Road"/>
    <tag k="addr:state" v="VT"/>
    <tag k="ref:vcgi:esiteid" v="187418"/>
  </node>
  <node id="-409" visible="true" lat="43.7153518" lon="-73.02805611">
    <!-- multiple: "426 Plains Road, , VT" Multiple exact matches in OSM. -->
    <tag k="addr:housenumber" v="426"/>
    <tag k="addr:street" v="Plains Road"/>
    <tag k="addr:state" v="VT"/>
    <tag k="ref:vcgi:esiteid" v="187754"/>
  </node>
  <node id="-810" visible="true" lat="43.69846452" lon="-73.01202828">
    <!-- multiple: "192 Vermont Route 3, , VT" Multiple exact matches in OSM. -->
    <tag k="addr:housenumber" v="192"/>
    <tag k="addr:street" v="Vermont Route 3"/>
    <tag k="addr:state" v="VT"/>
    <tag k="ref:vcgi:esiteid" v="188206"/>
  </node>
  <node id="-1125" visible="true" lat="43.67802334" lon="-73.0296769">
    <!-- multiple: "88 Gorham Bridge Road, , VT" Multiple exact matches in OSM. -->
    <tag k="addr:housenumber" v="88"/>
    <tag k="addr:street" v="Gorham Bridge Road"/>
    <tag k="addr:state" v="VT"/>
    <tag k="ref:vcgi:esiteid" v="188529"/>
  </node>
  <node id="-1202" visible="true" lat="43.67246246" lon="-72.94225311">
    <!-- multiple: "4 Chittenden Road, , VT" Multiple exact matches in OSM. -->
    <tag k="addr:housenumber" v="4"/>
    <tag k="addr:street" v="Chittenden Road"/>
    <tag k="addr:state" v="VT"/>
    <tag k="ref:vcgi:esiteid" v="188606"/>
  </node>
  <node id="-1440" visible="true" lat="43.66938962" lon="-72.94380851">
    <!-- multiple: "3177 East Pittsford Road, , VT" Multiple exact matches in OSM. -->
    <tag k="addr:housenumber" v="3177"/>
    <tag k="addr:street" v="East Pittsford Road"/>
    <tag k="addr:state" v="VT"/>
    <tag k="ref:vcgi:esiteid" v="213718"/>
  </node>
  <node id="-1460" visible="true" lat="43.66817541" lon="-72.97959012">
    <!-- multiple: "151 Oak Ridge Place, , VT" Multiple exact matches in OSM. -->
    <tag k="addr:housenumber" v="151"/>
    <tag k="addr:street" v="Oak Ridge Place"/>
    <tag k="addr:state" v="VT"/>
    <tag k="ref:vcgi:esiteid" v="328941"/>
  </node>
  <node id="-1498" visible="true" lat="43.67133512" lon="-72.9414727">
    <!-- multiple: "1688 Meadow Lake Drive, , VT" Multiple exact matches in OSM. -->
    <tag k="addr:housenumber" v="1688"/>
    <tag k="addr:street" v="Meadow Lake Drive"/>
    <tag k="addr:state" v="VT"/>
    <tag k="ref:vcgi:esiteid" v="449787"/>
  </node>
  <node id="-1527" visible="true" lat="43.67412559" lon="-72.96037643">
    <!-- multiple: "450 Blueberry Lane, , VT" Multiple exact matches in OSM. -->
    <tag k="addr:housenumber" v="450"/>
    <tag k="addr:street" v="Blueberry Lane"/>
    <tag k="addr:state" v="VT"/>
    <tag k="ref:vcgi:esiteid" v="612977"/>
  </node>
</osm>
