<?xml version="1.0" encoding="UTF-8"?>
<osm version="0.6" generator="JOSM" upload="false">
  <node id="-110" visible="true" lat="44.82350844" lon="-73.08155312">
    <!-- multiple: "266 North Main Street, , VT" Multiple exact matches in OSM. -->
    <tag k="addr:housenumber" v="266"/>
    <tag k="addr:street" v="North Main Street"/>
    <tag k="addr:state" v="VT"/>
    <tag k="ref:vcgi:esiteid" v="238248"/>
  </node>
  <node id="-111" visible="true" lat="44.79786299" lon="-73.09038497">
    <!-- multiple: "237 South Main Street, , VT" Multiple exact matches in OSM. -->
    <tag k="addr:housenumber" v="237"/>
    <tag k="addr:street" v="South Main Street"/>
    <tag k="addr:state" v="VT"/>
    <tag k="ref:vcgi:esiteid" v="238252"/>
  </node>
  <node id="-112" visible="true" lat="44.79596192" lon="-73.09136866">
    <!-- multiple: "275 South Main Street, , VT" Multiple exact matches in OSM. -->
    <tag k="addr:housenumber" v="275"/>
    <tag k="addr:street" v="South Main Street"/>
    <tag k="addr:state" v="VT"/>
    <tag k="ref:vcgi:esiteid" v="238253"/>
  </node>
  <node id="-165" visible="true" lat="44.86804201" lon="-73.18045539">
    <!-- multiple: "79 Austin Road, , VT" Multiple exact matches in OSM. -->
    <tag k="addr:housenumber" v="79"/>
    <tag k="addr:street" v="Austin Road"/>
    <tag k="addr:state" v="VT"/>
    <tag k="ref:vcgi:esiteid" v="241152"/>
  </node>
  <node id="-488" visible="true" lat="44.83483123" lon="-73.08002471">
    <!-- multiple: "138 Swanton Road, , VT" Multiple exact matches in OSM. -->
    <tag k="addr:housenumber" v="138"/>
    <tag k="addr:street" v="Swanton Road"/>
    <tag k="addr:state" v="VT"/>
    <tag k="ref:vcgi:esiteid" v="241507"/>
  </node>
  <node id="-808" visible="true" lat="44.81760081" lon="-73.10345695">
    <!-- multiple: "235 Pearl Street, , VT" Multiple exact matches in OSM. -->
    <tag k="addr:housenumber" v="235"/>
    <tag k="addr:street" v="Pearl Street"/>
    <tag k="addr:state" v="VT"/>
    <tag k="ref:vcgi:esiteid" v="241850"/>
  </node>
  <node id="-814" visible="true" lat="44.81734466" lon="-73.10384368">
    <!-- multiple: "235 Pearl Street, , VT" Multiple exact matches in OSM. -->
    <tag k="addr:housenumber" v="235"/>
    <tag k="addr:street" v="Pearl Street"/>
    <tag k="addr:state" v="VT"/>
    <tag k="ref:vcgi:esiteid" v="241856"/>
  </node>
  <node id="-939" visible="true" lat="44.81265494" lon="-73.06952428">
    <!-- multiple: "148 Congress Street, , VT" Multiple exact matches in OSM. -->
    <tag k="addr:housenumber" v="148"/>
    <tag k="addr:street" v="Congress Street"/>
    <tag k="addr:state" v="VT"/>
    <tag k="ref:vcgi:esiteid" v="241988"/>
  </node>
  <node id="-946" visible="true" lat="44.81258392" lon="-73.06974792">
    <!-- multiple: "148 Congress Street, , VT" Multiple exact matches in OSM. -->
    <tag k="addr:housenumber" v="148"/>
    <tag k="addr:street" v="Congress Street"/>
    <tag k="addr:state" v="VT"/>
    <tag k="ref:vcgi:esiteid" v="241995"/>
  </node>
  <node id="-973" visible="true" lat="44.81179809" lon="-73.13935851">
    <!-- multiple: "178 McGinn Drive, , VT" Multiple exact matches in OSM. -->
    <tag k="addr:housenumber" v="178"/>
    <tag k="addr:street" v="McGinn Drive"/>
    <tag k="addr:state" v="VT"/>
    <tag k="ref:vcgi:esiteid" v="242022"/>
  </node>
  <node id="-1095" visible="true" lat="44.80960895" lon="-73.12511754">
    <!-- multiple: "106 Church Road, , VT" Multiple exact matches in OSM. -->
    <tag k="addr:housenumber" v="106"/>
    <tag k="addr:street" v="Church Road"/>
    <tag k="addr:state" v="VT"/>
    <tag k="ref:vcgi:esiteid" v="242153"/>
  </node>
  <node id="-1109" visible="true" lat="44.80936431" lon="-73.12567138">
    <!-- multiple: "106 Church Road, , VT" Multiple exact matches in OSM. -->
    <tag k="addr:housenumber" v="106"/>
    <tag k="addr:street" v="Church Road"/>
    <tag k="addr:state" v="VT"/>
    <tag k="ref:vcgi:esiteid" v="242167"/>
  </node>
  <node id="-1181" visible="true" lat="44.80790025" lon="-73.13964587">
    <!-- multiple: "585 Lake Road, , VT" Multiple exact matches in OSM. -->
    <tag k="addr:housenumber" v="585"/>
    <tag k="addr:street" v="Lake Road"/>
    <tag k="addr:state" v="VT"/>
    <tag k="ref:vcgi:esiteid" v="242242"/>
  </node>
  <node id="-1802" visible="true" lat="44.79444122" lon="-73.09426116">
    <!-- multiple: "2 Parsons Avenue, , VT" Multiple exact matches in OSM. -->
    <tag k="addr:housenumber" v="2"/>
    <tag k="addr:street" v="Parsons Avenue"/>
    <tag k="addr:state" v="VT"/>
    <tag k="ref:vcgi:esiteid" v="242906"/>
  </node>
  <node id="-2010" visible="true" lat="44.78733325" lon="-73.09940604">
    <!-- multiple: "423 South Main Street, , VT" Multiple exact matches in OSM. -->
    <tag k="addr:housenumber" v="423"/>
    <tag k="addr:street" v="South Main Street"/>
    <tag k="addr:state" v="VT"/>
    <tag k="ref:vcgi:esiteid" v="243125"/>
  </node>
  <node id="-2380" visible="true" lat="44.80203719" lon="-73.10234192">
    <!-- multiple: "650 Industrial Park Road, , VT" Multiple exact matches in OSM. -->
    <tag k="addr:housenumber" v="650"/>
    <tag k="addr:street" v="Industrial Park Road"/>
    <tag k="addr:state" v="VT"/>
    <tag k="ref:vcgi:esiteid" v="243521"/>
  </node>
  <node id="-2387" visible="true" lat="44.79806137" lon="-73.09277343">
    <!-- multiple: "248 South Main Street, , VT" Multiple exact matches in OSM. -->
    <tag k="addr:housenumber" v="248"/>
    <tag k="addr:street" v="South Main Street"/>
    <tag k="addr:state" v="VT"/>
    <tag k="ref:vcgi:esiteid" v="243537"/>
  </node>
  <node id="-2388" visible="true" lat="44.79811278" lon="-73.0928409">
    <!-- multiple: "248 South Main Street, , VT" Multiple exact matches in OSM. -->
    <tag k="addr:housenumber" v="248"/>
    <tag k="addr:street" v="South Main Street"/>
    <tag k="addr:state" v="VT"/>
    <tag k="ref:vcgi:esiteid" v="243538"/>
  </node>
  <node id="-2389" visible="true" lat="44.79813207" lon="-73.09292603">
    <!-- multiple: "248 South Main Street, , VT" Multiple exact matches in OSM. -->
    <tag k="addr:housenumber" v="248"/>
    <tag k="addr:street" v="South Main Street"/>
    <tag k="addr:state" v="VT"/>
    <tag k="ref:vcgi:esiteid" v="243539"/>
  </node>
  <node id="-2390" visible="true" lat="44.79798126" lon="-73.09306335">
    <!-- multiple: "248 South Main Street, , VT" Multiple exact matches in OSM. -->
    <tag k="addr:housenumber" v="248"/>
    <tag k="addr:street" v="South Main Street"/>
    <tag k="addr:state" v="VT"/>
    <tag k="ref:vcgi:esiteid" v="243540"/>
  </node>
  <node id="-2391" visible="true" lat="44.79791259" lon="-73.09291839">
    <!-- multiple: "248 South Main Street, , VT" Multiple exact matches in OSM. -->
    <tag k="addr:housenumber" v="248"/>
    <tag k="addr:street" v="South Main Street"/>
    <tag k="addr:state" v="VT"/>
    <tag k="ref:vcgi:esiteid" v="243541"/>
  </node>
  <node id="-2407" visible="true" lat="44.7985604" lon="-73.09286929">
    <!-- multiple: "242 South Main Street, , VT" Multiple exact matches in OSM. -->
    <tag k="addr:housenumber" v="242"/>
    <tag k="addr:street" v="South Main Street"/>
    <tag k="addr:state" v="VT"/>
    <tag k="ref:vcgi:esiteid" v="243557"/>
  </node>
  <node id="-2467" visible="true" lat="44.81038286" lon="-73.07068464">
    <!-- multiple: "21 Driscoll Drive, , VT" Multiple exact matches in OSM. -->
    <tag k="addr:housenumber" v="21"/>
    <tag k="addr:street" v="Driscoll Drive"/>
    <tag k="addr:state" v="VT"/>
    <tag k="ref:vcgi:esiteid" v="243628"/>
  </node>
  <node id="-2631" visible="true" lat="44.86815726" lon="-73.17970649">
    <!-- multiple: "79 Austin Road, , VT" Multiple exact matches in OSM. -->
    <tag k="addr:housenumber" v="79"/>
    <tag k="addr:street" v="Austin Road"/>
    <tag k="addr:state" v="VT"/>
    <tag k="ref:vcgi:esiteid" v="243802"/>
  </node>
  <node id="-2632" visible="true" lat="44.86820353" lon="-73.17983668">
    <!-- multiple: "79 Austin Road, , VT" Multiple exact matches in OSM. -->
    <tag k="addr:housenumber" v="79"/>
    <tag k="addr:street" v="Austin Road"/>
    <tag k="addr:state" v="VT"/>
    <tag k="ref:vcgi:esiteid" v="243803"/>
  </node>
  <node id="-2633" visible="true" lat="44.86803011" lon="-73.18020507">
    <!-- multiple: "79 Austin Road, , VT" Multiple exact matches in OSM. -->
    <tag k="addr:housenumber" v="79"/>
    <tag k="addr:street" v="Austin Road"/>
    <tag k="addr:state" v="VT"/>
    <tag k="ref:vcgi:esiteid" v="243807"/>
  </node>
  <node id="-2634" visible="true" lat="44.8679048" lon="-73.17976172">
    <!-- multiple: "79 Austin Road, , VT" Multiple exact matches in OSM. -->
    <tag k="addr:housenumber" v="79"/>
    <tag k="addr:street" v="Austin Road"/>
    <tag k="addr:state" v="VT"/>
    <tag k="ref:vcgi:esiteid" v="243809"/>
  </node>
  <node id="-2635" visible="true" lat="44.86782524" lon="-73.17953327">
    <!-- multiple: "79 Austin Road, , VT" Multiple exact matches in OSM. -->
    <tag k="addr:housenumber" v="79"/>
    <tag k="addr:street" v="Austin Road"/>
    <tag k="addr:state" v="VT"/>
    <tag k="ref:vcgi:esiteid" v="243811"/>
  </node>
  <node id="-2695" visible="true" lat="44.82419884" lon="-73.0883794">
    <!-- multiple: "107 Lower Newton Street, , VT" Multiple exact matches in OSM. -->
    <tag k="addr:housenumber" v="107"/>
    <tag k="addr:street" v="Lower Newton Street"/>
    <tag k="addr:state" v="VT"/>
    <tag k="ref:vcgi:esiteid" v="243873"/>
  </node>
  <node id="-2753" visible="true" lat="44.7970329" lon="-73.07172195">
    <!-- multiple: "555 Fairfax Road, , VT" Multiple exact matches in OSM. -->
    <tag k="addr:housenumber" v="555"/>
    <tag k="addr:street" v="Fairfax Road"/>
    <tag k="addr:state" v="VT"/>
    <tag k="ref:vcgi:esiteid" v="306332"/>
  </node>
  <node id="-3230" visible="true" lat="44.87133648" lon="-73.15152927">
    <!-- multiple: "61 Lord Road, , VT" Multiple exact matches in OSM. -->
    <tag k="addr:housenumber" v="61"/>
    <tag k="addr:street" v="Lord Road"/>
    <tag k="addr:state" v="VT"/>
    <tag k="ref:vcgi:esiteid" v="450891"/>
  </node>
  <node id="-3356" visible="true" lat="44.78757967" lon="-73.08452064">
    <!-- multiple: "591 Harbor View Drive, , VT" Multiple exact matches in OSM. -->
    <tag k="addr:housenumber" v="591"/>
    <tag k="addr:street" v="Harbor View Drive"/>
    <tag k="addr:state" v="VT"/>
    <tag k="ref:vcgi:esiteid" v="751055"/>
  </node>
  <node id="-3505" visible="true" lat="44.80333643" lon="-73.1356163">
    <!-- multiple: "398 Georgia Shore Road, , VT" Multiple exact matches in OSM. -->
    <tag k="addr:housenumber" v="398"/>
    <tag k="addr:street" v="Georgia Shore Road"/>
    <tag k="addr:state" v="VT"/>
    <tag k="ref:vcgi:esiteid" v="761476"/>
  </node>
  <node id="-3690" visible="true" lat="44.82410268" lon="-73.1072551">
    <!-- multiple: "850 Brigham Road, , VT" Multiple exact matches in OSM. -->
    <tag k="addr:housenumber" v="850"/>
    <tag k="addr:street" v="Brigham Road"/>
    <tag k="addr:state" v="VT"/>
    <tag k="ref:vcgi:esiteid" v="769075"/>
  </node>
</osm>
