<?xml version="1.0" encoding="UTF-8"?>
<osm version="0.6" generator="JOSM" upload="false">
  <node id="-127" visible="true" lat="44.82407072" lon="-73.08038001">
    <!-- multiple: "277 North Main Street, Saint Albans, VT" Multiple exact matches in OSM. -->
    <tag k="addr:city" v="Saint Albans"/>
    <tag k="addr:housenumber" v="277"/>
    <tag k="addr:street" v="North Main Street"/>
    <tag k="addr:state" v="VT"/>
    <tag k="ref:vcgi:esiteid" v="238273"/>
  </node>
  <node id="-400" visible="true" lat="44.81888951" lon="-73.0852135">
    <!-- multiple: "34 Lower Newton Street, Saint Albans, VT" Multiple exact matches in OSM. -->
    <tag k="addr:city" v="Saint Albans"/>
    <tag k="addr:housenumber" v="34"/>
    <tag k="addr:street" v="Lower Newton Street"/>
    <tag k="addr:state" v="VT"/>
    <tag k="ref:vcgi:esiteid" v="238552"/>
  </node>
  <node id="-401" visible="true" lat="44.81936147" lon="-73.08603788">
    <!-- multiple: "34 Lower Newton Street, Saint Albans, VT" Multiple exact matches in OSM. -->
    <tag k="addr:city" v="Saint Albans"/>
    <tag k="addr:housenumber" v="34"/>
    <tag k="addr:street" v="Lower Newton Street"/>
    <tag k="addr:state" v="VT"/>
    <tag k="ref:vcgi:esiteid" v="238553"/>
  </node>
  <node id="-402" visible="true" lat="44.81996547" lon="-73.08609389">
    <!-- multiple: "44 Lower Newton Street, Saint Albans, VT" Multiple exact matches in OSM. -->
    <tag k="addr:city" v="Saint Albans"/>
    <tag k="addr:housenumber" v="44"/>
    <tag k="addr:street" v="Lower Newton Street"/>
    <tag k="addr:state" v="VT"/>
    <tag k="ref:vcgi:esiteid" v="238554"/>
  </node>
  <node id="-458" visible="true" lat="44.8216638" lon="-73.08807975">
    <!-- multiple: "145 North Elm Street, Saint Albans, VT" Multiple exact matches in OSM. -->
    <tag k="addr:city" v="Saint Albans"/>
    <tag k="addr:housenumber" v="145"/>
    <tag k="addr:street" v="North Elm Street"/>
    <tag k="addr:state" v="VT"/>
    <tag k="ref:vcgi:esiteid" v="238610"/>
  </node>
  <node id="-459" visible="true" lat="44.82122213" lon="-73.08830944">
    <!-- multiple: "145 North Elm Street, Saint Albans, VT" Multiple exact matches in OSM. -->
    <tag k="addr:city" v="Saint Albans"/>
    <tag k="addr:housenumber" v="145"/>
    <tag k="addr:street" v="North Elm Street"/>
    <tag k="addr:state" v="VT"/>
    <tag k="ref:vcgi:esiteid" v="238611"/>
  </node>
  <node id="-461" visible="true" lat="44.82338827" lon="-73.08956847">
    <!-- multiple: "102 Lower Newton Street, Saint Albans, VT" Multiple exact matches in OSM. -->
    <tag k="addr:city" v="Saint Albans"/>
    <tag k="addr:housenumber" v="102"/>
    <tag k="addr:street" v="Lower Newton Street"/>
    <tag k="addr:state" v="VT"/>
    <tag k="ref:vcgi:esiteid" v="238613"/>
  </node>
  <node id="-462" visible="true" lat="44.82328269" lon="-73.08995823">
    <!-- multiple: "102 Lower Newton Street, Saint Albans, VT" Multiple exact matches in OSM. -->
    <tag k="addr:city" v="Saint Albans"/>
    <tag k="addr:housenumber" v="102"/>
    <tag k="addr:street" v="Lower Newton Street"/>
    <tag k="addr:state" v="VT"/>
    <tag k="ref:vcgi:esiteid" v="238614"/>
  </node>
  <node id="-463" visible="true" lat="44.82324544" lon="-73.08988618">
    <!-- multiple: "102 Lower Newton Street, Saint Albans, VT" Multiple exact matches in OSM. -->
    <tag k="addr:city" v="Saint Albans"/>
    <tag k="addr:housenumber" v="102"/>
    <tag k="addr:street" v="Lower Newton Street"/>
    <tag k="addr:state" v="VT"/>
    <tag k="ref:vcgi:esiteid" v="238615"/>
  </node>
  <node id="-464" visible="true" lat="44.82320421" lon="-73.08980245">
    <!-- multiple: "102 Lower Newton Street, Saint Albans, VT" Multiple exact matches in OSM. -->
    <tag k="addr:city" v="Saint Albans"/>
    <tag k="addr:housenumber" v="102"/>
    <tag k="addr:street" v="Lower Newton Street"/>
    <tag k="addr:state" v="VT"/>
    <tag k="ref:vcgi:esiteid" v="238616"/>
  </node>
  <node id="-465" visible="true" lat="44.82316291" lon="-73.08972977">
    <!-- multiple: "102 Lower Newton Street, Saint Albans, VT" Multiple exact matches in OSM. -->
    <tag k="addr:city" v="Saint Albans"/>
    <tag k="addr:housenumber" v="102"/>
    <tag k="addr:street" v="Lower Newton Street"/>
    <tag k="addr:state" v="VT"/>
    <tag k="ref:vcgi:esiteid" v="238617"/>
  </node>
  <node id="-466" visible="true" lat="44.82312008" lon="-73.08963265">
    <!-- multiple: "102 Lower Newton Street, Saint Albans, VT" Multiple exact matches in OSM. -->
    <tag k="addr:city" v="Saint Albans"/>
    <tag k="addr:housenumber" v="102"/>
    <tag k="addr:street" v="Lower Newton Street"/>
    <tag k="addr:state" v="VT"/>
    <tag k="ref:vcgi:esiteid" v="238618"/>
  </node>
  <node id="-467" visible="true" lat="44.82309675" lon="-73.08954041">
    <!-- multiple: "102 Lower Newton Street, Saint Albans, VT" Multiple exact matches in OSM. -->
    <tag k="addr:city" v="Saint Albans"/>
    <tag k="addr:housenumber" v="102"/>
    <tag k="addr:street" v="Lower Newton Street"/>
    <tag k="addr:state" v="VT"/>
    <tag k="ref:vcgi:esiteid" v="238619"/>
  </node>
  <node id="-468" visible="true" lat="44.82304517" lon="-73.08947732">
    <!-- multiple: "102 Lower Newton Street, Saint Albans, VT" Multiple exact matches in OSM. -->
    <tag k="addr:city" v="Saint Albans"/>
    <tag k="addr:housenumber" v="102"/>
    <tag k="addr:street" v="Lower Newton Street"/>
    <tag k="addr:state" v="VT"/>
    <tag k="ref:vcgi:esiteid" v="238620"/>
  </node>
  <node id="-469" visible="true" lat="44.82300705" lon="-73.08939062">
    <!-- multiple: "102 Lower Newton Street, Saint Albans, VT" Multiple exact matches in OSM. -->
    <tag k="addr:city" v="Saint Albans"/>
    <tag k="addr:housenumber" v="102"/>
    <tag k="addr:street" v="Lower Newton Street"/>
    <tag k="addr:state" v="VT"/>
    <tag k="ref:vcgi:esiteid" v="238621"/>
  </node>
  <node id="-470" visible="true" lat="44.82302149" lon="-73.08912982">
    <!-- multiple: "102 Lower Newton Street, Saint Albans, VT" Multiple exact matches in OSM. -->
    <tag k="addr:city" v="Saint Albans"/>
    <tag k="addr:housenumber" v="102"/>
    <tag k="addr:street" v="Lower Newton Street"/>
    <tag k="addr:state" v="VT"/>
    <tag k="ref:vcgi:esiteid" v="238622"/>
  </node>
  <node id="-471" visible="true" lat="44.82310538" lon="-73.08902195">
    <!-- multiple: "102 Lower Newton Street, Saint Albans, VT" Multiple exact matches in OSM. -->
    <tag k="addr:city" v="Saint Albans"/>
    <tag k="addr:housenumber" v="102"/>
    <tag k="addr:street" v="Lower Newton Street"/>
    <tag k="addr:state" v="VT"/>
    <tag k="ref:vcgi:esiteid" v="238623"/>
  </node>
  <node id="-472" visible="true" lat="44.82320699" lon="-73.08893934">
    <!-- multiple: "102 Lower Newton Street, Saint Albans, VT" Multiple exact matches in OSM. -->
    <tag k="addr:city" v="Saint Albans"/>
    <tag k="addr:housenumber" v="102"/>
    <tag k="addr:street" v="Lower Newton Street"/>
    <tag k="addr:state" v="VT"/>
    <tag k="ref:vcgi:esiteid" v="238624"/>
  </node>
  <node id="-473" visible="true" lat="44.82297322" lon="-73.08925478">
    <!-- multiple: "102 Lower Newton Street, Saint Albans, VT" Multiple exact matches in OSM. -->
    <tag k="addr:city" v="Saint Albans"/>
    <tag k="addr:housenumber" v="102"/>
    <tag k="addr:street" v="Lower Newton Street"/>
    <tag k="addr:state" v="VT"/>
    <tag k="ref:vcgi:esiteid" v="238625"/>
  </node>
  <node id="-541" visible="true" lat="44.82092104" lon="-73.08841681">
    <!-- multiple: "145 North Elm Street, Saint Albans, VT" Multiple exact matches in OSM. -->
    <tag k="addr:city" v="Saint Albans"/>
    <tag k="addr:housenumber" v="145"/>
    <tag k="addr:street" v="North Elm Street"/>
    <tag k="addr:state" v="VT"/>
    <tag k="ref:vcgi:esiteid" v="238693"/>
  </node>
  <node id="-712" visible="true" lat="44.81506563" lon="-73.09342165">
    <!-- multiple: "128 Pearl Street, Saint Albans, VT" Multiple exact matches in OSM. -->
    <tag k="addr:city" v="Saint Albans"/>
    <tag k="addr:housenumber" v="128"/>
    <tag k="addr:street" v="Pearl Street"/>
    <tag k="addr:state" v="VT"/>
    <tag k="ref:vcgi:esiteid" v="238864"/>
  </node>
  <node id="-713" visible="true" lat="44.81480989" lon="-73.0933814">
    <!-- multiple: "128 Pearl Street, Saint Albans, VT" Multiple exact matches in OSM. -->
    <tag k="addr:city" v="Saint Albans"/>
    <tag k="addr:housenumber" v="128"/>
    <tag k="addr:street" v="Pearl Street"/>
    <tag k="addr:state" v="VT"/>
    <tag k="ref:vcgi:esiteid" v="238865"/>
  </node>
  <node id="-798" visible="true" lat="44.81567989" lon="-73.08512169">
    <!-- multiple: "140 Federal Street, Saint Albans, VT" Multiple exact matches in OSM. -->
    <tag k="addr:city" v="Saint Albans"/>
    <tag k="addr:housenumber" v="140"/>
    <tag k="addr:street" v="Federal Street"/>
    <tag k="addr:state" v="VT"/>
    <tag k="ref:vcgi:esiteid" v="238962"/>
  </node>
  <node id="-817" visible="true" lat="44.82097491" lon="-73.08789589">
    <!-- multiple: "145 North Elm Street, Saint Albans, VT" Multiple exact matches in OSM. -->
    <tag k="addr:city" v="Saint Albans"/>
    <tag k="addr:housenumber" v="145"/>
    <tag k="addr:street" v="North Elm Street"/>
    <tag k="addr:state" v="VT"/>
    <tag k="ref:vcgi:esiteid" v="238985"/>
  </node>
  <node id="-1127" visible="true" lat="44.81026685" lon="-73.08136032">
    <!-- multiple: "45 Fairfield Street, Saint Albans, VT" Multiple exact matches in OSM. -->
    <tag k="addr:city" v="Saint Albans"/>
    <tag k="addr:housenumber" v="45"/>
    <tag k="addr:street" v="Fairfield Street"/>
    <tag k="addr:state" v="VT"/>
    <tag k="ref:vcgi:esiteid" v="239303"/>
  </node>
  <node id="-1128" visible="true" lat="44.81000538" lon="-73.08079681">
    <!-- multiple: "45 Fairfield Street, Saint Albans, VT" Multiple exact matches in OSM. -->
    <tag k="addr:city" v="Saint Albans"/>
    <tag k="addr:housenumber" v="45"/>
    <tag k="addr:street" v="Fairfield Street"/>
    <tag k="addr:state" v="VT"/>
    <tag k="ref:vcgi:esiteid" v="239304"/>
  </node>
  <node id="-1166" visible="true" lat="44.8114096" lon="-73.08720017">
    <!-- multiple: "99 Lake Street, Saint Albans, VT" Multiple exact matches in OSM. -->
    <tag k="addr:city" v="Saint Albans"/>
    <tag k="addr:housenumber" v="99"/>
    <tag k="addr:street" v="Lake Street"/>
    <tag k="addr:state" v="VT"/>
    <tag k="ref:vcgi:esiteid" v="239344"/>
  </node>
  <node id="-1214" visible="true" lat="44.81317061" lon="-73.0896866">
    <!-- multiple: "24 Maple Street, Saint Albans, VT" Multiple exact matches in OSM. -->
    <tag k="addr:city" v="Saint Albans"/>
    <tag k="addr:housenumber" v="24"/>
    <tag k="addr:street" v="Maple Street"/>
    <tag k="addr:state" v="VT"/>
    <tag k="ref:vcgi:esiteid" v="239397"/>
  </node>
  <node id="-1215" visible="true" lat="44.81298528" lon="-73.0898436">
    <!-- multiple: "24 Maple Street, Saint Albans, VT" Multiple exact matches in OSM. -->
    <tag k="addr:city" v="Saint Albans"/>
    <tag k="addr:housenumber" v="24"/>
    <tag k="addr:street" v="Maple Street"/>
    <tag k="addr:state" v="VT"/>
    <tag k="ref:vcgi:esiteid" v="239398"/>
  </node>
  <node id="-1216" visible="true" lat="44.81315545" lon="-73.08915918">
    <!-- multiple: "29 Maple Street, Saint Albans, VT" Multiple exact matches in OSM. -->
    <tag k="addr:city" v="Saint Albans"/>
    <tag k="addr:housenumber" v="29"/>
    <tag k="addr:street" v="Maple Street"/>
    <tag k="addr:state" v="VT"/>
    <tag k="ref:vcgi:esiteid" v="239399"/>
  </node>
  <node id="-1280" visible="true" lat="44.81486956" lon="-73.08148637">
    <!-- multiple: "133 North Main Street, Saint Albans, VT" Multiple exact matches in OSM. -->
    <tag k="addr:city" v="Saint Albans"/>
    <tag k="addr:housenumber" v="133"/>
    <tag k="addr:street" v="North Main Street"/>
    <tag k="addr:state" v="VT"/>
    <tag k="ref:vcgi:esiteid" v="239465"/>
  </node>
  <node id="-1281" visible="true" lat="44.81427876" lon="-73.08227284">
    <!-- multiple: "133 North Main Street, Saint Albans, VT" Multiple exact matches in OSM. -->
    <tag k="addr:city" v="Saint Albans"/>
    <tag k="addr:housenumber" v="133"/>
    <tag k="addr:street" v="North Main Street"/>
    <tag k="addr:state" v="VT"/>
    <tag k="ref:vcgi:esiteid" v="239466"/>
  </node>
  <node id="-1328" visible="true" lat="44.81156014" lon="-73.09288584">
    <!-- multiple: "247 Lake Street, Saint Albans, VT" Multiple exact matches in OSM. -->
    <tag k="addr:city" v="Saint Albans"/>
    <tag k="addr:housenumber" v="247"/>
    <tag k="addr:street" v="Lake Street"/>
    <tag k="addr:state" v="VT"/>
    <tag k="ref:vcgi:esiteid" v="239516"/>
  </node>
  <node id="-1338" visible="true" lat="44.81188421" lon="-73.09352469">
    <!-- multiple: "247 Lake Street, Saint Albans, VT" Multiple exact matches in OSM. -->
    <tag k="addr:city" v="Saint Albans"/>
    <tag k="addr:housenumber" v="247"/>
    <tag k="addr:street" v="Lake Street"/>
    <tag k="addr:state" v="VT"/>
    <tag k="ref:vcgi:esiteid" v="239526"/>
  </node>
  <node id="-1611" visible="true" lat="44.80793598" lon="-73.09437889">
    <!-- multiple: "100 Lower Welden Street, Saint Albans, VT" Multiple exact matches in OSM. -->
    <tag k="addr:city" v="Saint Albans"/>
    <tag k="addr:housenumber" v="100"/>
    <tag k="addr:street" v="Lower Welden Street"/>
    <tag k="addr:state" v="VT"/>
    <tag k="ref:vcgi:esiteid" v="239802"/>
  </node>
  <node id="-1612" visible="true" lat="44.80765579" lon="-73.09445962">
    <!-- multiple: "100 Lower Welden Street, Saint Albans, VT" Multiple exact matches in OSM. -->
    <tag k="addr:city" v="Saint Albans"/>
    <tag k="addr:housenumber" v="100"/>
    <tag k="addr:street" v="Lower Welden Street"/>
    <tag k="addr:state" v="VT"/>
    <tag k="ref:vcgi:esiteid" v="239803"/>
  </node>
  <node id="-1613" visible="true" lat="44.80747464" lon="-73.09431843">
    <!-- multiple: "100 Lower Welden Street, Saint Albans, VT" Multiple exact matches in OSM. -->
    <tag k="addr:city" v="Saint Albans"/>
    <tag k="addr:housenumber" v="100"/>
    <tag k="addr:street" v="Lower Welden Street"/>
    <tag k="addr:state" v="VT"/>
    <tag k="ref:vcgi:esiteid" v="239804"/>
  </node>
  <node id="-1614" visible="true" lat="44.80759933" lon="-73.09364296">
    <!-- multiple: "100 Lower Welden Street, Saint Albans, VT" Multiple exact matches in OSM. -->
    <tag k="addr:city" v="Saint Albans"/>
    <tag k="addr:housenumber" v="100"/>
    <tag k="addr:street" v="Lower Welden Street"/>
    <tag k="addr:state" v="VT"/>
    <tag k="ref:vcgi:esiteid" v="239805"/>
  </node>
  <node id="-1995" visible="true" lat="44.80506424" lon="-73.09303669">
    <!-- multiple: "47 Nason Street, Saint Albans, VT" Multiple exact matches in OSM. -->
    <tag k="addr:city" v="Saint Albans"/>
    <tag k="addr:housenumber" v="47"/>
    <tag k="addr:street" v="Nason Street"/>
    <tag k="addr:state" v="VT"/>
    <tag k="ref:vcgi:esiteid" v="240195"/>
  </node>
  <node id="-1996" visible="true" lat="44.80499944" lon="-73.09285127">
    <!-- multiple: "47 Nason Street, Saint Albans, VT" Multiple exact matches in OSM. -->
    <tag k="addr:city" v="Saint Albans"/>
    <tag k="addr:housenumber" v="47"/>
    <tag k="addr:street" v="Nason Street"/>
    <tag k="addr:state" v="VT"/>
    <tag k="ref:vcgi:esiteid" v="240196"/>
  </node>
  <node id="-1997" visible="true" lat="44.80496479" lon="-73.09261579">
    <!-- multiple: "47 Nason Street, Saint Albans, VT" Multiple exact matches in OSM. -->
    <tag k="addr:city" v="Saint Albans"/>
    <tag k="addr:housenumber" v="47"/>
    <tag k="addr:street" v="Nason Street"/>
    <tag k="addr:state" v="VT"/>
    <tag k="ref:vcgi:esiteid" v="240197"/>
  </node>
  <node id="-2002" visible="true" lat="44.8047321" lon="-73.09189122">
    <!-- multiple: "47 Nason Street, Saint Albans, VT" Multiple exact matches in OSM. -->
    <tag k="addr:city" v="Saint Albans"/>
    <tag k="addr:housenumber" v="47"/>
    <tag k="addr:street" v="Nason Street"/>
    <tag k="addr:state" v="VT"/>
    <tag k="ref:vcgi:esiteid" v="240202"/>
  </node>
  <node id="-2003" visible="true" lat="44.80468502" lon="-73.09174798">
    <!-- multiple: "47 Nason Street, Saint Albans, VT" Multiple exact matches in OSM. -->
    <tag k="addr:city" v="Saint Albans"/>
    <tag k="addr:housenumber" v="47"/>
    <tag k="addr:street" v="Nason Street"/>
    <tag k="addr:state" v="VT"/>
    <tag k="ref:vcgi:esiteid" v="240203"/>
  </node>
  <node id="-2004" visible="true" lat="44.80460813" lon="-73.09158764">
    <!-- multiple: "47 Nason Street, Saint Albans, VT" Multiple exact matches in OSM. -->
    <tag k="addr:city" v="Saint Albans"/>
    <tag k="addr:housenumber" v="47"/>
    <tag k="addr:street" v="Nason Street"/>
    <tag k="addr:state" v="VT"/>
    <tag k="ref:vcgi:esiteid" v="240204"/>
  </node>
  <node id="-2005" visible="true" lat="44.804573" lon="-73.09144452">
    <!-- multiple: "47 Nason Street, Saint Albans, VT" Multiple exact matches in OSM. -->
    <tag k="addr:city" v="Saint Albans"/>
    <tag k="addr:housenumber" v="47"/>
    <tag k="addr:street" v="Nason Street"/>
    <tag k="addr:state" v="VT"/>
    <tag k="ref:vcgi:esiteid" v="240205"/>
  </node>
  <node id="-2006" visible="true" lat="44.80438629" lon="-73.09171134">
    <!-- multiple: "47 Nason Street, Saint Albans, VT" Multiple exact matches in OSM. -->
    <tag k="addr:city" v="Saint Albans"/>
    <tag k="addr:housenumber" v="47"/>
    <tag k="addr:street" v="Nason Street"/>
    <tag k="addr:state" v="VT"/>
    <tag k="ref:vcgi:esiteid" v="240206"/>
  </node>
  <node id="-2007" visible="true" lat="44.80468444" lon="-73.09237376">
    <!-- multiple: "47 Nason Street, Saint Albans, VT" Multiple exact matches in OSM. -->
    <tag k="addr:city" v="Saint Albans"/>
    <tag k="addr:housenumber" v="47"/>
    <tag k="addr:street" v="Nason Street"/>
    <tag k="addr:state" v="VT"/>
    <tag k="ref:vcgi:esiteid" v="240209"/>
  </node>
  <node id="-2008" visible="true" lat="44.80462581" lon="-73.09278867">
    <!-- multiple: "47 Nason Street, Saint Albans, VT" Multiple exact matches in OSM. -->
    <tag k="addr:city" v="Saint Albans"/>
    <tag k="addr:housenumber" v="47"/>
    <tag k="addr:street" v="Nason Street"/>
    <tag k="addr:state" v="VT"/>
    <tag k="ref:vcgi:esiteid" v="240210"/>
  </node>
  <node id="-2009" visible="true" lat="44.80466081" lon="-73.09295697">
    <!-- multiple: "47 Nason Street, Saint Albans, VT" Multiple exact matches in OSM. -->
    <tag k="addr:city" v="Saint Albans"/>
    <tag k="addr:housenumber" v="47"/>
    <tag k="addr:street" v="Nason Street"/>
    <tag k="addr:state" v="VT"/>
    <tag k="ref:vcgi:esiteid" v="240211"/>
  </node>
  <node id="-2010" visible="true" lat="44.80472578" lon="-73.0931088">
    <!-- multiple: "47 Nason Street, Saint Albans, VT" Multiple exact matches in OSM. -->
    <tag k="addr:city" v="Saint Albans"/>
    <tag k="addr:housenumber" v="47"/>
    <tag k="addr:street" v="Nason Street"/>
    <tag k="addr:state" v="VT"/>
    <tag k="ref:vcgi:esiteid" v="240212"/>
  </node>
  <node id="-2011" visible="true" lat="44.8047788" lon="-73.09326049">
    <!-- multiple: "47 Nason Street, Saint Albans, VT" Multiple exact matches in OSM. -->
    <tag k="addr:city" v="Saint Albans"/>
    <tag k="addr:housenumber" v="47"/>
    <tag k="addr:street" v="Nason Street"/>
    <tag k="addr:state" v="VT"/>
    <tag k="ref:vcgi:esiteid" v="240213"/>
  </node>
  <node id="-2090" visible="true" lat="44.80469748" lon="-73.08762507">
    <!-- multiple: "12 Lower Gilman Street, Saint Albans, VT" Multiple exact matches in OSM. -->
    <tag k="addr:city" v="Saint Albans"/>
    <tag k="addr:housenumber" v="12"/>
    <tag k="addr:street" v="Lower Gilman Street"/>
    <tag k="addr:state" v="VT"/>
    <tag k="ref:vcgi:esiteid" v="240297"/>
  </node>
  <node id="-2092" visible="true" lat="44.80221266" lon="-73.08775463">
    <!-- multiple: "171 South Main Street, Saint Albans, VT" Multiple exact matches in OSM. -->
    <tag k="addr:city" v="Saint Albans"/>
    <tag k="addr:housenumber" v="171"/>
    <tag k="addr:street" v="South Main Street"/>
    <tag k="addr:state" v="VT"/>
    <tag k="ref:vcgi:esiteid" v="240299"/>
  </node>
  <node id="-2292" visible="true" lat="44.79797581" lon="-73.09255264">
    <!-- multiple: "248 South Main Street, Saint Albans, VT" Multiple exact matches in OSM. -->
    <tag k="addr:city" v="Saint Albans"/>
    <tag k="addr:housenumber" v="248"/>
    <tag k="addr:street" v="South Main Street"/>
    <tag k="addr:state" v="VT"/>
    <tag k="ref:vcgi:esiteid" v="240504"/>
  </node>
  <node id="-2293" visible="true" lat="44.79802307" lon="-73.09266228">
    <!-- multiple: "248 South Main Street, Saint Albans, VT" Multiple exact matches in OSM. -->
    <tag k="addr:city" v="Saint Albans"/>
    <tag k="addr:housenumber" v="248"/>
    <tag k="addr:street" v="South Main Street"/>
    <tag k="addr:state" v="VT"/>
    <tag k="ref:vcgi:esiteid" v="240505"/>
  </node>
  <node id="-2312" visible="true" lat="44.79541447" lon="-73.09336183">
    <!-- multiple: "287 South Main Street, Saint Albans, VT" Multiple exact matches in OSM. -->
    <tag k="addr:city" v="Saint Albans"/>
    <tag k="addr:housenumber" v="287"/>
    <tag k="addr:street" v="South Main Street"/>
    <tag k="addr:state" v="VT"/>
    <tag k="ref:vcgi:esiteid" v="240524"/>
  </node>
  <node id="-2315" visible="true" lat="44.79508767" lon="-73.09321787">
    <!-- multiple: "287 South Main Street, Saint Albans, VT" Multiple exact matches in OSM. -->
    <tag k="addr:city" v="Saint Albans"/>
    <tag k="addr:housenumber" v="287"/>
    <tag k="addr:street" v="South Main Street"/>
    <tag k="addr:state" v="VT"/>
    <tag k="ref:vcgi:esiteid" v="240527"/>
  </node>
  <node id="-2321" visible="true" lat="44.80399757" lon="-73.09246868">
    <!-- multiple: "47 Nason Street, Saint Albans, VT" Multiple exact matches in OSM. -->
    <tag k="addr:city" v="Saint Albans"/>
    <tag k="addr:housenumber" v="47"/>
    <tag k="addr:street" v="Nason Street"/>
    <tag k="addr:state" v="VT"/>
    <tag k="ref:vcgi:esiteid" v="240538"/>
  </node>
  <node id="-2322" visible="true" lat="44.804023" lon="-73.09211404">
    <!-- multiple: "47 Nason Street, Saint Albans, VT" Multiple exact matches in OSM. -->
    <tag k="addr:city" v="Saint Albans"/>
    <tag k="addr:housenumber" v="47"/>
    <tag k="addr:street" v="Nason Street"/>
    <tag k="addr:state" v="VT"/>
    <tag k="ref:vcgi:esiteid" v="240540"/>
  </node>
  <node id="-2323" visible="true" lat="44.80431258" lon="-73.09242597">
    <!-- multiple: "47 Nason Street, Saint Albans, VT" Multiple exact matches in OSM. -->
    <tag k="addr:city" v="Saint Albans"/>
    <tag k="addr:housenumber" v="47"/>
    <tag k="addr:street" v="Nason Street"/>
    <tag k="addr:state" v="VT"/>
    <tag k="ref:vcgi:esiteid" v="240541"/>
  </node>
  <node id="-2324" visible="true" lat="44.80448423" lon="-73.09241388">
    <!-- multiple: "47 Nason Street, Saint Albans, VT" Multiple exact matches in OSM. -->
    <tag k="addr:city" v="Saint Albans"/>
    <tag k="addr:housenumber" v="47"/>
    <tag k="addr:street" v="Nason Street"/>
    <tag k="addr:state" v="VT"/>
    <tag k="ref:vcgi:esiteid" v="240542"/>
  </node>
  <node id="-2325" visible="true" lat="44.80475539" lon="-73.09199313">
    <!-- multiple: "47 Nason Street, Saint Albans, VT" Multiple exact matches in OSM. -->
    <tag k="addr:city" v="Saint Albans"/>
    <tag k="addr:housenumber" v="47"/>
    <tag k="addr:street" v="Nason Street"/>
    <tag k="addr:state" v="VT"/>
    <tag k="ref:vcgi:esiteid" v="240543"/>
  </node>
  <node id="-2326" visible="true" lat="44.80416116" lon="-73.09191874">
    <!-- multiple: "47 Nason Street, Saint Albans, VT" Multiple exact matches in OSM. -->
    <tag k="addr:city" v="Saint Albans"/>
    <tag k="addr:housenumber" v="47"/>
    <tag k="addr:street" v="Nason Street"/>
    <tag k="addr:state" v="VT"/>
    <tag k="ref:vcgi:esiteid" v="240544"/>
  </node>
  <node id="-2327" visible="true" lat="44.80449728" lon="-73.09206885">
    <!-- multiple: "47 Nason Street, Saint Albans, VT" Multiple exact matches in OSM. -->
    <tag k="addr:city" v="Saint Albans"/>
    <tag k="addr:housenumber" v="47"/>
    <tag k="addr:street" v="Nason Street"/>
    <tag k="addr:state" v="VT"/>
    <tag k="ref:vcgi:esiteid" v="240546"/>
  </node>
  <node id="-2343" visible="true" lat="44.8048717" lon="-73.08742069">
    <!-- multiple: "12 Lower Gilman Street, Saint Albans, VT" Multiple exact matches in OSM. -->
    <tag k="addr:city" v="Saint Albans"/>
    <tag k="addr:housenumber" v="12"/>
    <tag k="addr:street" v="Lower Gilman Street"/>
    <tag k="addr:state" v="VT"/>
    <tag k="ref:vcgi:esiteid" v="240574"/>
  </node>
  <node id="-2515" visible="true" lat="44.82081745" lon="-73.08855757">
    <!-- multiple: "145 North Elm Street, Saint Albans, VT" Multiple exact matches in OSM. -->
    <tag k="addr:city" v="Saint Albans"/>
    <tag k="addr:housenumber" v="145"/>
    <tag k="addr:street" v="North Elm Street"/>
    <tag k="addr:state" v="VT"/>
    <tag k="ref:vcgi:esiteid" v="240865"/>
  </node>
  <node id="-2520" visible="true" lat="44.82071282" lon="-73.08803447">
    <!-- multiple: "145 North Elm Street, Saint Albans, VT" Multiple exact matches in OSM. -->
    <tag k="addr:city" v="Saint Albans"/>
    <tag k="addr:housenumber" v="145"/>
    <tag k="addr:street" v="North Elm Street"/>
    <tag k="addr:state" v="VT"/>
    <tag k="ref:vcgi:esiteid" v="240875"/>
  </node>
  <node id="-2521" visible="true" lat="44.82116835" lon="-73.08770011">
    <!-- multiple: "145 North Elm Street, Saint Albans, VT" Multiple exact matches in OSM. -->
    <tag k="addr:city" v="Saint Albans"/>
    <tag k="addr:housenumber" v="145"/>
    <tag k="addr:street" v="North Elm Street"/>
    <tag k="addr:state" v="VT"/>
    <tag k="ref:vcgi:esiteid" v="240876"/>
  </node>
  <node id="-2522" visible="true" lat="44.8214654" lon="-73.08790757">
    <!-- multiple: "145 North Elm Street, Saint Albans, VT" Multiple exact matches in OSM. -->
    <tag k="addr:city" v="Saint Albans"/>
    <tag k="addr:housenumber" v="145"/>
    <tag k="addr:street" v="North Elm Street"/>
    <tag k="addr:state" v="VT"/>
    <tag k="ref:vcgi:esiteid" v="240877"/>
  </node>
  <node id="-2526" visible="true" lat="44.81504672" lon="-73.09311323">
    <!-- multiple: "128 Pearl Street, Saint Albans, VT" Multiple exact matches in OSM. -->
    <tag k="addr:city" v="Saint Albans"/>
    <tag k="addr:housenumber" v="128"/>
    <tag k="addr:street" v="Pearl Street"/>
    <tag k="addr:state" v="VT"/>
    <tag k="ref:vcgi:esiteid" v="240884"/>
  </node>
  <node id="-2527" visible="true" lat="44.81469679" lon="-73.09320957">
    <!-- multiple: "128 Pearl Street, Saint Albans, VT" Multiple exact matches in OSM. -->
    <tag k="addr:city" v="Saint Albans"/>
    <tag k="addr:housenumber" v="128"/>
    <tag k="addr:street" v="Pearl Street"/>
    <tag k="addr:state" v="VT"/>
    <tag k="ref:vcgi:esiteid" v="240885"/>
  </node>
  <node id="-2528" visible="true" lat="44.81466096" lon="-73.09342891">
    <!-- multiple: "128 Pearl Street, Saint Albans, VT" Multiple exact matches in OSM. -->
    <tag k="addr:city" v="Saint Albans"/>
    <tag k="addr:housenumber" v="128"/>
    <tag k="addr:street" v="Pearl Street"/>
    <tag k="addr:state" v="VT"/>
    <tag k="ref:vcgi:esiteid" v="240886"/>
  </node>
  <node id="-2579" visible="true" lat="44.8073865" lon="-73.09388712">
    <!-- multiple: "100 Lower Welden Street, Saint Albans, VT" Multiple exact matches in OSM. -->
    <tag k="addr:city" v="Saint Albans"/>
    <tag k="addr:housenumber" v="100"/>
    <tag k="addr:street" v="Lower Welden Street"/>
    <tag k="addr:state" v="VT"/>
    <tag k="ref:vcgi:esiteid" v="240976"/>
  </node>
  <node id="-2580" visible="true" lat="44.80790353" lon="-73.09367454">
    <!-- multiple: "100 Lower Welden Street, Saint Albans, VT" Multiple exact matches in OSM. -->
    <tag k="addr:city" v="Saint Albans"/>
    <tag k="addr:housenumber" v="100"/>
    <tag k="addr:street" v="Lower Welden Street"/>
    <tag k="addr:state" v="VT"/>
    <tag k="ref:vcgi:esiteid" v="240977"/>
  </node>
  <node id="-2581" visible="true" lat="44.80807114" lon="-73.09331305">
    <!-- multiple: "94 Lower Welden Street, Saint Albans, VT" Multiple exact matches in OSM. -->
    <tag k="addr:city" v="Saint Albans"/>
    <tag k="addr:housenumber" v="94"/>
    <tag k="addr:street" v="Lower Welden Street"/>
    <tag k="addr:state" v="VT"/>
    <tag k="ref:vcgi:esiteid" v="240978"/>
  </node>
  <node id="-2582" visible="true" lat="44.80771486" lon="-73.09324893">
    <!-- multiple: "94 Lower Welden Street, Saint Albans, VT" Multiple exact matches in OSM. -->
    <tag k="addr:city" v="Saint Albans"/>
    <tag k="addr:housenumber" v="94"/>
    <tag k="addr:street" v="Lower Welden Street"/>
    <tag k="addr:state" v="VT"/>
    <tag k="ref:vcgi:esiteid" v="240979"/>
  </node>
  <node id="-2583" visible="true" lat="44.80749046" lon="-73.09333903">
    <!-- multiple: "94 Lower Welden Street, Saint Albans, VT" Multiple exact matches in OSM. -->
    <tag k="addr:city" v="Saint Albans"/>
    <tag k="addr:housenumber" v="94"/>
    <tag k="addr:street" v="Lower Welden Street"/>
    <tag k="addr:state" v="VT"/>
    <tag k="ref:vcgi:esiteid" v="240980"/>
  </node>
  <node id="-2584" visible="true" lat="44.80730794" lon="-73.09340575">
    <!-- multiple: "94 Lower Welden Street, Saint Albans, VT" Multiple exact matches in OSM. -->
    <tag k="addr:city" v="Saint Albans"/>
    <tag k="addr:housenumber" v="94"/>
    <tag k="addr:street" v="Lower Welden Street"/>
    <tag k="addr:state" v="VT"/>
    <tag k="ref:vcgi:esiteid" v="240981"/>
  </node>
  <node id="-2585" visible="true" lat="44.80769242" lon="-73.09277272">
    <!-- multiple: "94 Lower Welden Street, Saint Albans, VT" Multiple exact matches in OSM. -->
    <tag k="addr:city" v="Saint Albans"/>
    <tag k="addr:housenumber" v="94"/>
    <tag k="addr:street" v="Lower Welden Street"/>
    <tag k="addr:state" v="VT"/>
    <tag k="ref:vcgi:esiteid" v="240983"/>
  </node>
  <node id="-2586" visible="true" lat="44.80804619" lon="-73.09277635">
    <!-- multiple: "94 Lower Welden Street, Saint Albans, VT" Multiple exact matches in OSM. -->
    <tag k="addr:city" v="Saint Albans"/>
    <tag k="addr:housenumber" v="94"/>
    <tag k="addr:street" v="Lower Welden Street"/>
    <tag k="addr:state" v="VT"/>
    <tag k="ref:vcgi:esiteid" v="240984"/>
  </node>
  <node id="-2614" visible="true" lat="44.81158734" lon="-73.0836583">
    <!-- multiple: "30 North Main Street, Saint Albans, VT" Multiple exact matches in OSM. -->
    <tag k="addr:city" v="Saint Albans"/>
    <tag k="addr:housenumber" v="30"/>
    <tag k="addr:street" v="North Main Street"/>
    <tag k="addr:state" v="VT"/>
    <tag k="ref:vcgi:esiteid" v="241016"/>
  </node>
  <node id="-2648" visible="true" lat="44.80946012" lon="-73.07139171">
    <!-- multiple: "260 Crest Road, Saint Albans, VT" Multiple exact matches in OSM. -->
    <tag k="addr:city" v="Saint Albans"/>
    <tag k="addr:housenumber" v="260"/>
    <tag k="addr:street" v="Crest Road"/>
    <tag k="addr:state" v="VT"/>
    <tag k="ref:vcgi:esiteid" v="241053"/>
  </node>
  <node id="-2672" visible="true" lat="44.81309028" lon="-73.08915908">
    <!-- multiple: "29 Maple Street, Saint Albans, VT" Multiple exact matches in OSM. -->
    <tag k="addr:city" v="Saint Albans"/>
    <tag k="addr:housenumber" v="29"/>
    <tag k="addr:street" v="Maple Street"/>
    <tag k="addr:state" v="VT"/>
    <tag k="ref:vcgi:esiteid" v="241080"/>
  </node>
</osm>
