<?xml version="1.0" encoding="UTF-8"?>
<osm version="0.6" generator="JOSM" upload="false">
  <node id="-235" visible="true" lat="43.79987502" lon="-72.45867861">
    <!-- multiple: "1298 Fay Brook Road, , VT" Multiple exact matches in OSM. -->
    <tag k="addr:housenumber" v="1298"/>
    <tag k="addr:street" v="Fay Brook Road"/>
    <tag k="addr:state" v="VT"/>
    <tag k="ref:vcgi:esiteid" v="219247"/>
  </node>
  <node id="-262" visible="true" lat="43.79803359" lon="-72.41071582">
    <!-- multiple: "674 Beaver Meadow Road, , VT" Multiple exact matches in OSM. -->
    <tag k="addr:housenumber" v="674"/>
    <tag k="addr:street" v="Beaver Meadow Road"/>
    <tag k="addr:state" v="VT"/>
    <tag k="ref:vcgi:esiteid" v="219275"/>
  </node>
  <node id="-371" visible="true" lat="43.78693645" lon="-72.45185256">
    <!-- multiple: "209 Route 132, , VT" Multiple exact matches in OSM. -->
    <tag k="addr:housenumber" v="209"/>
    <tag k="addr:street" v="Route 132"/>
    <tag k="addr:state" v="VT"/>
    <tag k="ref:vcgi:esiteid" v="219387"/>
  </node>
  <node id="-372" visible="true" lat="43.78664308" lon="-72.45078569">
    <!-- multiple: "244 Route 132, , VT" Multiple exact matches in OSM. -->
    <tag k="addr:housenumber" v="244"/>
    <tag k="addr:street" v="Route 132"/>
    <tag k="addr:state" v="VT"/>
    <tag k="ref:vcgi:esiteid" v="219389"/>
  </node>
  <node id="-592" visible="true" lat="43.7483619" lon="-72.44470515">
    <!-- multiple: "2094 Vermont Route 14, , VT" Multiple exact matches in OSM. -->
    <tag k="addr:housenumber" v="2094"/>
    <tag k="addr:street" v="Vermont Route 14"/>
    <tag k="addr:state" v="VT"/>
    <tag k="ref:vcgi:esiteid" v="219625"/>
  </node>
  <node id="-598" visible="true" lat="43.7463697" lon="-72.44475985">
    <!-- multiple: "1995 Vermont Route 14, , VT" Multiple exact matches in OSM. -->
    <tag k="addr:housenumber" v="1995"/>
    <tag k="addr:street" v="Vermont Route 14"/>
    <tag k="addr:state" v="VT"/>
    <tag k="ref:vcgi:esiteid" v="219631"/>
  </node>
  <node id="-611" visible="true" lat="43.7430598" lon="-72.44129465">
    <!-- multiple: "1700 Vermont Route 14, , VT" Multiple exact matches in OSM. -->
    <tag k="addr:housenumber" v="1700"/>
    <tag k="addr:street" v="Vermont Route 14"/>
    <tag k="addr:state" v="VT"/>
    <tag k="ref:vcgi:esiteid" v="219646"/>
  </node>
  <node id="-818" visible="true" lat="43.82630526" lon="-72.41562887">
    <!-- multiple: "601 Old Orchard Road, , VT" Multiple exact matches in OSM. -->
    <tag k="addr:housenumber" v="601"/>
    <tag k="addr:street" v="Old Orchard Road"/>
    <tag k="addr:state" v="VT"/>
    <tag k="ref:vcgi:esiteid" v="449785"/>
  </node>
  <node id="-860" visible="true" lat="43.82008267" lon="-72.38464384">
    <!-- multiple: "275 Star Mountain Road, , VT" Multiple exact matches in OSM. -->
    <tag k="addr:housenumber" v="275"/>
    <tag k="addr:street" v="Star Mountain Road"/>
    <tag k="addr:state" v="VT"/>
    <tag k="ref:vcgi:esiteid" v="452224"/>
  </node>
  <node id="-869" visible="true" lat="43.78951406" lon="-72.49327605">
    <!-- multiple: "51 Commerce Park, , VT" Multiple exact matches in OSM. -->
    <tag k="addr:housenumber" v="51"/>
    <tag k="addr:street" v="Commerce Park"/>
    <tag k="addr:state" v="VT"/>
    <tag k="ref:vcgi:esiteid" v="454846"/>
  </node>
</osm>
