<?xml version="1.0" encoding="UTF-8"?>
<osm version="0.6" generator="JOSM" upload="false">
  <node id="-816" visible="true" lat="44.15972394" lon="-73.01030984">
    <!-- offset: "3825 Quaker Street, , VT" Significant offset - 182m -->
    <tag k="addr:housenumber" v="3825"/>
    <tag k="addr:street" v="Quaker Street"/>
    <tag k="addr:state" v="VT"/>
    <tag k="ref:vcgi:esiteid" v="248654"/>
  </node>
  <node id="-1020" visible="true" lat="44.16113391" lon="-72.98481412">
    <!-- offset: "635 Russell Young Road, , VT" Significant offset - 451.2m -->
    <tag k="addr:housenumber" v="635"/>
    <tag k="addr:street" v="Russell Young Road"/>
    <tag k="addr:state" v="VT"/>
    <tag k="ref:vcgi:esiteid" v="451823"/>
  </node>
  <node id="-1073" visible="true" lat="44.17072337" lon="-73.01647086">
    <!-- offset: "687 Dan Sargent Road, , VT" Significant offset - 395.5m -->
    <tag k="addr:housenumber" v="687"/>
    <tag k="addr:street" v="Dan Sargent Road"/>
    <tag k="addr:state" v="VT"/>
    <tag k="ref:vcgi:esiteid" v="764381"/>
  </node>
  <node id="-1087" visible="true" lat="44.21875863" lon="-73.0271946">
    <!-- offset: "1229 Carp Cole Road, , VT" Significant offset - 532m -->
    <tag k="addr:housenumber" v="1229"/>
    <tag k="addr:street" v="Carp Cole Road"/>
    <tag k="addr:state" v="VT"/>
    <tag k="ref:vcgi:esiteid" v="772744"/>
  </node>
</osm>
