<?xml version="1.0" encoding="UTF-8"?>
<osm version="0.6" generator="JOSM" upload="false">
  <node id="-100" visible="true" lat="44.92515794" lon="-73.09673795">
    <!-- multiple: "26 Vermont Route 78, , VT" Multiple exact matches in OSM. -->
    <tag k="addr:housenumber" v="26"/>
    <tag k="addr:street" v="Vermont Route 78"/>
    <tag k="addr:state" v="VT"/>
    <tag k="ref:vcgi:esiteid" v="127966"/>
  </node>
  <node id="-110" visible="true" lat="44.92548586" lon="-73.09787305">
    <!-- multiple: "4 Vermont Route 78, , VT" Multiple exact matches in OSM. -->
    <tag k="addr:housenumber" v="4"/>
    <tag k="addr:street" v="Vermont Route 78"/>
    <tag k="addr:state" v="VT"/>
    <tag k="ref:vcgi:esiteid" v="254793"/>
  </node>
  <node id="-111" visible="true" lat="44.87146389" lon="-73.15126133">
    <!-- multiple: "61 Lord Road, , VT" Multiple exact matches in OSM. -->
    <tag k="addr:housenumber" v="61"/>
    <tag k="addr:street" v="Lord Road"/>
    <tag k="addr:state" v="VT"/>
    <tag k="ref:vcgi:esiteid" v="254794"/>
  </node>
  <node id="-283" visible="true" lat="44.97031174" lon="-73.1969773">
    <!-- multiple: "752 North River Street, , VT" Multiple exact matches in OSM. -->
    <tag k="addr:housenumber" v="752"/>
    <tag k="addr:street" v="North River Street"/>
    <tag k="addr:state" v="VT"/>
    <tag k="ref:vcgi:esiteid" v="254976"/>
  </node>
  <node id="-284" visible="true" lat="44.97055371" lon="-73.19731563">
    <!-- multiple: "752 North River Street, , VT" Multiple exact matches in OSM. -->
    <tag k="addr:housenumber" v="752"/>
    <tag k="addr:street" v="North River Street"/>
    <tag k="addr:state" v="VT"/>
    <tag k="ref:vcgi:esiteid" v="254977"/>
  </node>
  <node id="-607" visible="true" lat="44.9290116" lon="-73.21412283">
    <!-- multiple: "74 Champlain Street, , VT" Multiple exact matches in OSM. -->
    <tag k="addr:housenumber" v="74"/>
    <tag k="addr:street" v="Champlain Street"/>
    <tag k="addr:state" v="VT"/>
    <tag k="ref:vcgi:esiteid" v="255305"/>
  </node>
  <node id="-638" visible="true" lat="44.92913071" lon="-73.21449955">
    <!-- multiple: "91 Lakewood Campground Main Street, , VT" Multiple exact matches in OSM. -->
    <tag k="addr:housenumber" v="91"/>
    <tag k="addr:street" v="Lakewood Campground Main Street"/>
    <tag k="addr:state" v="VT"/>
    <tag k="ref:vcgi:esiteid" v="255336"/>
  </node>
  <node id="-1666" visible="true" lat="44.91558355" lon="-73.12438493">
    <!-- multiple: "32 Church Street, , VT" Multiple exact matches in OSM. -->
    <tag k="addr:housenumber" v="32"/>
    <tag k="addr:street" v="Church Street"/>
    <tag k="addr:state" v="VT"/>
    <tag k="ref:vcgi:esiteid" v="256379"/>
  </node>
  <node id="-1667" visible="true" lat="44.91576219" lon="-73.12393785">
    <!-- multiple: "32 Church Street, , VT" Multiple exact matches in OSM. -->
    <tag k="addr:housenumber" v="32"/>
    <tag k="addr:street" v="Church Street"/>
    <tag k="addr:state" v="VT"/>
    <tag k="ref:vcgi:esiteid" v="256380"/>
  </node>
  <node id="-1690" visible="true" lat="44.91750334" lon="-73.11899724">
    <!-- multiple: "36 Greenwich Street, , VT" Multiple exact matches in OSM. -->
    <tag k="addr:housenumber" v="36"/>
    <tag k="addr:street" v="Greenwich Street"/>
    <tag k="addr:state" v="VT"/>
    <tag k="ref:vcgi:esiteid" v="256403"/>
  </node>
  <node id="-1691" visible="true" lat="44.9171158" lon="-73.11933488">
    <!-- multiple: "38 Greenwich Street, , VT" Multiple exact matches in OSM. -->
    <tag k="addr:housenumber" v="38"/>
    <tag k="addr:street" v="Greenwich Street"/>
    <tag k="addr:state" v="VT"/>
    <tag k="ref:vcgi:esiteid" v="256404"/>
  </node>
  <node id="-1717" visible="true" lat="44.91780137" lon="-73.11869572">
    <!-- multiple: "37 Greenwich Street, , VT" Multiple exact matches in OSM. -->
    <tag k="addr:housenumber" v="37"/>
    <tag k="addr:street" v="Greenwich Street"/>
    <tag k="addr:state" v="VT"/>
    <tag k="ref:vcgi:esiteid" v="256431"/>
  </node>
  <node id="-1729" visible="true" lat="44.91881115" lon="-73.1176566">
    <!-- multiple: "35 New Street, , VT" Multiple exact matches in OSM. -->
    <tag k="addr:housenumber" v="35"/>
    <tag k="addr:street" v="New Street"/>
    <tag k="addr:state" v="VT"/>
    <tag k="ref:vcgi:esiteid" v="256443"/>
  </node>
  <node id="-1730" visible="true" lat="44.91872098" lon="-73.11763445">
    <!-- multiple: "35 New Street, , VT" Multiple exact matches in OSM. -->
    <tag k="addr:housenumber" v="35"/>
    <tag k="addr:street" v="New Street"/>
    <tag k="addr:state" v="VT"/>
    <tag k="ref:vcgi:esiteid" v="256444"/>
  </node>
  <node id="-1731" visible="true" lat="44.91854096" lon="-73.11753369">
    <!-- multiple: "35 New Street, , VT" Multiple exact matches in OSM. -->
    <tag k="addr:housenumber" v="35"/>
    <tag k="addr:street" v="New Street"/>
    <tag k="addr:state" v="VT"/>
    <tag k="ref:vcgi:esiteid" v="256445"/>
  </node>
  <node id="-1732" visible="true" lat="44.91847862" lon="-73.11700357">
    <!-- multiple: "37 New Street, , VT" Multiple exact matches in OSM. -->
    <tag k="addr:housenumber" v="37"/>
    <tag k="addr:street" v="New Street"/>
    <tag k="addr:state" v="VT"/>
    <tag k="ref:vcgi:esiteid" v="256446"/>
  </node>
  <node id="-1733" visible="true" lat="44.91839853" lon="-73.11697448">
    <!-- multiple: "37 New Street, , VT" Multiple exact matches in OSM. -->
    <tag k="addr:housenumber" v="37"/>
    <tag k="addr:street" v="New Street"/>
    <tag k="addr:state" v="VT"/>
    <tag k="ref:vcgi:esiteid" v="256447"/>
  </node>
  <node id="-1734" visible="true" lat="44.91829822" lon="-73.1169734">
    <!-- multiple: "37 New Street, , VT" Multiple exact matches in OSM. -->
    <tag k="addr:housenumber" v="37"/>
    <tag k="addr:street" v="New Street"/>
    <tag k="addr:state" v="VT"/>
    <tag k="ref:vcgi:esiteid" v="256448"/>
  </node>
  <node id="-1757" visible="true" lat="44.92226785" lon="-73.11022139">
    <!-- multiple: "165 First Street, , VT" Multiple exact matches in OSM. -->
    <tag k="addr:housenumber" v="165"/>
    <tag k="addr:street" v="First Street"/>
    <tag k="addr:state" v="VT"/>
    <tag k="ref:vcgi:esiteid" v="256471"/>
  </node>
  <node id="-1758" visible="true" lat="44.92141117" lon="-73.10974515">
    <!-- multiple: "166 First Street, , VT" Multiple exact matches in OSM. -->
    <tag k="addr:housenumber" v="166"/>
    <tag k="addr:street" v="First Street"/>
    <tag k="addr:state" v="VT"/>
    <tag k="ref:vcgi:esiteid" v="256472"/>
  </node>
  <node id="-2043" visible="true" lat="44.90636175" lon="-73.14335401">
    <!-- multiple: "144 Middle Road, , VT" Multiple exact matches in OSM. -->
    <tag k="addr:housenumber" v="144"/>
    <tag k="addr:street" v="Middle Road"/>
    <tag k="addr:state" v="VT"/>
    <tag k="ref:vcgi:esiteid" v="256767"/>
  </node>
  <node id="-2228" visible="true" lat="44.89618746" lon="-73.08587385">
    <!-- multiple: "38 Woods Hill Road, , VT" Multiple exact matches in OSM. -->
    <tag k="addr:housenumber" v="38"/>
    <tag k="addr:street" v="Woods Hill Road"/>
    <tag k="addr:state" v="VT"/>
    <tag k="ref:vcgi:esiteid" v="256954"/>
  </node>
  <node id="-2361" visible="true" lat="44.86572806" lon="-73.03210345">
    <!-- multiple: "2134 Sheldon Road, , VT" Multiple exact matches in OSM. -->
    <tag k="addr:housenumber" v="2134"/>
    <tag k="addr:street" v="Sheldon Road"/>
    <tag k="addr:state" v="VT"/>
    <tag k="ref:vcgi:esiteid" v="257089"/>
  </node>
  <node id="-2362" visible="true" lat="44.86595821" lon="-73.03253244">
    <!-- multiple: "2134 Sheldon Road, , VT" Multiple exact matches in OSM. -->
    <tag k="addr:housenumber" v="2134"/>
    <tag k="addr:street" v="Sheldon Road"/>
    <tag k="addr:state" v="VT"/>
    <tag k="ref:vcgi:esiteid" v="257090"/>
  </node>
  <node id="-2593" visible="true" lat="44.90303767" lon="-73.11212946">
    <!-- multiple: "65 Demers Drive, , VT" Multiple exact matches in OSM. -->
    <tag k="addr:housenumber" v="65"/>
    <tag k="addr:street" v="Demers Drive"/>
    <tag k="addr:state" v="VT"/>
    <tag k="ref:vcgi:esiteid" v="257327"/>
  </node>
  <node id="-2893" visible="true" lat="44.86636244" lon="-73.09907306">
    <!-- multiple: "1 Sunset Terrace, , VT" Multiple exact matches in OSM. -->
    <tag k="addr:housenumber" v="1"/>
    <tag k="addr:street" v="Sunset Terrace"/>
    <tag k="addr:state" v="VT"/>
    <tag k="ref:vcgi:esiteid" v="257629"/>
  </node>
  <node id="-2894" visible="true" lat="44.86624122" lon="-73.09904335">
    <!-- multiple: "2 Sunset Terrace, , VT" Multiple exact matches in OSM. -->
    <tag k="addr:housenumber" v="2"/>
    <tag k="addr:street" v="Sunset Terrace"/>
    <tag k="addr:state" v="VT"/>
    <tag k="ref:vcgi:esiteid" v="257630"/>
  </node>
  <node id="-2895" visible="true" lat="44.8661505" lon="-73.09898552">
    <!-- multiple: "3 Sunset Terrace, , VT" Multiple exact matches in OSM. -->
    <tag k="addr:housenumber" v="3"/>
    <tag k="addr:street" v="Sunset Terrace"/>
    <tag k="addr:state" v="VT"/>
    <tag k="ref:vcgi:esiteid" v="257631"/>
  </node>
  <node id="-2896" visible="true" lat="44.86592837" lon="-73.09891211">
    <!-- multiple: "4 Sunset Terrace, , VT" Multiple exact matches in OSM. -->
    <tag k="addr:housenumber" v="4"/>
    <tag k="addr:street" v="Sunset Terrace"/>
    <tag k="addr:state" v="VT"/>
    <tag k="ref:vcgi:esiteid" v="257632"/>
  </node>
  <node id="-2897" visible="true" lat="44.86580731" lon="-73.09885397">
    <!-- multiple: "5 Sunset Terrace, , VT" Multiple exact matches in OSM. -->
    <tag k="addr:housenumber" v="5"/>
    <tag k="addr:street" v="Sunset Terrace"/>
    <tag k="addr:state" v="VT"/>
    <tag k="ref:vcgi:esiteid" v="257633"/>
  </node>
  <node id="-2898" visible="true" lat="44.86557087" lon="-73.09861685">
    <!-- multiple: "7 Sunset Terrace, , VT" Multiple exact matches in OSM. -->
    <tag k="addr:housenumber" v="7"/>
    <tag k="addr:street" v="Sunset Terrace"/>
    <tag k="addr:state" v="VT"/>
    <tag k="ref:vcgi:esiteid" v="257634"/>
  </node>
  <node id="-2899" visible="true" lat="44.86537377" lon="-73.09859348">
    <!-- multiple: "8 Sunset Terrace, , VT" Multiple exact matches in OSM. -->
    <tag k="addr:housenumber" v="8"/>
    <tag k="addr:street" v="Sunset Terrace"/>
    <tag k="addr:state" v="VT"/>
    <tag k="ref:vcgi:esiteid" v="257635"/>
  </node>
  <node id="-2900" visible="true" lat="44.86512636" lon="-73.0985198">
    <!-- multiple: "9 Sunset Terrace, , VT" Multiple exact matches in OSM. -->
    <tag k="addr:housenumber" v="9"/>
    <tag k="addr:street" v="Sunset Terrace"/>
    <tag k="addr:state" v="VT"/>
    <tag k="ref:vcgi:esiteid" v="257636"/>
  </node>
  <node id="-2901" visible="true" lat="44.86495454" lon="-73.09849669">
    <!-- multiple: "10 Sunset Terrace, , VT" Multiple exact matches in OSM. -->
    <tag k="addr:housenumber" v="10"/>
    <tag k="addr:street" v="Sunset Terrace"/>
    <tag k="addr:state" v="VT"/>
    <tag k="ref:vcgi:esiteid" v="257637"/>
  </node>
  <node id="-2902" visible="true" lat="44.86466671" lon="-73.09841549">
    <!-- multiple: "11 Sunset Terrace, , VT" Multiple exact matches in OSM. -->
    <tag k="addr:housenumber" v="11"/>
    <tag k="addr:street" v="Sunset Terrace"/>
    <tag k="addr:state" v="VT"/>
    <tag k="ref:vcgi:esiteid" v="257638"/>
  </node>
  <node id="-2911" visible="true" lat="44.86450326" lon="-73.09836876">
    <!-- multiple: "12 Sunset Terrace, , VT" Multiple exact matches in OSM. -->
    <tag k="addr:housenumber" v="12"/>
    <tag k="addr:street" v="Sunset Terrace"/>
    <tag k="addr:state" v="VT"/>
    <tag k="ref:vcgi:esiteid" v="257647"/>
  </node>
  <node id="-2912" visible="true" lat="44.86429126" lon="-73.09832765">
    <!-- multiple: "13 Sunset Terrace, , VT" Multiple exact matches in OSM. -->
    <tag k="addr:housenumber" v="13"/>
    <tag k="addr:street" v="Sunset Terrace"/>
    <tag k="addr:state" v="VT"/>
    <tag k="ref:vcgi:esiteid" v="257648"/>
  </node>
  <node id="-2913" visible="true" lat="44.86399189" lon="-73.09823373">
    <!-- multiple: "14 Sunset Terrace, , VT" Multiple exact matches in OSM. -->
    <tag k="addr:housenumber" v="14"/>
    <tag k="addr:street" v="Sunset Terrace"/>
    <tag k="addr:state" v="VT"/>
    <tag k="ref:vcgi:esiteid" v="257649"/>
  </node>
  <node id="-3198" visible="true" lat="44.90660849" lon="-73.14327223">
    <!-- multiple: "144 Middle Road, , VT" Multiple exact matches in OSM. -->
    <tag k="addr:housenumber" v="144"/>
    <tag k="addr:street" v="Middle Road"/>
    <tag k="addr:state" v="VT"/>
    <tag k="ref:vcgi:esiteid" v="257943"/>
  </node>
  <node id="-3286" visible="true" lat="44.91765502" lon="-73.11908523">
    <!-- multiple: "36 Greenwich Street, , VT" Multiple exact matches in OSM. -->
    <tag k="addr:housenumber" v="36"/>
    <tag k="addr:street" v="Greenwich Street"/>
    <tag k="addr:state" v="VT"/>
    <tag k="ref:vcgi:esiteid" v="258093"/>
  </node>
  <node id="-3287" visible="true" lat="44.91758291" lon="-73.11816916">
    <!-- multiple: "37 Greenwich Street, , VT" Multiple exact matches in OSM. -->
    <tag k="addr:housenumber" v="37"/>
    <tag k="addr:street" v="Greenwich Street"/>
    <tag k="addr:state" v="VT"/>
    <tag k="ref:vcgi:esiteid" v="258094"/>
  </node>
  <node id="-3288" visible="true" lat="44.91724285" lon="-73.11881511">
    <!-- multiple: "38 Greenwich Street, , VT" Multiple exact matches in OSM. -->
    <tag k="addr:housenumber" v="38"/>
    <tag k="addr:street" v="Greenwich Street"/>
    <tag k="addr:state" v="VT"/>
    <tag k="ref:vcgi:esiteid" v="258095"/>
  </node>
  <node id="-3305" visible="true" lat="44.91833486" lon="-73.11743747">
    <!-- multiple: "37 New Street, , VT" Multiple exact matches in OSM. -->
    <tag k="addr:housenumber" v="37"/>
    <tag k="addr:street" v="New Street"/>
    <tag k="addr:state" v="VT"/>
    <tag k="ref:vcgi:esiteid" v="258115"/>
  </node>
  <node id="-3306" visible="true" lat="44.91824237" lon="-73.11694021">
    <!-- multiple: "37 New Street, , VT" Multiple exact matches in OSM. -->
    <tag k="addr:housenumber" v="37"/>
    <tag k="addr:street" v="New Street"/>
    <tag k="addr:state" v="VT"/>
    <tag k="ref:vcgi:esiteid" v="258116"/>
  </node>
  <node id="-3307" visible="true" lat="44.91862169" lon="-73.11759886">
    <!-- multiple: "35 New Street, , VT" Multiple exact matches in OSM. -->
    <tag k="addr:housenumber" v="35"/>
    <tag k="addr:street" v="New Street"/>
    <tag k="addr:state" v="VT"/>
    <tag k="ref:vcgi:esiteid" v="258118"/>
  </node>
  <node id="-3427" visible="true" lat="44.86572439" lon="-73.09876012">
    <!-- multiple: "6 Sunset Terrace, , VT" Multiple exact matches in OSM. -->
    <tag k="addr:housenumber" v="6"/>
    <tag k="addr:street" v="Sunset Terrace"/>
    <tag k="addr:state" v="VT"/>
    <tag k="ref:vcgi:esiteid" v="258273"/>
  </node>
  <node id="-4230" visible="true" lat="44.92926488" lon="-73.21440297">
    <!-- multiple: "91 Lakewood Campground Main Street, , VT" Multiple exact matches in OSM. -->
    <tag k="addr:housenumber" v="91"/>
    <tag k="addr:street" v="Lakewood Campground Main Street"/>
    <tag k="addr:state" v="VT"/>
    <tag k="ref:vcgi:esiteid" v="771924"/>
  </node>
</osm>
