<?xml version="1.0" encoding="UTF-8"?>
<osm version="0.6" generator="JOSM" upload="false">
  <node id="-107" visible="true" lat="43.96492438" lon="-72.51095099">
    <!-- offset: "3400 Chelsea Mountain Road, , VT" Significant offset - 161.5m -->
    <tag k="addr:housenumber" v="3400"/>
    <tag k="addr:street" v="Chelsea Mountain Road"/>
    <tag k="addr:state" v="VT"/>
    <tag k="ref:vcgi:esiteid" v="262623"/>
  </node>
  <node id="-573" visible="true" lat="43.87804866" lon="-72.55004459">
    <!-- offset: "46 Clay White Hill Road, , VT" Significant offset - 158.9m -->
    <tag k="addr:housenumber" v="46"/>
    <tag k="addr:street" v="Clay White Hill Road"/>
    <tag k="addr:state" v="VT"/>
    <tag k="ref:vcgi:esiteid" v="263102"/>
  </node>
  <node id="-675" visible="true" lat="43.86827133" lon="-72.50989638">
    <!-- offset: "82 Russell Road, , VT" Significant offset - 670m -->
    <tag k="addr:housenumber" v="82"/>
    <tag k="addr:street" v="Russell Road"/>
    <tag k="addr:state" v="VT"/>
    <tag k="ref:vcgi:esiteid" v="263211"/>
  </node>
  <node id="-712" visible="true" lat="43.85416064" lon="-72.50413075">
    <!-- offset: "15 Vermont Route 110, , VT" Significant offset - 3543m -->
    <tag k="addr:housenumber" v="15"/>
    <tag k="addr:street" v="Vermont Route 110"/>
    <tag k="addr:state" v="VT"/>
    <tag k="ref:vcgi:esiteid" v="263249"/>
  </node>
</osm>
