<?xml version="1.0" encoding="UTF-8"?>
<osm version="0.6" generator="JOSM" upload="false">
  <node id="-107" visible="true" lat="44.17348723" lon="-73.2422741">
    <!-- multiple: "115 Monkton Road, Vergennes, VT" Multiple exact matches in OSM. -->
    <tag k="addr:city" v="Vergennes"/>
    <tag k="addr:housenumber" v="115"/>
    <tag k="addr:street" v="Monkton Road"/>
    <tag k="addr:state" v="VT"/>
    <tag k="ref:vcgi:esiteid" v="108063"/>
  </node>
  <node id="-172" visible="true" lat="44.17118716" lon="-73.24799412">
    <!-- multiple: "65 Main Street, Vergennes, VT" Multiple exact matches in OSM. -->
    <tag k="addr:city" v="Vergennes"/>
    <tag k="addr:housenumber" v="65"/>
    <tag k="addr:street" v="Main Street"/>
    <tag k="addr:state" v="VT"/>
    <tag k="ref:vcgi:esiteid" v="264508"/>
  </node>
  <node id="-214" visible="true" lat="44.17018735" lon="-73.24314498">
    <!-- multiple: "50 Monkton Road, Vergennes, VT" Multiple exact matches in OSM. -->
    <tag k="addr:city" v="Vergennes"/>
    <tag k="addr:housenumber" v="50"/>
    <tag k="addr:street" v="Monkton Road"/>
    <tag k="addr:state" v="VT"/>
    <tag k="ref:vcgi:esiteid" v="264550"/>
  </node>
  <node id="-259" visible="true" lat="44.16863517" lon="-73.25094236">
    <!-- multiple: "120 Main Street, Vergennes, VT" Multiple exact matches in OSM. -->
    <tag k="addr:city" v="Vergennes"/>
    <tag k="addr:housenumber" v="120"/>
    <tag k="addr:street" v="Main Street"/>
    <tag k="addr:state" v="VT"/>
    <tag k="ref:vcgi:esiteid" v="264595"/>
  </node>
  <node id="-281" visible="true" lat="44.16767433" lon="-73.25194034">
    <!-- multiple: "185 Main Street, Vergennes, VT" Multiple exact matches in OSM. -->
    <tag k="addr:city" v="Vergennes"/>
    <tag k="addr:housenumber" v="185"/>
    <tag k="addr:street" v="Main Street"/>
    <tag k="addr:state" v="VT"/>
    <tag k="ref:vcgi:esiteid" v="264618"/>
  </node>
  <node id="-290" visible="true" lat="44.1676383" lon="-73.2514471">
    <!-- multiple: "7 Green Street, Vergennes, VT" Multiple exact matches in OSM. -->
    <tag k="addr:city" v="Vergennes"/>
    <tag k="addr:housenumber" v="7"/>
    <tag k="addr:street" v="Green Street"/>
    <tag k="addr:state" v="VT"/>
    <tag k="ref:vcgi:esiteid" v="264628"/>
  </node>
  <node id="-308" visible="true" lat="44.16683959" lon="-73.24799346">
    <!-- multiple: "43 East Street, Vergennes, VT" Multiple exact matches in OSM. -->
    <tag k="addr:city" v="Vergennes"/>
    <tag k="addr:housenumber" v="43"/>
    <tag k="addr:street" v="East Street"/>
    <tag k="addr:state" v="VT"/>
    <tag k="ref:vcgi:esiteid" v="264649"/>
  </node>
  <node id="-311" visible="true" lat="44.16672897" lon="-73.2540512">
    <!-- multiple: "2 South Water Street, Vergennes, VT" Multiple exact matches in OSM. -->
    <tag k="addr:city" v="Vergennes"/>
    <tag k="addr:housenumber" v="2"/>
    <tag k="addr:street" v="South Water Street"/>
    <tag k="addr:state" v="VT"/>
    <tag k="ref:vcgi:esiteid" v="264652"/>
  </node>
  <node id="-430" visible="true" lat="44.16462268" lon="-73.24599947">
    <!-- multiple: "30 New Haven Road, Vergennes, VT" Multiple exact matches in OSM. -->
    <tag k="addr:city" v="Vergennes"/>
    <tag k="addr:housenumber" v="30"/>
    <tag k="addr:street" v="New Haven Road"/>
    <tag k="addr:state" v="VT"/>
    <tag k="ref:vcgi:esiteid" v="264775"/>
  </node>
  <node id="-438" visible="true" lat="44.16449446" lon="-73.24537713">
    <!-- multiple: "38 New Haven Road, Vergennes, VT" Multiple exact matches in OSM. -->
    <tag k="addr:city" v="Vergennes"/>
    <tag k="addr:housenumber" v="38"/>
    <tag k="addr:street" v="New Haven Road"/>
    <tag k="addr:state" v="VT"/>
    <tag k="ref:vcgi:esiteid" v="264783"/>
  </node>
  <node id="-786" visible="true" lat="44.17031063" lon="-73.24770399">
    <!-- multiple: "10 Monkton Road, Vergennes, VT" Multiple exact matches in OSM. -->
    <tag k="addr:city" v="Vergennes"/>
    <tag k="addr:housenumber" v="10"/>
    <tag k="addr:street" v="Monkton Road"/>
    <tag k="addr:state" v="VT"/>
    <tag k="ref:vcgi:esiteid" v="265140"/>
  </node>
  <node id="-787" visible="true" lat="44.17018988" lon="-73.24801571">
    <!-- multiple: "10 Monkton Road, Vergennes, VT" Multiple exact matches in OSM. -->
    <tag k="addr:city" v="Vergennes"/>
    <tag k="addr:housenumber" v="10"/>
    <tag k="addr:street" v="Monkton Road"/>
    <tag k="addr:state" v="VT"/>
    <tag k="ref:vcgi:esiteid" v="265141"/>
  </node>
  <node id="-950" visible="true" lat="44.1679552" lon="-73.25121068">
    <!-- multiple: "155 Main Street, Vergennes, VT" Multiple exact matches in OSM. -->
    <tag k="addr:city" v="Vergennes"/>
    <tag k="addr:housenumber" v="155"/>
    <tag k="addr:street" v="Main Street"/>
    <tag k="addr:state" v="VT"/>
    <tag k="ref:vcgi:esiteid" v="265419"/>
  </node>
  <node id="-955" visible="true" lat="44.16805238" lon="-73.25097165">
    <!-- multiple: "141 Main Street, Vergennes, VT" Multiple exact matches in OSM. -->
    <tag k="addr:city" v="Vergennes"/>
    <tag k="addr:housenumber" v="141"/>
    <tag k="addr:street" v="Main Street"/>
    <tag k="addr:state" v="VT"/>
    <tag k="ref:vcgi:esiteid" v="265424"/>
  </node>
  <node id="-1065" visible="true" lat="44.16740503" lon="-73.25170775">
    <!-- multiple: "14 Green Street, Vergennes, VT" Multiple exact matches in OSM. -->
    <tag k="addr:city" v="Vergennes"/>
    <tag k="addr:housenumber" v="14"/>
    <tag k="addr:street" v="Green Street"/>
    <tag k="addr:state" v="VT"/>
    <tag k="ref:vcgi:esiteid" v="335719"/>
  </node>
  <node id="-1115" visible="true" lat="44.16719011" lon="-73.25102725">
    <!-- multiple: "35 Green Street, Vergennes, VT" Multiple exact matches in OSM. -->
    <tag k="addr:city" v="Vergennes"/>
    <tag k="addr:housenumber" v="35"/>
    <tag k="addr:street" v="Green Street"/>
    <tag k="addr:state" v="VT"/>
    <tag k="ref:vcgi:esiteid" v="613349"/>
  </node>
  <node id="-1128" visible="true" lat="44.16740376" lon="-73.25261234">
    <!-- multiple: "221 Main Street, Vergennes, VT" Multiple exact matches in OSM. -->
    <tag k="addr:city" v="Vergennes"/>
    <tag k="addr:housenumber" v="221"/>
    <tag k="addr:street" v="Main Street"/>
    <tag k="addr:state" v="VT"/>
    <tag k="ref:vcgi:esiteid" v="750925"/>
  </node>
  <node id="-1203" visible="true" lat="44.16783965" lon="-73.25146812">
    <!-- multiple: "175 Main Street, Vergennes, VT" Multiple exact matches in OSM. -->
    <tag k="addr:city" v="Vergennes"/>
    <tag k="addr:housenumber" v="175"/>
    <tag k="addr:street" v="Main Street"/>
    <tag k="addr:state" v="VT"/>
    <tag k="ref:vcgi:esiteid" v="768986"/>
  </node>
</osm>
