<?xml version="1.0" encoding="UTF-8"?>
<osm version="0.6" generator="JOSM" upload="false">
  <node id="-224" visible="true" lat="44.10845724" lon="-72.44477978">
    <!-- offset: "422 Carrier Road, , VT" Significant offset - 242.3m -->
    <tag k="addr:housenumber" v="422"/>
    <tag k="addr:street" v="Carrier Road"/>
    <tag k="addr:state" v="VT"/>
    <tag k="ref:vcgi:esiteid" v="272800"/>
  </node>
  <node id="-636" visible="true" lat="44.07850084" lon="-72.45033092">
    <!-- offset: "958 Batchelder Road, , VT" Significant offset - 425.2m -->
    <tag k="addr:housenumber" v="958"/>
    <tag k="addr:street" v="Batchelder Road"/>
    <tag k="addr:state" v="VT"/>
    <tag k="ref:vcgi:esiteid" v="310013"/>
  </node>
  <node id="-637" visible="true" lat="44.08216058" lon="-72.45193728">
    <!-- offset: "714 Batchelder Road, , VT" Significant offset - 334.3m -->
    <tag k="addr:housenumber" v="714"/>
    <tag k="addr:street" v="Batchelder Road"/>
    <tag k="addr:state" v="VT"/>
    <tag k="ref:vcgi:esiteid" v="310014"/>
  </node>
  <node id="-724" visible="true" lat="44.12908918" lon="-72.44433342">
    <!-- offset: "1571 Lowery Road, , VT" Significant offset - 284.5m -->
    <tag k="addr:housenumber" v="1571"/>
    <tag k="addr:street" v="Lowery Road"/>
    <tag k="addr:state" v="VT"/>
    <tag k="ref:vcgi:esiteid" v="611448"/>
  </node>
  <node id="-750" visible="true" lat="44.09571915" lon="-72.34842356">
    <!-- offset: "70 Notch End Road, , VT" Significant offset - 119.7m -->
    <tag k="addr:housenumber" v="70"/>
    <tag k="addr:street" v="Notch End Road"/>
    <tag k="addr:state" v="VT"/>
    <tag k="ref:vcgi:esiteid" v="759343"/>
  </node>
</osm>
