<?xml version="1.0" encoding="UTF-8"?>
<osm version="0.6" generator="JOSM" upload="false">
  <node id="-468" visible="true" lat="42.79052568" lon="-72.88322974">
    <!-- offset: "98 School Street, , VT" Significant offset - 5725m -->
    <tag k="addr:housenumber" v="98"/>
    <tag k="addr:street" v="School Street"/>
    <tag k="addr:state" v="VT"/>
    <tag k="ref:vcgi:esiteid" v="286605"/>
  </node>
  <node id="-885" visible="true" lat="42.75789623" lon="-72.92900836">
    <!-- offset: "1096 Harriman Station Drive, , VT" Significant offset - 156.2m -->
    <tag k="addr:housenumber" v="1096"/>
    <tag k="addr:street" v="Harriman Station Drive"/>
    <tag k="addr:state" v="VT"/>
    <tag k="ref:vcgi:esiteid" v="287024"/>
  </node>
  <node id="-1064" visible="true" lat="42.75911538" lon="-72.9277441">
    <!-- offset: "1123 Harriman Station Drive, , VT" Significant offset - 183.8m -->
    <tag k="addr:housenumber" v="1123"/>
    <tag k="addr:street" v="Harriman Station Drive"/>
    <tag k="addr:state" v="VT"/>
    <tag k="ref:vcgi:esiteid" v="454509"/>
  </node>
  <node id="-1074" visible="true" lat="42.75733888" lon="-72.9287241">
    <!-- offset: "1098 Harriman Station Drive, , VT" Significant offset - 210.4m -->
    <tag k="addr:housenumber" v="1098"/>
    <tag k="addr:street" v="Harriman Station Drive"/>
    <tag k="addr:state" v="VT"/>
    <tag k="ref:vcgi:esiteid" v="611302"/>
  </node>
  <node id="-1363" visible="true" lat="42.78393559" lon="-72.84597445">
    <!-- offset: "188 Ginny Morse Road, , VT" Significant offset - 199.7m -->
    <tag k="addr:housenumber" v="188"/>
    <tag k="addr:street" v="Ginny Morse Road"/>
    <tag k="addr:state" v="VT"/>
    <tag k="ref:vcgi:esiteid" v="769525"/>
  </node>
</osm>
