<?xml version="1.0" encoding="UTF-8"?>
<osm version="0.6" generator="JOSM" upload="false">
  <node id="-102" visible="true" lat="44.06948201" lon="-72.49248992">
    <!-- offset: "1736 Williamstown Road, , VT" Significant offset - 445.4m -->
    <tag k="addr:housenumber" v="1736"/>
    <tag k="addr:street" v="Williamstown Road"/>
    <tag k="addr:state" v="VT"/>
    <tag k="ref:vcgi:esiteid" v="273155"/>
  </node>
  <node id="-459" visible="true" lat="44.12578201" lon="-72.52529907">
    <!-- offset: "560 Graniteville Road, , VT" Significant offset - 4342.5m -->
    <tag k="addr:housenumber" v="560"/>
    <tag k="addr:street" v="Graniteville Road"/>
    <tag k="addr:state" v="VT"/>
    <tag k="ref:vcgi:esiteid" v="287478"/>
  </node>
  <node id="-896" visible="true" lat="44.11121368" lon="-72.59983825">
    <!-- offset: "29 Stone Road, , VT" Significant offset - 7629.7m -->
    <tag k="addr:housenumber" v="29"/>
    <tag k="addr:street" v="Stone Road"/>
    <tag k="addr:state" v="VT"/>
    <tag k="ref:vcgi:esiteid" v="287950"/>
  </node>
  <node id="-1265" visible="true" lat="44.12563105" lon="-72.52055729">
    <!-- offset: "852 Graniteville Road, , VT" Significant offset - 3996.2m -->
    <tag k="addr:housenumber" v="852"/>
    <tag k="addr:street" v="Graniteville Road"/>
    <tag k="addr:state" v="VT"/>
    <tag k="ref:vcgi:esiteid" v="288328"/>
  </node>
  <node id="-1541" visible="true" lat="44.08680361" lon="-72.6221827">
    <!-- offset: "934 Howe Road, , VT" Significant offset - 617.2m -->
    <tag k="addr:housenumber" v="934"/>
    <tag k="addr:street" v="Howe Road"/>
    <tag k="addr:state" v="VT"/>
    <tag k="ref:vcgi:esiteid" v="454660"/>
  </node>
  <node id="-1752" visible="true" lat="44.10203598" lon="-72.5474895">
    <!-- offset: "4104 Vermont Route 14, , VT" Significant offset - 111.2m -->
    <tag k="addr:housenumber" v="4104"/>
    <tag k="addr:street" v="Vermont Route 14"/>
    <tag k="addr:state" v="VT"/>
    <tag k="ref:vcgi:esiteid" v="772197"/>
  </node>
</osm>
