<?xml version="1.0" encoding="UTF-8"?>
<osm version="0.6" generator="JOSM" upload="false">
  <node id="-301" visible="true" lat="44.46919564" lon="-73.05617452">
    <!-- offset: "577 Fay Lane, Williston, VT" Significant offset - 139.7m -->
    <tag k="addr:city" v="Williston"/>
    <tag k="addr:housenumber" v="577"/>
    <tag k="addr:street" v="Fay Lane"/>
    <tag k="addr:state" v="VT"/>
    <tag k="ref:vcgi:esiteid" v="288701"/>
  </node>
  <node id="-2010" visible="true" lat="44.42631225" lon="-73.09686864">
    <!-- offset: "495 Porterwood Drive, Williston, VT" Significant offset - 108.7m -->
    <tag k="addr:city" v="Williston"/>
    <tag k="addr:housenumber" v="495"/>
    <tag k="addr:street" v="Porterwood Drive"/>
    <tag k="addr:state" v="VT"/>
    <tag k="ref:vcgi:esiteid" v="290791"/>
  </node>
  <node id="-4430" visible="true" lat="44.46985958" lon="-73.12046206">
    <!-- offset: "142 Horseshoe Drive, Williston, VT" Significant offset - 116.5m -->
    <tag k="addr:city" v="Williston"/>
    <tag k="addr:housenumber" v="142"/>
    <tag k="addr:street" v="Horseshoe Drive"/>
    <tag k="addr:state" v="VT"/>
    <tag k="ref:vcgi:esiteid" v="700013"/>
  </node>
</osm>
