<?xml version="1.0" encoding="UTF-8"?>
<osm version="0.6" generator="JOSM" upload="false">
  <node id="-109" visible="true" lat="43.51899337" lon="-72.40184021">
    <!-- offset: "89 U.S. Route 5 North, , VT" Significant offset - 623.9m -->
    <tag k="addr:housenumber" v="89"/>
    <tag k="addr:street" v="U.S. Route 5 North"/>
    <tag k="addr:state" v="VT"/>
    <tag k="ref:vcgi:esiteid" v="295371"/>
  </node>
  <node id="-321" visible="true" lat="43.4908908" lon="-72.38579272">
    <!-- offset: "2419 U.S. Route 5 North, , VT" Significant offset - 329m -->
    <tag k="addr:housenumber" v="2419"/>
    <tag k="addr:street" v="U.S. Route 5 North"/>
    <tag k="addr:state" v="VT"/>
    <tag k="ref:vcgi:esiteid" v="295599"/>
  </node>
  <node id="-381" visible="true" lat="43.48457336" lon="-72.39940643">
    <!-- offset: "64 County Road, , VT" Significant offset - 5922.1m -->
    <tag k="addr:housenumber" v="64"/>
    <tag k="addr:street" v="County Road"/>
    <tag k="addr:state" v="VT"/>
    <tag k="ref:vcgi:esiteid" v="295669"/>
  </node>
  <node id="-663" visible="true" lat="43.47793228" lon="-72.38449995">
    <!-- offset: "26 River Street, , VT" Significant offset - 209.9m -->
    <tag k="addr:housenumber" v="26"/>
    <tag k="addr:street" v="River Street"/>
    <tag k="addr:state" v="VT"/>
    <tag k="ref:vcgi:esiteid" v="295994"/>
  </node>
  <node id="-1602" visible="true" lat="43.44002698" lon="-72.45263888">
    <!-- offset: "3800 Mount Ascutney State Park Road, , VT" Significant offset - 441m -->
    <tag k="addr:housenumber" v="3800"/>
    <tag k="addr:street" v="Mount Ascutney State Park Road"/>
    <tag k="addr:state" v="VT"/>
    <tag k="ref:vcgi:esiteid" v="700195"/>
  </node>
</osm>
