<?xml version="1.0" encoding="UTF-8"?>
<osm version="0.6" generator="JOSM" upload="false">
  <node id="-296" visible="true" lat="43.63051563" lon="-72.50524095">
    <!-- multiple: "452 Woodstock Road, , VT" Multiple exact matches in OSM. -->
    <tag k="addr:housenumber" v="452"/>
    <tag k="addr:street" v="Woodstock Road"/>
    <tag k="addr:state" v="VT"/>
    <tag k="ref:vcgi:esiteid" v="302729"/>
  </node>
  <node id="-364" visible="true" lat="43.62731933" lon="-72.51279449">
    <!-- multiple: "36 Pleasant Street, , VT" Multiple exact matches in OSM. -->
    <tag k="addr:housenumber" v="36"/>
    <tag k="addr:street" v="Pleasant Street"/>
    <tag k="addr:state" v="VT"/>
    <tag k="ref:vcgi:esiteid" v="302806"/>
  </node>
  <node id="-388" visible="true" lat="43.6269011" lon="-72.51070082">
    <!-- multiple: "48 Pleasant Street, , VT" Multiple exact matches in OSM. -->
    <tag k="addr:housenumber" v="48"/>
    <tag k="addr:street" v="Pleasant Street"/>
    <tag k="addr:state" v="VT"/>
    <tag k="ref:vcgi:esiteid" v="302838"/>
  </node>
  <node id="-395" visible="true" lat="43.62685171" lon="-72.50720951">
    <!-- multiple: "435 Woodstock Road, , VT" Multiple exact matches in OSM. -->
    <tag k="addr:housenumber" v="435"/>
    <tag k="addr:street" v="Woodstock Road"/>
    <tag k="addr:state" v="VT"/>
    <tag k="ref:vcgi:esiteid" v="302847"/>
  </node>
  <node id="-405" visible="true" lat="43.62657544" lon="-72.50991472">
    <!-- multiple: "47 Pleasant Street, , VT" Multiple exact matches in OSM. -->
    <tag k="addr:housenumber" v="47"/>
    <tag k="addr:street" v="Pleasant Street"/>
    <tag k="addr:state" v="VT"/>
    <tag k="ref:vcgi:esiteid" v="302859"/>
  </node>
  <node id="-424" visible="true" lat="43.62632609" lon="-72.5078742">
    <!-- multiple: "67 Pleasant Street, , VT" Multiple exact matches in OSM. -->
    <tag k="addr:housenumber" v="67"/>
    <tag k="addr:street" v="Pleasant Street"/>
    <tag k="addr:state" v="VT"/>
    <tag k="ref:vcgi:esiteid" v="302881"/>
  </node>
  <node id="-430" visible="true" lat="43.62656109" lon="-72.51002582">
    <!-- multiple: "47 Pleasant Street, , VT" Multiple exact matches in OSM. -->
    <tag k="addr:housenumber" v="47"/>
    <tag k="addr:street" v="Pleasant Street"/>
    <tag k="addr:state" v="VT"/>
    <tag k="ref:vcgi:esiteid" v="302888"/>
  </node>
  <node id="-441" visible="true" lat="43.62609303" lon="-72.51268652">
    <!-- multiple: "4 Ford Street, , VT" Multiple exact matches in OSM. -->
    <tag k="addr:housenumber" v="4"/>
    <tag k="addr:street" v="Ford Street"/>
    <tag k="addr:state" v="VT"/>
    <tag k="ref:vcgi:esiteid" v="302900"/>
  </node>
  <node id="-442" visible="true" lat="43.62622138" lon="-72.50583951">
    <!-- multiple: "77 Pleasant Street, , VT" Multiple exact matches in OSM. -->
    <tag k="addr:housenumber" v="77"/>
    <tag k="addr:street" v="Pleasant Street"/>
    <tag k="addr:state" v="VT"/>
    <tag k="ref:vcgi:esiteid" v="302901"/>
  </node>
  <node id="-446" visible="true" lat="43.62614749" lon="-72.51324047">
    <!-- multiple: "4 Ford Street, , VT" Multiple exact matches in OSM. -->
    <tag k="addr:housenumber" v="4"/>
    <tag k="addr:street" v="Ford Street"/>
    <tag k="addr:state" v="VT"/>
    <tag k="ref:vcgi:esiteid" v="302906"/>
  </node>
  <node id="-480" visible="true" lat="43.62557428" lon="-72.51825638">
    <!-- multiple: "13 Elm Street, , VT" Multiple exact matches in OSM. -->
    <tag k="addr:housenumber" v="13"/>
    <tag k="addr:street" v="Elm Street"/>
    <tag k="addr:state" v="VT"/>
    <tag k="ref:vcgi:esiteid" v="302945"/>
  </node>
  <node id="-611" visible="true" lat="43.62399372" lon="-72.52323169">
    <!-- multiple: "39 River Street, , VT" Multiple exact matches in OSM. -->
    <tag k="addr:housenumber" v="39"/>
    <tag k="addr:street" v="River Street"/>
    <tag k="addr:state" v="VT"/>
    <tag k="ref:vcgi:esiteid" v="303091"/>
  </node>
  <node id="-656" visible="true" lat="43.62318687" lon="-72.521638">
    <!-- multiple: "31 The Green, , VT" Multiple exact matches in OSM. -->
    <tag k="addr:housenumber" v="31"/>
    <tag k="addr:street" v="The Green"/>
    <tag k="addr:state" v="VT"/>
    <tag k="ref:vcgi:esiteid" v="303140"/>
  </node>
  <node id="-707" visible="true" lat="43.62224952" lon="-72.52688966">
    <!-- multiple: "61 River Street, , VT" Multiple exact matches in OSM. -->
    <tag k="addr:housenumber" v="61"/>
    <tag k="addr:street" v="River Street"/>
    <tag k="addr:state" v="VT"/>
    <tag k="ref:vcgi:esiteid" v="303199"/>
  </node>
  <node id="-780" visible="true" lat="43.62108077" lon="-72.52926292">
    <!-- multiple: "274 West Woodstock Road, , VT" Multiple exact matches in OSM. -->
    <tag k="addr:housenumber" v="274"/>
    <tag k="addr:street" v="West Woodstock Road"/>
    <tag k="addr:state" v="VT"/>
    <tag k="ref:vcgi:esiteid" v="303278"/>
  </node>
  <node id="-811" visible="true" lat="43.62027472" lon="-72.51552444">
    <!-- multiple: "10 Maple Street, , VT" Multiple exact matches in OSM. -->
    <tag k="addr:housenumber" v="10"/>
    <tag k="addr:street" v="Maple Street"/>
    <tag k="addr:state" v="VT"/>
    <tag k="ref:vcgi:esiteid" v="303311"/>
  </node>
  <node id="-1094" visible="true" lat="43.60862429" lon="-72.54983561">
    <!-- multiple: "1653 West Woodstock Road, , VT" Multiple exact matches in OSM. -->
    <tag k="addr:housenumber" v="1653"/>
    <tag k="addr:street" v="West Woodstock Road"/>
    <tag k="addr:state" v="VT"/>
    <tag k="ref:vcgi:esiteid" v="303624"/>
  </node>
  <node id="-1710" visible="true" lat="43.60008662" lon="-72.48892852">
    <!-- multiple: "2500 Garvin Hill Road, , VT" Multiple exact matches in OSM. -->
    <tag k="addr:housenumber" v="2500"/>
    <tag k="addr:street" v="Garvin Hill Road"/>
    <tag k="addr:state" v="VT"/>
    <tag k="ref:vcgi:esiteid" v="328486"/>
  </node>
  <node id="-1745" visible="true" lat="43.56539611" lon="-72.51555031">
    <!-- multiple: "530 Bryant Road, , VT" Multiple exact matches in OSM. -->
    <tag k="addr:housenumber" v="530"/>
    <tag k="addr:street" v="Bryant Road"/>
    <tag k="addr:state" v="VT"/>
    <tag k="ref:vcgi:esiteid" v="328524"/>
  </node>
  <node id="-1778" visible="true" lat="43.62493092" lon="-72.5184126">
    <!-- multiple: "7 Central Street, , VT" Multiple exact matches in OSM. -->
    <tag k="addr:housenumber" v="7"/>
    <tag k="addr:street" v="Central Street"/>
    <tag k="addr:state" v="VT"/>
    <tag k="ref:vcgi:esiteid" v="328672"/>
  </node>
  <node id="-1779" visible="true" lat="43.6249214" lon="-72.51843655">
    <!-- multiple: "5 Central Street, , VT" Multiple exact matches in OSM. -->
    <tag k="addr:housenumber" v="5"/>
    <tag k="addr:street" v="Central Street"/>
    <tag k="addr:state" v="VT"/>
    <tag k="ref:vcgi:esiteid" v="328673"/>
  </node>
  <node id="-2017" visible="true" lat="43.62031348" lon="-72.51528021">
    <!-- multiple: "10 Maple Street, , VT" Multiple exact matches in OSM. -->
    <tag k="addr:housenumber" v="10"/>
    <tag k="addr:street" v="Maple Street"/>
    <tag k="addr:state" v="VT"/>
    <tag k="ref:vcgi:esiteid" v="329958"/>
  </node>
  <node id="-2661" visible="true" lat="43.54566391" lon="-72.56278525">
    <!-- multiple: "649 Noah Wood Road, , VT" Multiple exact matches in OSM. -->
    <tag k="addr:housenumber" v="649"/>
    <tag k="addr:street" v="Noah Wood Road"/>
    <tag k="addr:state" v="VT"/>
    <tag k="ref:vcgi:esiteid" v="341544"/>
  </node>
  <node id="-2663" visible="true" lat="43.54317626" lon="-72.53003975">
    <!-- multiple: "1161 Morgan Hill Road, , VT" Multiple exact matches in OSM. -->
    <tag k="addr:housenumber" v="1161"/>
    <tag k="addr:street" v="Morgan Hill Road"/>
    <tag k="addr:state" v="VT"/>
    <tag k="ref:vcgi:esiteid" v="341841"/>
  </node>
  <node id="-2665" visible="true" lat="43.54320633" lon="-72.53008076">
    <!-- multiple: "1159 Morgan Hill Road, , VT" Multiple exact matches in OSM. -->
    <tag k="addr:housenumber" v="1159"/>
    <tag k="addr:street" v="Morgan Hill Road"/>
    <tag k="addr:state" v="VT"/>
    <tag k="ref:vcgi:esiteid" v="342594"/>
  </node>
  <node id="-2737" visible="true" lat="43.62610656" lon="-72.50575013">
    <!-- multiple: "77 Pleasant Street, , VT" Multiple exact matches in OSM. -->
    <tag k="addr:housenumber" v="77"/>
    <tag k="addr:street" v="Pleasant Street"/>
    <tag k="addr:state" v="VT"/>
    <tag k="ref:vcgi:esiteid" v="758915"/>
  </node>
</osm>
