<?xml version="1.0" encoding="UTF-8"?>
<osm version="0.6" generator="JOSM" upload="false">
  <node id="-1000" visible="true" lat="44.05837714" lon="-73.41499247">
    <tag k="addr:city" v="Addison"/>
    <tag k="addr:housenumber" v="260"/>
    <tag k="addr:street" v="Burgey Farm Road"/>
    <tag k="addr:state" v="VT"/>
    <tag k="ref:vcgi:esiteid" v="646647"/>
  </node>
  <node id="-1099" visible="true" lat="44.09707456" lon="-73.38033112">
    <tag k="addr:city" v="Addison"/>
    <tag k="addr:housenumber" v="7854"/>
    <tag k="addr:street" v="Goodrich Corner Road"/>
    <tag k="addr:state" v="VT"/>
    <tag k="ref:vcgi:esiteid" v="770861"/>
  </node>
  <node id="-1100" visible="true" lat="44.08243717" lon="-73.40602965">
    <tag k="addr:city" v="Addison"/>
    <tag k="addr:housenumber" v="702"/>
    <tag k="addr:street" v="Tri Town Road"/>
    <tag k="addr:state" v="VT"/>
    <tag k="ref:vcgi:esiteid" v="771514"/>
  </node>
  <node id="-1101" visible="true" lat="44.10626299" lon="-73.29792635">
    <tag k="addr:city" v="Addison"/>
    <tag k="addr:housenumber" v="104"/>
    <tag k="addr:street" v="Old Stonehouse Road"/>
    <tag k="addr:state" v="VT"/>
    <tag k="ref:vcgi:esiteid" v="772383"/>
  </node>
  <node id="-1102" visible="true" lat="44.11214165" lon="-73.2946479">
    <tag k="addr:city" v="Addison"/>
    <tag k="addr:housenumber" v="3268"/>
    <tag k="addr:street" v="Vermont Route 22A"/>
    <tag k="addr:state" v="VT"/>
    <tag k="ref:vcgi:esiteid" v="772384"/>
  </node>
  <node id="-1103" visible="true" lat="44.06041584" lon="-73.32008649">
    <tag k="addr:city" v="Addison"/>
    <tag k="addr:housenumber" v="871"/>
    <tag k="addr:street" v="Nortontown Road"/>
    <tag k="addr:state" v="VT"/>
    <tag k="ref:vcgi:esiteid" v="772395"/>
  </node>
</osm>
