<?xml version="1.0" encoding="UTF-8"?>
<osm version="0.6" generator="JOSM" upload="false">
  <node id="-100" visible="true" lat="44.86972779" lon="-73.28700071">
    <tag k="addr:city" v="Alburgh"/>
    <tag k="addr:housenumber" v="117"/>
    <tag k="addr:street" v="Northern Lights"/>
    <tag k="addr:state" v="VT"/>
    <tag k="ref:vcgi:esiteid" v="159"/>
  </node>
  <node id="-252" visible="true" lat="44.87051044" lon="-73.28434463">
    <tag k="addr:city" v="Alburgh"/>
    <tag k="addr:housenumber" v="41"/>
    <tag k="addr:street" v="Northern Lights"/>
    <tag k="addr:state" v="VT"/>
    <tag k="ref:vcgi:esiteid" v="1852"/>
  </node>
  <node id="-1067" visible="true" lat="44.87121004" lon="-73.28640316">
    <tag k="addr:city" v="Alburgh"/>
    <tag k="addr:housenumber" v="171"/>
    <tag k="addr:street" v="Northern Lights"/>
    <tag k="addr:state" v="VT"/>
    <tag k="ref:vcgi:esiteid" v="2702"/>
  </node>
  <node id="-2059" visible="true" lat="44.87031261" lon="-73.28643948">
    <tag k="addr:city" v="Alburgh"/>
    <tag k="addr:housenumber" v="125"/>
    <tag k="addr:street" v="Northern Lights"/>
    <tag k="addr:state" v="VT"/>
    <tag k="ref:vcgi:esiteid" v="614283"/>
  </node>
  <node id="-2459" visible="true" lat="44.88008248" lon="-73.2798529">
    <tag k="addr:city" v="Alburgh"/>
    <tag k="addr:housenumber" v="47"/>
    <tag k="addr:street" v="Poor Farm Road"/>
    <tag k="addr:state" v="VT"/>
    <tag k="ref:vcgi:esiteid" v="771261"/>
  </node>
  <node id="-2460" visible="true" lat="44.97835208" lon="-73.2601623">
    <tag k="addr:city" v="Alburgh"/>
    <tag k="addr:housenumber" v="522"/>
    <tag k="addr:street" v="Martell Road"/>
    <tag k="addr:state" v="VT"/>
    <tag k="ref:vcgi:esiteid" v="771357"/>
  </node>
  <node id="-2461" visible="true" lat="45.0100616" lon="-73.33086783">
    <tag k="addr:city" v="Alburgh"/>
    <tag k="addr:housenumber" v="755"/>
    <tag k="addr:street" v="Bay Road"/>
    <tag k="addr:state" v="VT"/>
    <tag k="ref:vcgi:esiteid" v="771358"/>
  </node>
  <node id="-2462" visible="true" lat="44.9179534" lon="-73.27717174">
    <tag k="addr:city" v="Alburgh"/>
    <tag k="addr:housenumber" v="5272"/>
    <tag k="addr:street" v="U.S. Route 2 South"/>
    <tag k="addr:state" v="VT"/>
    <tag k="ref:vcgi:esiteid" v="771359"/>
  </node>
  <node id="-2463" visible="true" lat="44.8672246" lon="-73.30531354">
    <tag k="addr:city" v="Alburgh"/>
    <tag k="addr:housenumber" v="1665"/>
    <tag k="addr:street" v="Palmers Sand Beach Road"/>
    <tag k="addr:state" v="VT"/>
    <tag k="ref:vcgi:esiteid" v="771781"/>
  </node>
  <node id="-2464" visible="true" lat="44.9450677" lon="-73.26216148">
    <tag k="addr:city" v="Alburgh"/>
    <tag k="addr:housenumber" v="665"/>
    <tag k="addr:street" v="Fiske Road"/>
    <tag k="addr:state" v="VT"/>
    <tag k="ref:vcgi:esiteid" v="772550"/>
  </node>
</osm>
