<?xml version="1.0" encoding="UTF-8"?>
<osm version="0.6" generator="JOSM" upload="false">
  <node id="-208" visible="true" lat="44.85781943" lon="-73.28962063">
    <!-- offset: "218 Poor Farm Road, Alburgh, VT" Significant offset - 112.7m -->
    <tag k="addr:city" v="Alburgh"/>
    <tag k="addr:housenumber" v="218"/>
    <tag k="addr:street" v="Poor Farm Road"/>
    <tag k="addr:state" v="VT"/>
    <tag k="ref:vcgi:esiteid" v="1808"/>
  </node>
  <node id="-468" visible="true" lat="44.90814523" lon="-73.30557181">
    <!-- offset: "230 Vermont Route 129, Alburgh, VT" Significant offset - 130.3m -->
    <tag k="addr:city" v="Alburgh"/>
    <tag k="addr:housenumber" v="230"/>
    <tag k="addr:street" v="Vermont Route 129"/>
    <tag k="addr:state" v="VT"/>
    <tag k="ref:vcgi:esiteid" v="2074"/>
  </node>
  <node id="-1344" visible="true" lat="44.92324312" lon="-73.27367957">
    <!-- offset: "19 Goose Point, Alburgh, VT" Significant offset - 356.9m -->
    <tag k="addr:city" v="Alburgh"/>
    <tag k="addr:housenumber" v="19"/>
    <tag k="addr:street" v="Goose Point"/>
    <tag k="addr:state" v="VT"/>
    <tag k="ref:vcgi:esiteid" v="3008"/>
  </node>
  <node id="-2077" visible="true" lat="44.8627356" lon="-73.28725486">
    <!-- offset: "193 Poor Farm Road, Alburgh, VT" Significant offset - 199.4m -->
    <tag k="addr:city" v="Alburgh"/>
    <tag k="addr:housenumber" v="193"/>
    <tag k="addr:street" v="Poor Farm Road"/>
    <tag k="addr:state" v="VT"/>
    <tag k="ref:vcgi:esiteid" v="618563"/>
  </node>
</osm>
