<?xml version="1.0" encoding="UTF-8"?>
<osm version="0.6" generator="JOSM" upload="false">
  <node id="-1472" visible="true" lat="44.29349962" lon="-72.10263598">
    <tag k="addr:housenumber" v="2676"/>
    <tag k="addr:street" v="Garland Hill"/>
    <tag k="addr:state" v="VT"/>
    <tag k="ref:vcgi:esiteid" v="646572"/>
  </node>
  <node id="-1509" visible="true" lat="44.30040988" lon="-72.05986827">
    <tag k="addr:housenumber" v="172"/>
    <tag k="addr:street" v="West Barnet Road"/>
    <tag k="addr:state" v="VT"/>
    <tag k="ref:vcgi:esiteid" v="771166"/>
  </node>
  <node id="-1510" visible="true" lat="44.31122952" lon="-72.03679197">
    <tag k="addr:housenumber" v="556"/>
    <tag k="addr:street" v="U.S. Route 5 South"/>
    <tag k="addr:state" v="VT"/>
    <tag k="ref:vcgi:esiteid" v="771167"/>
  </node>
  <node id="-1511" visible="true" lat="44.29686266" lon="-72.05492662">
    <tag k="addr:housenumber" v="259"/>
    <tag k="addr:street" v="Church Street"/>
    <tag k="addr:state" v="VT"/>
    <tag k="ref:vcgi:esiteid" v="771168"/>
  </node>
  <node id="-1512" visible="true" lat="44.32400012" lon="-72.07814307">
    <tag k="addr:housenumber" v="117"/>
    <tag k="addr:street" v="Warden Road"/>
    <tag k="addr:state" v="VT"/>
    <tag k="ref:vcgi:esiteid" v="771169"/>
  </node>
  <node id="-1513" visible="true" lat="44.31999508" lon="-72.04473269">
    <tag k="addr:housenumber" v="458"/>
    <tag k="addr:street" v="Little France Road"/>
    <tag k="addr:state" v="VT"/>
    <tag k="ref:vcgi:esiteid" v="771170"/>
  </node>
  <node id="-1514" visible="true" lat="44.29217627" lon="-72.05751422">
    <tag k="addr:housenumber" v="108"/>
    <tag k="addr:street" v="Bimson Drive"/>
    <tag k="addr:state" v="VT"/>
    <tag k="ref:vcgi:esiteid" v="771171"/>
  </node>
  <node id="-1515" visible="true" lat="44.26740256" lon="-72.07196625">
    <tag k="addr:housenumber" v="11"/>
    <tag k="addr:street" v="Symns Pond Road"/>
    <tag k="addr:state" v="VT"/>
    <tag k="ref:vcgi:esiteid" v="771172"/>
  </node>
  <node id="-1516" visible="true" lat="44.34861477" lon="-72.00748745">
    <tag k="addr:housenumber" v="1257"/>
    <tag k="addr:street" v="Tower Road"/>
    <tag k="addr:state" v="VT"/>
    <tag k="ref:vcgi:esiteid" v="771173"/>
  </node>
  <node id="-1517" visible="true" lat="44.36671635" lon="-72.0222039">
    <tag k="addr:housenumber" v="3190"/>
    <tag k="addr:street" v="Old Silo Road"/>
    <tag k="addr:state" v="VT"/>
    <tag k="ref:vcgi:esiteid" v="771174"/>
  </node>
  <node id="-1518" visible="true" lat="44.33399914" lon="-72.08934895">
    <tag k="addr:housenumber" v="138"/>
    <tag k="addr:street" v="Chamberlain Road"/>
    <tag k="addr:state" v="VT"/>
    <tag k="ref:vcgi:esiteid" v="771175"/>
  </node>
  <node id="-1519" visible="true" lat="44.30011109" lon="-72.06773162">
    <tag k="addr:housenumber" v="583"/>
    <tag k="addr:street" v="West Barnet Road"/>
    <tag k="addr:state" v="VT"/>
    <tag k="ref:vcgi:esiteid" v="771176"/>
  </node>
  <node id="-1520" visible="true" lat="44.3040287" lon="-72.13871645">
    <tag k="addr:housenumber" v="427"/>
    <tag k="addr:street" v="Campers Lane"/>
    <tag k="addr:state" v="VT"/>
    <tag k="ref:vcgi:esiteid" v="771178"/>
  </node>
  <node id="-1521" visible="true" lat="44.30413338" lon="-72.1386969">
    <tag k="addr:housenumber" v="425"/>
    <tag k="addr:street" v="Campers Lane"/>
    <tag k="addr:state" v="VT"/>
    <tag k="ref:vcgi:esiteid" v="771179"/>
  </node>
  <node id="-1522" visible="true" lat="44.30386151" lon="-72.13841561">
    <tag k="addr:housenumber" v="449"/>
    <tag k="addr:street" v="Campers Lane"/>
    <tag k="addr:state" v="VT"/>
    <tag k="ref:vcgi:esiteid" v="771180"/>
  </node>
  <node id="-1523" visible="true" lat="44.30504454" lon="-72.13881831">
    <tag k="addr:housenumber" v="350"/>
    <tag k="addr:street" v="Campers Lane"/>
    <tag k="addr:state" v="VT"/>
    <tag k="ref:vcgi:esiteid" v="771181"/>
  </node>
  <node id="-1524" visible="true" lat="44.31686686" lon="-72.1216956">
    <tag k="addr:housenumber" v="826"/>
    <tag k="addr:street" v="Somerhill Road"/>
    <tag k="addr:state" v="VT"/>
    <tag k="ref:vcgi:esiteid" v="771182"/>
  </node>
  <node id="-1525" visible="true" lat="44.31669106" lon="-72.05984715">
    <tag k="addr:housenumber" v="1091"/>
    <tag k="addr:street" v="Little France Road"/>
    <tag k="addr:state" v="VT"/>
    <tag k="ref:vcgi:esiteid" v="771183"/>
  </node>
  <node id="-1526" visible="true" lat="44.30210807" lon="-72.07941695">
    <tag k="addr:housenumber" v="1161"/>
    <tag k="addr:street" v="West Barnet Road"/>
    <tag k="addr:state" v="VT"/>
    <tag k="ref:vcgi:esiteid" v="771235"/>
  </node>
  <node id="-1527" visible="true" lat="44.30197262" lon="-72.07725645">
    <tag k="addr:housenumber" v="1062"/>
    <tag k="addr:street" v="West Barnet Road"/>
    <tag k="addr:state" v="VT"/>
    <tag k="ref:vcgi:esiteid" v="771236"/>
  </node>
  <node id="-1528" visible="true" lat="44.30350609" lon="-72.08079508">
    <tag k="addr:housenumber" v="1275"/>
    <tag k="addr:street" v="West Barnet Road"/>
    <tag k="addr:state" v="VT"/>
    <tag k="ref:vcgi:esiteid" v="771237"/>
  </node>
  <node id="-1529" visible="true" lat="44.30218143" lon="-72.11671113">
    <tag k="addr:housenumber" v="921"/>
    <tag k="addr:street" v="Roy Mountain Road"/>
    <tag k="addr:state" v="VT"/>
    <tag k="ref:vcgi:esiteid" v="771238"/>
  </node>
  <node id="-1530" visible="true" lat="44.28264776" lon="-72.14810113">
    <tag k="addr:housenumber" v="280"/>
    <tag k="addr:street" v="Mosquitoville Road"/>
    <tag k="addr:state" v="VT"/>
    <tag k="ref:vcgi:esiteid" v="772178"/>
  </node>
</osm>
