<?xml version="1.0" encoding="UTF-8"?>
<osm version="0.6" generator="JOSM" upload="false">
  <node id="-948" visible="true" lat="42.89768519" lon="-73.20755721">
    <tag k="addr:housenumber" v="138"/>
    <tag k="addr:street" v="Northside Drive"/>
    <tag k="addr:state" v="VT"/>
    <tag k="ref:vcgi:esiteid" v="16939"/>
  </node>
  <node id="-4826" visible="true" lat="42.8388088" lon="-73.19862037">
    <tag k="addr:housenumber" v="2070"/>
    <tag k="addr:street" v="U.S. Route 7 South"/>
    <tag k="addr:state" v="VT"/>
    <tag k="ref:vcgi:esiteid" v="21206"/>
  </node>
  <node id="-5848" visible="true" lat="42.90916406" lon="-73.24998813">
    <tag k="addr:housenumber" v="1028"/>
    <tag k="addr:street" v="Murphy Road"/>
    <tag k="addr:state" v="VT"/>
    <tag k="ref:vcgi:esiteid" v="646440"/>
  </node>
  <node id="-5849" visible="true" lat="42.89642609" lon="-73.22478737">
    <tag k="addr:housenumber" v="327"/>
    <tag k="addr:street" v="Silk Road"/>
    <tag k="addr:state" v="VT"/>
    <tag k="ref:vcgi:esiteid" v="646483"/>
  </node>
  <node id="-5850" visible="true" lat="42.88112351" lon="-73.1991831">
    <tag k="addr:housenumber" v="133"/>
    <tag k="addr:street" v="River Street"/>
    <tag k="addr:state" v="VT"/>
    <tag k="ref:vcgi:esiteid" v="646651"/>
  </node>
  <node id="-5851" visible="true" lat="42.89086902" lon="-73.19206569">
    <tag k="addr:housenumber" v="28"/>
    <tag k="addr:street" v="Metcalfe Drive"/>
    <tag k="addr:state" v="VT"/>
    <tag k="ref:vcgi:esiteid" v="646658"/>
  </node>
  <node id="-5852" visible="true" lat="42.88633767" lon="-73.17916342">
    <tag k="addr:housenumber" v="33"/>
    <tag k="addr:street" v="Cassie Lane"/>
    <tag k="addr:state" v="VT"/>
    <tag k="ref:vcgi:esiteid" v="646659"/>
  </node>
  <node id="-5853" visible="true" lat="42.88625201" lon="-73.17882822">
    <tag k="addr:housenumber" v="32"/>
    <tag k="addr:street" v="Cassie Lane"/>
    <tag k="addr:state" v="VT"/>
    <tag k="ref:vcgi:esiteid" v="646660"/>
  </node>
  <node id="-5854" visible="true" lat="42.88609774" lon="-73.17881616">
    <tag k="addr:housenumber" v="24"/>
    <tag k="addr:street" v="Cassie Lane"/>
    <tag k="addr:state" v="VT"/>
    <tag k="ref:vcgi:esiteid" v="646661"/>
  </node>
  <node id="-5855" visible="true" lat="42.88593752" lon="-73.17884291">
    <tag k="addr:housenumber" v="10"/>
    <tag k="addr:street" v="Cassie Lane"/>
    <tag k="addr:state" v="VT"/>
    <tag k="ref:vcgi:esiteid" v="646662"/>
  </node>
  <node id="-5856" visible="true" lat="42.88490821" lon="-73.17836329">
    <tag k="addr:housenumber" v="64"/>
    <tag k="addr:street" v="Ethans Way"/>
    <tag k="addr:state" v="VT"/>
    <tag k="ref:vcgi:esiteid" v="646663"/>
  </node>
  <node id="-5857" visible="true" lat="42.89020338" lon="-73.19019018">
    <tag k="addr:housenumber" v="86"/>
    <tag k="addr:street" v="Metcalfe Drive"/>
    <tag k="addr:state" v="VT"/>
    <tag k="ref:vcgi:esiteid" v="646667"/>
  </node>
  <node id="-5858" visible="true" lat="42.890293" lon="-73.19073211">
    <tag k="addr:housenumber" v="84"/>
    <tag k="addr:street" v="Metcalfe Drive"/>
    <tag k="addr:state" v="VT"/>
    <tag k="ref:vcgi:esiteid" v="646668"/>
  </node>
  <node id="-5865" visible="true" lat="42.87267346" lon="-73.18428947">
    <tag k="addr:housenumber" v="13"/>
    <tag k="addr:street" v="Belvedere Street"/>
    <tag k="addr:state" v="VT"/>
    <tag k="ref:vcgi:esiteid" v="655628"/>
  </node>
  <node id="-5867" visible="true" lat="42.89745273" lon="-73.20771015">
    <tag k="addr:housenumber" v="134"/>
    <tag k="addr:street" v="Northside Drive"/>
    <tag k="addr:state" v="VT"/>
    <tag k="ref:vcgi:esiteid" v="655631"/>
  </node>
  <node id="-6022" visible="true" lat="42.87012292" lon="-73.19904046">
    <tag k="addr:housenumber" v="5"/>
    <tag k="addr:street" v="Greenview Drive"/>
    <tag k="addr:state" v="VT"/>
    <tag k="ref:vcgi:esiteid" v="768815"/>
  </node>
  <node id="-6023" visible="true" lat="42.868407" lon="-73.19903436">
    <tag k="addr:housenumber" v="24"/>
    <tag k="addr:street" v="Greenview Drive"/>
    <tag k="addr:state" v="VT"/>
    <tag k="ref:vcgi:esiteid" v="768816"/>
  </node>
  <node id="-6039" visible="true" lat="42.88119429" lon="-73.20908213">
    <tag k="addr:housenumber" v="335"/>
    <tag k="addr:street" v="Chester Knoll Drive"/>
    <tag k="addr:state" v="VT"/>
    <tag k="ref:vcgi:esiteid" v="771123"/>
  </node>
  <node id="-6040" visible="true" lat="42.88164906" lon="-73.20884784">
    <tag k="addr:housenumber" v="321"/>
    <tag k="addr:street" v="Chester Knoll Drive"/>
    <tag k="addr:state" v="VT"/>
    <tag k="ref:vcgi:esiteid" v="771124"/>
  </node>
  <node id="-6042" visible="true" lat="42.90580998" lon="-73.24544622">
    <tag k="addr:housenumber" v="1855"/>
    <tag k="addr:street" v="Vermont Route 279"/>
    <tag k="addr:state" v="VT"/>
    <tag k="ref:vcgi:esiteid" v="771733"/>
  </node>
  <node id="-6043" visible="true" lat="42.87784557" lon="-73.18445682">
    <tag k="addr:housenumber" v="126"/>
    <tag k="addr:street" v="Beech Street"/>
    <tag k="addr:state" v="VT"/>
    <tag k="ref:vcgi:esiteid" v="771794"/>
  </node>
  <node id="-6048" visible="true" lat="42.86595575" lon="-73.2691263">
    <tag k="addr:housenumber" v="1128"/>
    <tag k="addr:street" v="Pleasant Valley Road"/>
    <tag k="addr:state" v="VT"/>
    <tag k="ref:vcgi:esiteid" v="771992"/>
  </node>
  <node id="-6049" visible="true" lat="42.86533281" lon="-73.25322362">
    <tag k="addr:housenumber" v="590"/>
    <tag k="addr:street" v="Horst Road"/>
    <tag k="addr:state" v="VT"/>
    <tag k="ref:vcgi:esiteid" v="772122"/>
  </node>
  <node id="-6050" visible="true" lat="42.89938728" lon="-73.2104446">
    <tag k="addr:housenumber" v="216"/>
    <tag k="addr:street" v="Northside Drive"/>
    <tag k="addr:state" v="VT"/>
    <tag k="ref:vcgi:esiteid" v="772293"/>
  </node>
  <node id="-6052" visible="true" lat="42.88263684" lon="-73.19967">
    <tag k="addr:housenumber" v="111"/>
    <tag k="addr:street" v="Lincoln Street"/>
    <tag k="addr:state" v="VT"/>
    <tag k="ref:vcgi:esiteid" v="772352"/>
  </node>
  <node id="-6053" visible="true" lat="42.88259274" lon="-73.20555393">
    <tag k="addr:housenumber" v="110"/>
    <tag k="addr:street" v="McKinley Street"/>
    <tag k="addr:state" v="VT"/>
    <tag k="ref:vcgi:esiteid" v="772399"/>
  </node>
  <node id="-6054" visible="true" lat="42.88553059" lon="-73.17969216">
    <tag k="addr:housenumber" v="41"/>
    <tag k="addr:street" v="Audrey Lane"/>
    <tag k="addr:state" v="VT"/>
    <tag k="ref:vcgi:esiteid" v="772585"/>
  </node>
</osm>
