<?xml version="1.0" encoding="UTF-8"?>
<osm version="0.6" generator="JOSM" upload="false">
  <node id="-473" visible="true" lat="44.94971466" lon="-72.70236968">
    <!-- multiple: "335 River Road, , VT" Multiple exact matches in OSM. -->
    <tag k="addr:housenumber" v="335"/>
    <tag k="addr:street" v="River Road"/>
    <tag k="addr:state" v="VT"/>
    <tag k="ref:vcgi:esiteid" v="22394"/>
  </node>
  <node id="-663" visible="true" lat="44.98294317" lon="-72.69358641">
    <!-- multiple: "383 Magoon Road, , VT" Multiple exact matches in OSM. -->
    <tag k="addr:housenumber" v="383"/>
    <tag k="addr:street" v="Magoon Road"/>
    <tag k="addr:state" v="VT"/>
    <tag k="ref:vcgi:esiteid" v="22588"/>
  </node>
  <node id="-717" visible="true" lat="44.96348889" lon="-72.78568438">
    <!-- multiple: "3529 Water Tower Road, , VT" Multiple exact matches in OSM. -->
    <tag k="addr:housenumber" v="3529"/>
    <tag k="addr:street" v="Water Tower Road"/>
    <tag k="addr:state" v="VT"/>
    <tag k="ref:vcgi:esiteid" v="22648"/>
  </node>
  <node id="-750" visible="true" lat="44.96400257" lon="-72.78556392">
    <!-- multiple: "3529 Water Tower Road, , VT" Multiple exact matches in OSM. -->
    <tag k="addr:housenumber" v="3529"/>
    <tag k="addr:street" v="Water Tower Road"/>
    <tag k="addr:state" v="VT"/>
    <tag k="ref:vcgi:esiteid" v="22683"/>
  </node>
  <node id="-792" visible="true" lat="44.92657003" lon="-72.78140414">
    <!-- multiple: "775 Sampsonville Road, , VT" Multiple exact matches in OSM. -->
    <tag k="addr:housenumber" v="775"/>
    <tag k="addr:street" v="Sampsonville Road"/>
    <tag k="addr:state" v="VT"/>
    <tag k="ref:vcgi:esiteid" v="447767"/>
  </node>
  <node id="-819" visible="true" lat="44.92707705" lon="-72.73499593">
    <!-- multiple: "246 Choquette Road, , VT" Multiple exact matches in OSM. -->
    <tag k="addr:housenumber" v="246"/>
    <tag k="addr:street" v="Choquette Road"/>
    <tag k="addr:state" v="VT"/>
    <tag k="ref:vcgi:esiteid" v="618060"/>
  </node>
  <node id="-881" visible="true" lat="44.92870786" lon="-72.69953582">
    <!-- multiple: "20 Woodward Nbrhd Road, , VT" Multiple exact matches in OSM. -->
    <tag k="addr:housenumber" v="20"/>
    <tag k="addr:street" v="Woodward Nbrhd Road"/>
    <tag k="addr:state" v="VT"/>
    <tag k="ref:vcgi:esiteid" v="765776"/>
  </node>
  <node id="-883" visible="true" lat="45.00987296" lon="-72.70253721">
    <!-- multiple: "100 Border Road, , VT" Multiple exact matches in OSM. -->
    <tag k="addr:housenumber" v="100"/>
    <tag k="addr:street" v="Border Road"/>
    <tag k="addr:state" v="VT"/>
    <tag k="ref:vcgi:esiteid" v="765971"/>
  </node>
</osm>
