<?xml version="1.0" encoding="UTF-8"?>
<osm version="0.6" generator="JOSM" upload="false">
  <node id="-1403" visible="true" lat="44.05433077" lon="-72.17392028">
    <tag k="addr:housenumber" v="170"/>
    <tag k="addr:street" v="Fulton Road"/>
    <tag k="addr:state" v="VT"/>
    <tag k="ref:vcgi:esiteid" v="365666"/>
  </node>
  <node id="-1458" visible="true" lat="44.01543203" lon="-72.19039896">
    <tag k="addr:housenumber" v="1100"/>
    <tag k="addr:street" v="Hackett Hill Road"/>
    <tag k="addr:state" v="VT"/>
    <tag k="ref:vcgi:esiteid" v="771449"/>
  </node>
  <node id="-1459" visible="true" lat="43.9970972" lon="-72.17328181">
    <tag k="addr:housenumber" v="1288"/>
    <tag k="addr:street" v="Kidder Road"/>
    <tag k="addr:state" v="VT"/>
    <tag k="ref:vcgi:esiteid" v="772054"/>
  </node>
  <node id="-1460" visible="true" lat="44.02163663" lon="-72.17699489">
    <tag k="addr:housenumber" v="1027"/>
    <tag k="addr:street" v="Kenyon Road"/>
    <tag k="addr:state" v="VT"/>
    <tag k="ref:vcgi:esiteid" v="772055"/>
  </node>
  <node id="-1461" visible="true" lat="43.98390113" lon="-72.15039185">
    <tag k="addr:housenumber" v="465"/>
    <tag k="addr:street" v="South Road"/>
    <tag k="addr:state" v="VT"/>
    <tag k="ref:vcgi:esiteid" v="772056"/>
  </node>
  <node id="-1462" visible="true" lat="43.99988285" lon="-72.14530622">
    <tag k="addr:housenumber" v="694"/>
    <tag k="addr:street" v="Mink Hill"/>
    <tag k="addr:state" v="VT"/>
    <tag k="ref:vcgi:esiteid" v="772057"/>
  </node>
</osm>
