<?xml version="1.0" encoding="UTF-8"?>
<osm version="0.6" generator="JOSM" upload="false">
  <node id="-985" visible="true" lat="44.12746039" lon="-73.08468893">
    <tag k="addr:city" v="Bristol"/>
    <tag k="addr:housenumber" v="199"/>
    <tag k="addr:street" v="Hewitt Road"/>
    <tag k="addr:state" v="VT"/>
    <tag k="ref:vcgi:esiteid" v="39773"/>
  </node>
  <node id="-1115" visible="true" lat="44.10749006" lon="-73.097548">
    <tag k="addr:city" v="Bristol"/>
    <tag k="addr:housenumber" v="31"/>
    <tag k="addr:street" v="Little Brook Lane"/>
    <tag k="addr:state" v="VT"/>
    <tag k="ref:vcgi:esiteid" v="39914"/>
  </node>
  <node id="-1717" visible="true" lat="44.12439734" lon="-73.0320657">
    <tag k="addr:city" v="Bristol"/>
    <tag k="addr:housenumber" v="154"/>
    <tag k="addr:street" v="Alexander Lane"/>
    <tag k="addr:state" v="VT"/>
    <tag k="ref:vcgi:esiteid" v="646511"/>
  </node>
  <node id="-1885" visible="true" lat="44.14285049" lon="-73.07984208">
    <tag k="addr:city" v="Bristol"/>
    <tag k="addr:housenumber" v="122"/>
    <tag k="addr:street" v="Devino Lane"/>
    <tag k="addr:state" v="VT"/>
    <tag k="ref:vcgi:esiteid" v="771253"/>
  </node>
  <node id="-1886" visible="true" lat="44.14642796" lon="-73.08399152">
    <tag k="addr:city" v="Bristol"/>
    <tag k="addr:housenumber" v="138"/>
    <tag k="addr:street" v="North Street"/>
    <tag k="addr:state" v="VT"/>
    <tag k="ref:vcgi:esiteid" v="771364"/>
  </node>
  <node id="-1888" visible="true" lat="44.13880169" lon="-73.08798651">
    <tag k="addr:city" v="Bristol"/>
    <tag k="addr:housenumber" v="70"/>
    <tag k="addr:street" v="Pine Street"/>
    <tag k="addr:state" v="VT"/>
    <tag k="ref:vcgi:esiteid" v="772387"/>
  </node>
  <node id="-1889" visible="true" lat="44.14852414" lon="-73.07997133">
    <tag k="addr:city" v="Bristol"/>
    <tag k="addr:housenumber" v="50"/>
    <tag k="addr:street" v="Sunwood Lane"/>
    <tag k="addr:state" v="VT"/>
    <tag k="ref:vcgi:esiteid" v="772615"/>
  </node>
  <node id="-1890" visible="true" lat="44.08387587" lon="-73.08896492">
    <tag k="addr:city" v="Bristol"/>
    <tag k="addr:housenumber" v="3380"/>
    <tag k="addr:street" v="South 116 Road"/>
    <tag k="addr:state" v="VT"/>
    <tag k="ref:vcgi:esiteid" v="772622"/>
  </node>
</osm>
