<?xml version="1.0" encoding="UTF-8"?>
<osm version="0.6" generator="JOSM" upload="false">
  <node id="-1221" visible="true" lat="44.66503625" lon="-71.97433723">
    <tag k="addr:housenumber" v="178"/>
    <tag k="addr:street" v="White Birch Acres"/>
    <tag k="addr:state" v="VT"/>
    <tag k="ref:vcgi:esiteid" v="763084"/>
  </node>
  <node id="-1268" visible="true" lat="44.60321679" lon="-71.96440104">
    <tag k="addr:housenumber" v="289"/>
    <tag k="addr:street" v="West Darling Hill Road"/>
    <tag k="addr:state" v="VT"/>
    <tag k="ref:vcgi:esiteid" v="771230"/>
  </node>
  <node id="-1269" visible="true" lat="44.60724703" lon="-71.9170991">
    <tag k="addr:housenumber" v="3406"/>
    <tag k="addr:street" v="Pinkham Road"/>
    <tag k="addr:state" v="VT"/>
    <tag k="ref:vcgi:esiteid" v="771299"/>
  </node>
  <node id="-1273" visible="true" lat="44.58988427" lon="-71.95316909">
    <tag k="addr:housenumber" v="434"/>
    <tag k="addr:street" v="East Darling Hill Road"/>
    <tag k="addr:state" v="VT"/>
    <tag k="ref:vcgi:esiteid" v="772183"/>
  </node>
  <node id="-1274" visible="true" lat="44.61926748" lon="-71.91939994">
    <tag k="addr:housenumber" v="65"/>
    <tag k="addr:street" v="Black Bear Hollow"/>
    <tag k="addr:state" v="VT"/>
    <tag k="ref:vcgi:esiteid" v="772297"/>
  </node>
  <node id="-1275" visible="true" lat="44.62523894" lon="-71.9139543">
    <tag k="addr:housenumber" v="808"/>
    <tag k="addr:street" v="Marshall Newland Road"/>
    <tag k="addr:state" v="VT"/>
    <tag k="ref:vcgi:esiteid" v="772652"/>
  </node>
</osm>
