<?xml version="1.0" encoding="UTF-8"?>
<osm version="0.6" generator="JOSM" upload="false">
  <node id="-2246" visible="true" lat="44.50861171" lon="-73.25955925">
    <tag k="addr:city" v="Burlington"/>
    <tag k="addr:housenumber" v="7"/>
    <tag k="addr:street" v="Western Avenue"/>
    <tag k="addr:state" v="VT"/>
    <tag k="ref:vcgi:esiteid" v="44906"/>
  </node>
  <node id="-3691" visible="true" lat="44.48917664" lon="-73.21028279">
    <tag k="addr:city" v="Burlington"/>
    <tag k="addr:housenumber" v="173"/>
    <tag k="addr:street" v="Intervale Avenue"/>
    <tag k="addr:state" v="VT"/>
    <tag k="ref:vcgi:esiteid" v="46357"/>
  </node>
  <node id="-6036" visible="true" lat="44.48326978" lon="-73.19728205">
    <tag k="addr:city" v="Burlington"/>
    <tag k="addr:housenumber" v="92"/>
    <tag k="addr:street" v="Mansfield Avenue"/>
    <tag k="addr:state" v="VT"/>
    <tag k="ref:vcgi:esiteid" v="48723"/>
  </node>
  <node id="-6499" visible="true" lat="44.47803603" lon="-73.21236081">
    <tag k="addr:city" v="Burlington"/>
    <tag k="addr:housenumber" v="84"/>
    <tag k="addr:street" v="Church Street"/>
    <tag k="addr:state" v="VT"/>
    <tag k="ref:vcgi:esiteid" v="49204"/>
  </node>
  <node id="-6541" visible="true" lat="44.4795469" lon="-73.21251746">
    <tag k="addr:city" v="Burlington"/>
    <tag k="addr:housenumber" v="32 1/2"/>
    <tag k="addr:street" v="Church Street"/>
    <tag k="addr:state" v="VT"/>
    <tag k="ref:vcgi:esiteid" v="49246"/>
  </node>
  <node id="-9580" visible="true" lat="44.45872006" lon="-73.21896673">
    <tag k="addr:city" v="Burlington"/>
    <tag k="addr:housenumber" v="85"/>
    <tag k="addr:street" v="Harrison Avenue"/>
    <tag k="addr:state" v="VT"/>
    <tag k="ref:vcgi:esiteid" v="52466"/>
  </node>
  <node id="-10016" visible="true" lat="44.48073682" lon="-73.20734084">
    <tag k="addr:city" v="Burlington"/>
    <tag k="addr:housenumber" v="282"/>
    <tag k="addr:street" v="Pearl Street"/>
    <tag k="addr:state" v="VT"/>
    <tag k="ref:vcgi:esiteid" v="53169"/>
  </node>
  <node id="-10064" visible="true" lat="44.48914998" lon="-73.21030309">
    <tag k="addr:city" v="Burlington"/>
    <tag k="addr:housenumber" v="171"/>
    <tag k="addr:street" v="Intervale Avenue"/>
    <tag k="addr:state" v="VT"/>
    <tag k="ref:vcgi:esiteid" v="53251"/>
  </node>
  <node id="-10859" visible="true" lat="44.47411735" lon="-73.21288167">
    <tag k="addr:city" v="Burlington"/>
    <tag k="addr:housenumber" v="164"/>
    <tag k="addr:street" v="Maple Street"/>
    <tag k="addr:state" v="VT"/>
    <tag k="ref:vcgi:esiteid" v="54452"/>
  </node>
  <node id="-12883" visible="true" lat="44.45378388" lon="-73.21688736">
    <tag k="addr:city" v="Burlington"/>
    <tag k="addr:housenumber" v="22"/>
    <tag k="addr:street" v="Lyman Avenue"/>
    <tag k="addr:state" v="VT"/>
    <tag k="ref:vcgi:esiteid" v="771143"/>
  </node>
  <node id="-12886" visible="true" lat="44.46349308" lon="-73.19679278">
    <tag k="addr:city" v="Burlington"/>
    <tag k="addr:housenumber" v="10"/>
    <tag k="addr:street" v="Fairholt Drive"/>
    <tag k="addr:state" v="VT"/>
    <tag k="ref:vcgi:esiteid" v="771447"/>
  </node>
  <node id="-12889" visible="true" lat="44.51549181" lon="-73.24338114">
    <tag k="addr:city" v="Burlington"/>
    <tag k="addr:housenumber" v="26"/>
    <tag k="addr:street" v="Faith Street"/>
    <tag k="addr:state" v="VT"/>
    <tag k="ref:vcgi:esiteid" v="771814"/>
  </node>
  <node id="-12890" visible="true" lat="44.50179875" lon="-73.24775588">
    <tag k="addr:city" v="Burlington"/>
    <tag k="addr:housenumber" v="211"/>
    <tag k="addr:street" v="Lakewood Parkway"/>
    <tag k="addr:state" v="VT"/>
    <tag k="ref:vcgi:esiteid" v="771850"/>
  </node>
  <node id="-12891" visible="true" lat="44.46871191" lon="-73.19374064">
    <tag k="addr:city" v="Burlington"/>
    <tag k="addr:housenumber" v="85"/>
    <tag k="addr:street" v="Davis Road"/>
    <tag k="addr:state" v="VT"/>
    <tag k="ref:vcgi:esiteid" v="771854"/>
  </node>
  <node id="-12892" visible="true" lat="44.50786506" lon="-73.27228174">
    <tag k="addr:city" v="Burlington"/>
    <tag k="addr:housenumber" v="153"/>
    <tag k="addr:street" v="Nottingham Lane"/>
    <tag k="addr:state" v="VT"/>
    <tag k="ref:vcgi:esiteid" v="771868"/>
  </node>
  <node id="-12893" visible="true" lat="44.5096716" lon="-73.2352603">
    <tag k="addr:city" v="Burlington"/>
    <tag k="addr:housenumber" v="72"/>
    <tag k="addr:street" v="Temple Street"/>
    <tag k="addr:state" v="VT"/>
    <tag k="ref:vcgi:esiteid" v="771976"/>
  </node>
  <node id="-12894" visible="true" lat="44.50972901" lon="-73.23519512">
    <tag k="addr:city" v="Burlington"/>
    <tag k="addr:housenumber" v="70"/>
    <tag k="addr:street" v="Temple Street"/>
    <tag k="addr:state" v="VT"/>
    <tag k="ref:vcgi:esiteid" v="771977"/>
  </node>
  <node id="-12897" visible="true" lat="44.47908681" lon="-73.21564577">
    <tag k="addr:city" v="Burlington"/>
    <tag k="addr:housenumber" v="75"/>
    <tag k="addr:street" v="Cherry Street"/>
    <tag k="addr:state" v="VT"/>
    <tag k="ref:vcgi:esiteid" v="772032"/>
  </node>
  <node id="-12898" visible="true" lat="44.4790918" lon="-73.21534706">
    <tag k="addr:city" v="Burlington"/>
    <tag k="addr:housenumber" v="81"/>
    <tag k="addr:street" v="Cherry Street"/>
    <tag k="addr:state" v="VT"/>
    <tag k="ref:vcgi:esiteid" v="772033"/>
  </node>
  <node id="-12899" visible="true" lat="44.47902034" lon="-73.21511856">
    <tag k="addr:city" v="Burlington"/>
    <tag k="addr:housenumber" v="85"/>
    <tag k="addr:street" v="Cherry Street"/>
    <tag k="addr:state" v="VT"/>
    <tag k="ref:vcgi:esiteid" v="772034"/>
  </node>
  <node id="-12900" visible="true" lat="44.47905425" lon="-73.21484037">
    <tag k="addr:city" v="Burlington"/>
    <tag k="addr:housenumber" v="89"/>
    <tag k="addr:street" v="Cherry Street"/>
    <tag k="addr:state" v="VT"/>
    <tag k="ref:vcgi:esiteid" v="772035"/>
  </node>
  <node id="-12901" visible="true" lat="44.47907014" lon="-73.2145367">
    <tag k="addr:city" v="Burlington"/>
    <tag k="addr:housenumber" v="95"/>
    <tag k="addr:street" v="Cherry Street"/>
    <tag k="addr:state" v="VT"/>
    <tag k="ref:vcgi:esiteid" v="772036"/>
  </node>
  <node id="-12902" visible="true" lat="44.47900895" lon="-73.21443994">
    <tag k="addr:city" v="Burlington"/>
    <tag k="addr:housenumber" v="41"/>
    <tag k="addr:street" v="Saint Paul Street"/>
    <tag k="addr:state" v="VT"/>
    <tag k="ref:vcgi:esiteid" v="772037"/>
  </node>
  <node id="-12903" visible="true" lat="44.47878384" lon="-73.21451389">
    <tag k="addr:city" v="Burlington"/>
    <tag k="addr:housenumber" v="45"/>
    <tag k="addr:street" v="Saint Paul Street"/>
    <tag k="addr:state" v="VT"/>
    <tag k="ref:vcgi:esiteid" v="772038"/>
  </node>
  <node id="-12904" visible="true" lat="44.47860616" lon="-73.21452243">
    <tag k="addr:city" v="Burlington"/>
    <tag k="addr:housenumber" v="51"/>
    <tag k="addr:street" v="Saint Paul Street"/>
    <tag k="addr:state" v="VT"/>
    <tag k="ref:vcgi:esiteid" v="772039"/>
  </node>
  <node id="-12905" visible="true" lat="44.47851367" lon="-73.21572166">
    <tag k="addr:city" v="Burlington"/>
    <tag k="addr:housenumber" v="56"/>
    <tag k="addr:street" v="Pine Street"/>
    <tag k="addr:state" v="VT"/>
    <tag k="ref:vcgi:esiteid" v="772040"/>
  </node>
  <node id="-12906" visible="true" lat="44.47872746" lon="-73.21574383">
    <tag k="addr:city" v="Burlington"/>
    <tag k="addr:housenumber" v="50"/>
    <tag k="addr:street" v="Pine Street"/>
    <tag k="addr:state" v="VT"/>
    <tag k="ref:vcgi:esiteid" v="772041"/>
  </node>
  <node id="-12907" visible="true" lat="44.47890867" lon="-73.21575557">
    <tag k="addr:city" v="Burlington"/>
    <tag k="addr:housenumber" v="44"/>
    <tag k="addr:street" v="Pine Street"/>
    <tag k="addr:state" v="VT"/>
    <tag k="ref:vcgi:esiteid" v="772042"/>
  </node>
  <node id="-12908" visible="true" lat="44.47905016" lon="-73.21573152">
    <tag k="addr:city" v="Burlington"/>
    <tag k="addr:housenumber" v="71"/>
    <tag k="addr:street" v="Cherry Street"/>
    <tag k="addr:state" v="VT"/>
    <tag k="ref:vcgi:esiteid" v="772043"/>
  </node>
  <node id="-12909" visible="true" lat="44.51119005" lon="-73.26696791">
    <tag k="addr:city" v="Burlington"/>
    <tag k="addr:housenumber" v="217"/>
    <tag k="addr:street" v="Curtis Avenue"/>
    <tag k="addr:state" v="VT"/>
    <tag k="ref:vcgi:esiteid" v="772085"/>
  </node>
  <node id="-12910" visible="true" lat="44.49735836" lon="-73.23641788">
    <tag k="addr:city" v="Burlington"/>
    <tag k="addr:housenumber" v="174"/>
    <tag k="addr:street" v="Institute Road"/>
    <tag k="addr:state" v="VT"/>
    <tag k="ref:vcgi:esiteid" v="772181"/>
  </node>
  <node id="-12911" visible="true" lat="44.49467571" lon="-73.23598047">
    <tag k="addr:city" v="Burlington"/>
    <tag k="addr:housenumber" v="251"/>
    <tag k="addr:street" v="Institute Road"/>
    <tag k="addr:state" v="VT"/>
    <tag k="ref:vcgi:esiteid" v="772182"/>
  </node>
  <node id="-12912" visible="true" lat="44.48298258" lon="-73.22024624">
    <tag k="addr:city" v="Burlington"/>
    <tag k="addr:housenumber" v="38 1/2"/>
    <tag k="addr:street" v="Front Street"/>
    <tag k="addr:state" v="VT"/>
    <tag k="ref:vcgi:esiteid" v="772521"/>
  </node>
  <node id="-12913" visible="true" lat="44.4830141" lon="-73.22012347">
    <tag k="addr:city" v="Burlington"/>
    <tag k="addr:housenumber" v="34"/>
    <tag k="addr:street" v="Front Street"/>
    <tag k="addr:state" v="VT"/>
    <tag k="ref:vcgi:esiteid" v="772522"/>
  </node>
  <node id="-12929" visible="true" lat="44.48724068" lon="-73.18417762">
    <tag k="addr:city" v="Burlington"/>
    <tag k="addr:housenumber" v="79 1/2"/>
    <tag k="addr:street" v="Chase Street"/>
    <tag k="addr:state" v="VT"/>
    <tag k="ref:vcgi:esiteid" v="1051116"/>
  </node>
</osm>
