<?xml version="1.0" encoding="UTF-8"?>
<osm version="0.6" generator="JOSM" upload="false">
  <node id="-786" visible="true" lat="44.42004019" lon="-72.33846874">
    <tag k="addr:housenumber" v="45"/>
    <tag k="addr:street" v="Cookson Drive"/>
    <tag k="addr:state" v="VT"/>
    <tag k="ref:vcgi:esiteid" v="56225"/>
  </node>
  <node id="-900" visible="true" lat="44.40156255" lon="-72.32120522">
    <tag k="addr:housenumber" v="427"/>
    <tag k="addr:street" v="Elm Street"/>
    <tag k="addr:state" v="VT"/>
    <tag k="ref:vcgi:esiteid" v="365683"/>
  </node>
  <node id="-913" visible="true" lat="44.42239357" lon="-72.3444858">
    <tag k="addr:housenumber" v="249"/>
    <tag k="addr:street" v="Cookson Drive"/>
    <tag k="addr:state" v="VT"/>
    <tag k="ref:vcgi:esiteid" v="449704"/>
  </node>
  <node id="-1003" visible="true" lat="44.40402" lon="-72.30237518">
    <tag k="addr:housenumber" v="60"/>
    <tag k="addr:street" v="Garden Way"/>
    <tag k="addr:state" v="VT"/>
    <tag k="ref:vcgi:esiteid" v="646566"/>
  </node>
  <node id="-1059" visible="true" lat="44.40714443" lon="-72.30542275">
    <tag k="addr:housenumber" v="3504"/>
    <tag k="addr:street" v="Route 215 North"/>
    <tag k="addr:state" v="VT"/>
    <tag k="ref:vcgi:esiteid" v="771413"/>
  </node>
  <node id="-1060" visible="true" lat="44.40956483" lon="-72.30400662">
    <tag k="addr:housenumber" v="3692"/>
    <tag k="addr:street" v="Route 215 North"/>
    <tag k="addr:state" v="VT"/>
    <tag k="ref:vcgi:esiteid" v="771414"/>
  </node>
  <node id="-1061" visible="true" lat="44.41048841" lon="-72.30042777">
    <tag k="addr:housenumber" v="22"/>
    <tag k="addr:street" v="Garney Road"/>
    <tag k="addr:state" v="VT"/>
    <tag k="ref:vcgi:esiteid" v="771415"/>
  </node>
  <node id="-1062" visible="true" lat="44.40407827" lon="-72.35801105">
    <tag k="addr:housenumber" v="1064"/>
    <tag k="addr:street" v="Blodgett Road"/>
    <tag k="addr:state" v="VT"/>
    <tag k="ref:vcgi:esiteid" v="771752"/>
  </node>
  <node id="-1063" visible="true" lat="44.39569629" lon="-72.28196075">
    <tag k="addr:housenumber" v="1758"/>
    <tag k="addr:street" v="Danville Hill Road"/>
    <tag k="addr:state" v="VT"/>
    <tag k="ref:vcgi:esiteid" v="771880"/>
  </node>
  <node id="-1064" visible="true" lat="44.36751363" lon="-72.26173922">
    <tag k="addr:housenumber" v="385"/>
    <tag k="addr:street" v="Houghton Road"/>
    <tag k="addr:state" v="VT"/>
    <tag k="ref:vcgi:esiteid" v="772052"/>
  </node>
  <node id="-1066" visible="true" lat="44.42457363" lon="-72.34227418">
    <tag k="addr:housenumber" v="433"/>
    <tag k="addr:street" v="Cookson Drive"/>
    <tag k="addr:state" v="VT"/>
    <tag k="ref:vcgi:esiteid" v="772560"/>
  </node>
  <node id="-1067" visible="true" lat="44.42106973" lon="-72.33999012">
    <tag k="addr:housenumber" v="155"/>
    <tag k="addr:street" v="Cookson Drive"/>
    <tag k="addr:state" v="VT"/>
    <tag k="ref:vcgi:esiteid" v="772561"/>
  </node>
</osm>
