<?xml version="1.0" encoding="UTF-8"?>
<osm version="0.6" generator="JOSM" upload="false">
  <node id="-379" visible="true" lat="44.37846775" lon="-72.49758591">
    <tag k="addr:housenumber" v="172"/>
    <tag k="addr:street" v="Lower Curtis Pond Road"/>
    <tag k="addr:state" v="VT"/>
    <tag k="ref:vcgi:esiteid" v="56545"/>
  </node>
  <node id="-1077" visible="true" lat="44.30714427" lon="-72.4412869">
    <tag k="addr:housenumber" v="314"/>
    <tag k="addr:street" v="Butterfield Road"/>
    <tag k="addr:state" v="VT"/>
    <tag k="ref:vcgi:esiteid" v="771409"/>
  </node>
  <node id="-1078" visible="true" lat="44.38415992" lon="-72.51557862">
    <tag k="addr:housenumber" v="522"/>
    <tag k="addr:street" v="Collar Hill Road"/>
    <tag k="addr:state" v="VT"/>
    <tag k="ref:vcgi:esiteid" v="771577"/>
  </node>
  <node id="-1079" visible="true" lat="44.38326235" lon="-72.41768291">
    <tag k="addr:housenumber" v="5980"/>
    <tag k="addr:street" v="Vermont Route 14"/>
    <tag k="addr:state" v="VT"/>
    <tag k="ref:vcgi:esiteid" v="772306"/>
  </node>
  <node id="-1080" visible="true" lat="44.38061184" lon="-72.45698841">
    <tag k="addr:housenumber" v="73"/>
    <tag k="addr:street" v="Dugar Brook Road"/>
    <tag k="addr:state" v="VT"/>
    <tag k="ref:vcgi:esiteid" v="772327"/>
  </node>
  <node id="-1081" visible="true" lat="44.34235126" lon="-72.48336099">
    <tag k="addr:housenumber" v="174"/>
    <tag k="addr:street" v="Leonard Road"/>
    <tag k="addr:state" v="VT"/>
    <tag k="ref:vcgi:esiteid" v="772625"/>
  </node>
</osm>
