<?xml version="1.0" encoding="UTF-8"?>
<osm version="0.6" generator="JOSM" upload="false">
  <node id="-1941" visible="true" lat="44.58449344" lon="-72.84552145">
    <tag k="addr:housenumber" v="2012"/>
    <tag k="addr:street" v="Iron Gate Road"/>
    <tag k="addr:state" v="VT"/>
    <tag k="ref:vcgi:esiteid" v="761294"/>
  </node>
  <node id="-2080" visible="true" lat="44.59781972" lon="-72.78411802">
    <tag k="addr:housenumber" v="1033"/>
    <tag k="addr:street" v="Road 101"/>
    <tag k="addr:state" v="VT"/>
    <tag k="ref:vcgi:esiteid" v="771136"/>
  </node>
  <node id="-2081" visible="true" lat="44.65723934" lon="-72.83551065">
    <tag k="addr:housenumber" v="294"/>
    <tag k="addr:street" v="Craig Lane"/>
    <tag k="addr:state" v="VT"/>
    <tag k="ref:vcgi:esiteid" v="771163"/>
  </node>
  <node id="-2083" visible="true" lat="44.64576624" lon="-72.83234388">
    <tag k="addr:housenumber" v="4964"/>
    <tag k="addr:street" v="Vermont Route 15"/>
    <tag k="addr:state" v="VT"/>
    <tag k="ref:vcgi:esiteid" v="771376"/>
  </node>
  <node id="-2084" visible="true" lat="44.62943719" lon="-72.82723659">
    <tag k="addr:housenumber" v="103"/>
    <tag k="addr:street" v="Highlander Drive"/>
    <tag k="addr:state" v="VT"/>
    <tag k="ref:vcgi:esiteid" v="771527"/>
  </node>
  <node id="-2085" visible="true" lat="44.60256403" lon="-72.77710943">
    <tag k="addr:housenumber" v="319"/>
    <tag k="addr:street" v="Sweeney Lane"/>
    <tag k="addr:state" v="VT"/>
    <tag k="ref:vcgi:esiteid" v="771751"/>
  </node>
  <node id="-2086" visible="true" lat="44.62798778" lon="-72.809242">
    <tag k="addr:housenumber" v="321"/>
    <tag k="addr:street" v="Clif Reynolds Road"/>
    <tag k="addr:state" v="VT"/>
    <tag k="ref:vcgi:esiteid" v="771845"/>
  </node>
  <node id="-2087" visible="true" lat="44.64300527" lon="-72.82725973">
    <tag k="addr:housenumber" v="22"/>
    <tag k="addr:street" v="Williamson Court"/>
    <tag k="addr:state" v="VT"/>
    <tag k="ref:vcgi:esiteid" v="772009"/>
  </node>
  <node id="-2088" visible="true" lat="44.65847065" lon="-72.79640271">
    <tag k="addr:housenumber" v="7035"/>
    <tag k="addr:street" v="Vermont Route 15"/>
    <tag k="addr:state" v="VT"/>
    <tag k="ref:vcgi:esiteid" v="772315"/>
  </node>
  <node id="-2089" visible="true" lat="44.63551643" lon="-72.83321689">
    <tag k="addr:housenumber" v="67"/>
    <tag k="addr:street" v="Greystone Drive"/>
    <tag k="addr:state" v="VT"/>
    <tag k="ref:vcgi:esiteid" v="772328"/>
  </node>
  <node id="-2090" visible="true" lat="44.63722455" lon="-72.83581384">
    <tag k="addr:housenumber" v="186"/>
    <tag k="addr:street" v="Greystone Drive"/>
    <tag k="addr:state" v="VT"/>
    <tag k="ref:vcgi:esiteid" v="772329"/>
  </node>
  <node id="-2091" visible="true" lat="44.63628327" lon="-72.83183851">
    <tag k="addr:housenumber" v="322"/>
    <tag k="addr:street" v="Jeff Heights Road"/>
    <tag k="addr:state" v="VT"/>
    <tag k="ref:vcgi:esiteid" v="772330"/>
  </node>
</osm>
