<?xml version="1.0" encoding="UTF-8"?>
<osm version="0.6" generator="JOSM" upload="false">
  <node id="-1095" visible="true" lat="44.97099524" lon="-71.62947272">
    <tag k="addr:city" v="Canaan"/>
    <tag k="addr:housenumber" v="5408"/>
    <tag k="addr:street" v="Canaan Hill Road"/>
    <tag k="addr:state" v="VT"/>
    <tag k="ref:vcgi:esiteid" v="764464"/>
  </node>
  <node id="-1164" visible="true" lat="45.00582756" lon="-71.55414354">
    <tag k="addr:city" v="Canaan"/>
    <tag k="addr:housenumber" v="622"/>
    <tag k="addr:street" v="Vermont Route 114"/>
    <tag k="addr:state" v="VT"/>
    <tag k="ref:vcgi:esiteid" v="771565"/>
  </node>
  <node id="-1165" visible="true" lat="44.97330905" lon="-71.58950629">
    <tag k="addr:city" v="Canaan"/>
    <tag k="addr:housenumber" v="2955"/>
    <tag k="addr:street" v="Canaan Hill Road"/>
    <tag k="addr:state" v="VT"/>
    <tag k="ref:vcgi:esiteid" v="771606"/>
  </node>
  <node id="-1166" visible="true" lat="44.99108285" lon="-71.57725976">
    <tag k="addr:city" v="Canaan"/>
    <tag k="addr:housenumber" v="236"/>
    <tag k="addr:street" v="Bunnell Brook Drive"/>
    <tag k="addr:state" v="VT"/>
    <tag k="ref:vcgi:esiteid" v="772546"/>
  </node>
</osm>
