<?xml version="1.0" encoding="UTF-8"?>
<osm version="0.6" generator="JOSM" upload="false">
  <node id="-157" visible="true" lat="43.44450045" lon="-72.66059049">
    <!-- offset: "984 Chapman Road, , VT" Significant offset - 169.9m -->
    <tag k="addr:housenumber" v="984"/>
    <tag k="addr:street" v="Chapman Road"/>
    <tag k="addr:state" v="VT"/>
    <tag k="ref:vcgi:esiteid" v="61512"/>
  </node>
  <node id="-264" visible="true" lat="43.41435415" lon="-72.61007327">
    <!-- offset: "366 Town Farm Road, , VT" Significant offset - 8597.8m -->
    <tag k="addr:housenumber" v="366"/>
    <tag k="addr:street" v="Town Farm Road"/>
    <tag k="addr:state" v="VT"/>
    <tag k="ref:vcgi:esiteid" v="61621"/>
  </node>
  <node id="-585" visible="true" lat="43.38354457" lon="-72.6073763">
    <!-- offset: "81 High Street, , VT" Significant offset - 8072.7m -->
    <tag k="addr:housenumber" v="81"/>
    <tag k="addr:street" v="High Street"/>
    <tag k="addr:state" v="VT"/>
    <tag k="ref:vcgi:esiteid" v="61967"/>
  </node>
  <node id="-610" visible="true" lat="43.38287353" lon="-72.60773468">
    <!-- offset: "37 High Street, , VT" Significant offset - 7638.7m -->
    <tag k="addr:housenumber" v="37"/>
    <tag k="addr:street" v="High Street"/>
    <tag k="addr:state" v="VT"/>
    <tag k="ref:vcgi:esiteid" v="61997"/>
  </node>
  <node id="-653" visible="true" lat="43.38219833" lon="-72.63754272">
    <!-- offset: "57 Depot Street, , VT" Significant offset - 5321.6m -->
    <tag k="addr:housenumber" v="57"/>
    <tag k="addr:street" v="Depot Street"/>
    <tag k="addr:state" v="VT"/>
    <tag k="ref:vcgi:esiteid" v="62045"/>
  </node>
  <node id="-685" visible="true" lat="43.38158532" lon="-72.64281987">
    <!-- offset: "224 Main Street, , VT" Significant offset - 5174.7m -->
    <tag k="addr:housenumber" v="224"/>
    <tag k="addr:street" v="Main Street"/>
    <tag k="addr:state" v="VT"/>
    <tag k="ref:vcgi:esiteid" v="62082"/>
  </node>
  <node id="-687" visible="true" lat="43.38154602" lon="-72.6435852">
    <!-- offset: "192 Main Street, , VT" Significant offset - 4948.5m -->
    <tag k="addr:housenumber" v="192"/>
    <tag k="addr:street" v="Main Street"/>
    <tag k="addr:state" v="VT"/>
    <tag k="ref:vcgi:esiteid" v="62084"/>
  </node>
  <node id="-931" visible="true" lat="43.37808572" lon="-72.62937069">
    <!-- offset: "476 Pratt Hill, , VT" Significant offset - 374.8m -->
    <tag k="addr:housenumber" v="476"/>
    <tag k="addr:street" v="Pratt Hill"/>
    <tag k="addr:state" v="VT"/>
    <tag k="ref:vcgi:esiteid" v="62351"/>
  </node>
  <node id="-1000" visible="true" lat="43.43784267" lon="-72.65635634">
    <!-- offset: "352 Chapman Road, , VT" Significant offset - 3367.5m -->
    <tag k="addr:housenumber" v="352"/>
    <tag k="addr:street" v="Chapman Road"/>
    <tag k="addr:state" v="VT"/>
    <tag k="ref:vcgi:esiteid" v="306995"/>
  </node>
  <node id="-1044" visible="true" lat="43.41649912" lon="-72.63627861">
    <!-- offset: "993 Heald Road, , VT" Significant offset - 260.7m -->
    <tag k="addr:housenumber" v="993"/>
    <tag k="addr:street" v="Heald Road"/>
    <tag k="addr:state" v="VT"/>
    <tag k="ref:vcgi:esiteid" v="448959"/>
  </node>
  <node id="-1157" visible="true" lat="43.41046543" lon="-72.60677519">
    <!-- offset: "61 Town Farm Road, , VT" Significant offset - 8095.7m -->
    <tag k="addr:housenumber" v="61"/>
    <tag k="addr:street" v="Town Farm Road"/>
    <tag k="addr:state" v="VT"/>
    <tag k="ref:vcgi:esiteid" v="771194"/>
  </node>
</osm>
