<?xml version="1.0" encoding="UTF-8"?>
<osm version="0.6" generator="JOSM" upload="false">
  <node id="-969" visible="true" lat="44.30256652" lon="-73.23876953">
    <!-- conflict: "361 Colonel Williams Way, Charlotte, VT" No match in OSM, but a different address exists <5m away: "361 Col Williams Way, Charlotte, VT" -->
    <tag k="addr:city" v="Charlotte"/>
    <tag k="addr:housenumber" v="361"/>
    <tag k="addr:street" v="Colonel Williams Way"/>
    <tag k="addr:state" v="VT"/>
    <tag k="ref:vcgi:esiteid" v="64010"/>
  </node>
  <node id="-997" visible="true" lat="44.30098724" lon="-73.2429428">
    <!-- conflict: "207 Colonel Williams Way, Charlotte, VT" No match in OSM, but a different address exists <5m away: "207 Col Williams Way, Charlotte, VT" -->
    <tag k="addr:city" v="Charlotte"/>
    <tag k="addr:housenumber" v="207"/>
    <tag k="addr:street" v="Colonel Williams Way"/>
    <tag k="addr:state" v="VT"/>
    <tag k="ref:vcgi:esiteid" v="64038"/>
  </node>
  <node id="-1004" visible="true" lat="44.29991467" lon="-73.24160191">
    <!-- conflict: "208 Colonel Williams Way, Charlotte, VT" No match in OSM, but a different address exists <5m away: "208 Col Williams Way, Charlotte, VT" -->
    <tag k="addr:city" v="Charlotte"/>
    <tag k="addr:housenumber" v="208"/>
    <tag k="addr:street" v="Colonel Williams Way"/>
    <tag k="addr:state" v="VT"/>
    <tag k="ref:vcgi:esiteid" v="64047"/>
  </node>
  <node id="-1314" visible="true" lat="44.28498262" lon="-73.25803871">
    <!-- conflict: "4630 Greenbush Road, Charlotte, VT" No match in OSM, but a different address exists <5m away: "4650 Greenbush Road, Charlotte, VT" -->
    <tag k="addr:city" v="Charlotte"/>
    <tag k="addr:housenumber" v="4630"/>
    <tag k="addr:street" v="Greenbush Road"/>
    <tag k="addr:state" v="VT"/>
    <tag k="ref:vcgi:esiteid" v="64378"/>
  </node>
  <node id="-2316" visible="true" lat="44.2929218" lon="-73.24095667">
    <!-- conflict: "28 Old Higbee Road, Charlotte, VT" No match in OSM, but a different address exists <5m away: "85 Old Higbee Road, Charlotte, VT" -->
    <tag k="addr:city" v="Charlotte"/>
    <tag k="addr:housenumber" v="28"/>
    <tag k="addr:street" v="Old Higbee Road"/>
    <tag k="addr:state" v="VT"/>
    <tag k="ref:vcgi:esiteid" v="770751"/>
  </node>
</osm>
