<?xml version="1.0" encoding="UTF-8"?>
<osm version="0.6" generator="JOSM" upload="false">
  <node id="-1924" visible="true" lat="43.28984588" lon="-72.57822286">
    <tag k="addr:city" v="Chester"/>
    <tag k="addr:housenumber" v="1481"/>
    <tag k="addr:street" v="Flamstead Road"/>
    <tag k="addr:state" v="VT"/>
    <tag k="ref:vcgi:esiteid" v="646459"/>
  </node>
  <node id="-1925" visible="true" lat="43.26293003" lon="-72.59918762">
    <tag k="addr:city" v="Chester"/>
    <tag k="addr:housenumber" v="110"/>
    <tag k="addr:street" v="School Street"/>
    <tag k="addr:state" v="VT"/>
    <tag k="ref:vcgi:esiteid" v="646478"/>
  </node>
  <node id="-1926" visible="true" lat="43.24567949" lon="-72.57236495">
    <tag k="addr:city" v="Chester"/>
    <tag k="addr:housenumber" v="163"/>
    <tag k="addr:street" v="Remington Road"/>
    <tag k="addr:state" v="VT"/>
    <tag k="ref:vcgi:esiteid" v="646514"/>
  </node>
  <node id="-1927" visible="true" lat="43.24459185" lon="-72.57284232">
    <tag k="addr:city" v="Chester"/>
    <tag k="addr:housenumber" v="266"/>
    <tag k="addr:street" v="Remington Road"/>
    <tag k="addr:state" v="VT"/>
    <tag k="ref:vcgi:esiteid" v="646515"/>
  </node>
  <node id="-2017" visible="true" lat="43.24353422" lon="-72.63005107">
    <tag k="addr:city" v="Chester"/>
    <tag k="addr:housenumber" v="1304"/>
    <tag k="addr:street" v="Popple Dungeon Road"/>
    <tag k="addr:state" v="VT"/>
    <tag k="ref:vcgi:esiteid" v="769552"/>
  </node>
  <node id="-2027" visible="true" lat="43.31959597" lon="-72.6089633">
    <tag k="addr:city" v="Chester"/>
    <tag k="addr:housenumber" v="2985"/>
    <tag k="addr:street" v="Vermont Route 103 North"/>
    <tag k="addr:state" v="VT"/>
    <tag k="ref:vcgi:esiteid" v="771811"/>
  </node>
  <node id="-2031" visible="true" lat="43.32588968" lon="-72.58822743">
    <tag k="addr:city" v="Chester"/>
    <tag k="addr:housenumber" v="956"/>
    <tag k="addr:street" v="Vermont Route 10"/>
    <tag k="addr:state" v="VT"/>
    <tag k="ref:vcgi:esiteid" v="772549"/>
  </node>
  <node id="-2032" visible="true" lat="43.23616276" lon="-72.63564836">
    <tag k="addr:city" v="Chester"/>
    <tag k="addr:housenumber" v="761"/>
    <tag k="addr:street" v="Old Stage Road"/>
    <tag k="addr:state" v="VT"/>
    <tag k="ref:vcgi:esiteid" v="772644"/>
  </node>
</osm>
