<?xml version="1.0" encoding="UTF-8"?>
<osm version="0.6" generator="JOSM" upload="false">
  <node id="-271" visible="true" lat="44.59614383" lon="-73.19230075">
    <tag k="addr:city" v="Colchester"/>
    <tag k="addr:housenumber" v="889"/>
    <tag k="addr:street" v="Jasper Mine Road"/>
    <tag k="addr:state" v="VT"/>
    <tag k="ref:vcgi:esiteid" v="69623"/>
  </node>
  <node id="-6291" visible="true" lat="44.54650232" lon="-73.27099373">
    <tag k="addr:city" v="Colchester"/>
    <tag k="addr:housenumber" v="79"/>
    <tag k="addr:street" v="Colchester Point Road"/>
    <tag k="addr:state" v="VT"/>
    <tag k="ref:vcgi:esiteid" v="365680"/>
  </node>
  <node id="-6292" visible="true" lat="44.54671053" lon="-73.27063585">
    <tag k="addr:city" v="Colchester"/>
    <tag k="addr:housenumber" v="75"/>
    <tag k="addr:street" v="Colchester Point Road"/>
    <tag k="addr:state" v="VT"/>
    <tag k="ref:vcgi:esiteid" v="365681"/>
  </node>
  <node id="-6580" visible="true" lat="44.56979326" lon="-73.23696236">
    <tag k="addr:city" v="Colchester"/>
    <tag k="addr:housenumber" v="77"/>
    <tag k="addr:street" v="Mariner Heights"/>
    <tag k="addr:state" v="VT"/>
    <tag k="ref:vcgi:esiteid" v="646503"/>
  </node>
  <node id="-6581" visible="true" lat="44.57455128" lon="-73.20998817">
    <tag k="addr:city" v="Colchester"/>
    <tag k="addr:housenumber" v="1583"/>
    <tag k="addr:street" v="Brae Loch Road"/>
    <tag k="addr:state" v="VT"/>
    <tag k="ref:vcgi:esiteid" v="646575"/>
  </node>
  <node id="-6960" visible="true" lat="44.51013254" lon="-73.18006457">
    <tag k="addr:city" v="Colchester"/>
    <tag k="addr:housenumber" v="555"/>
    <tag k="addr:street" v="Roosevelt Highway"/>
    <tag k="addr:state" v="VT"/>
    <tag k="ref:vcgi:esiteid" v="771379"/>
  </node>
  <node id="-6961" visible="true" lat="44.50681438" lon="-73.16105204">
    <tag k="addr:city" v="Colchester"/>
    <tag k="addr:housenumber" v="89"/>
    <tag k="addr:street" v="Ordinance Loop Road"/>
    <tag k="addr:state" v="VT"/>
    <tag k="ref:vcgi:esiteid" v="771690"/>
  </node>
  <node id="-6962" visible="true" lat="44.50673011" lon="-73.16057364">
    <tag k="addr:city" v="Colchester"/>
    <tag k="addr:housenumber" v="111"/>
    <tag k="addr:street" v="Ordinance Loop Road"/>
    <tag k="addr:state" v="VT"/>
    <tag k="ref:vcgi:esiteid" v="771691"/>
  </node>
  <node id="-6963" visible="true" lat="44.50684738" lon="-73.16028344">
    <tag k="addr:city" v="Colchester"/>
    <tag k="addr:housenumber" v="127"/>
    <tag k="addr:street" v="Ordinance Loop Road"/>
    <tag k="addr:state" v="VT"/>
    <tag k="ref:vcgi:esiteid" v="771692"/>
  </node>
  <node id="-6964" visible="true" lat="44.50691714" lon="-73.15996374">
    <tag k="addr:city" v="Colchester"/>
    <tag k="addr:housenumber" v="143"/>
    <tag k="addr:street" v="Ordinance Loop Road"/>
    <tag k="addr:state" v="VT"/>
    <tag k="ref:vcgi:esiteid" v="771693"/>
  </node>
  <node id="-6965" visible="true" lat="44.50708927" lon="-73.15935788">
    <tag k="addr:city" v="Colchester"/>
    <tag k="addr:housenumber" v="175"/>
    <tag k="addr:street" v="Ordinance Loop Road"/>
    <tag k="addr:state" v="VT"/>
    <tag k="ref:vcgi:esiteid" v="771694"/>
  </node>
  <node id="-6966" visible="true" lat="44.50758807" lon="-73.15892931">
    <tag k="addr:city" v="Colchester"/>
    <tag k="addr:housenumber" v="224"/>
    <tag k="addr:street" v="Ordinance Loop Road"/>
    <tag k="addr:state" v="VT"/>
    <tag k="ref:vcgi:esiteid" v="771695"/>
  </node>
  <node id="-6967" visible="true" lat="44.50750588" lon="-73.15937785">
    <tag k="addr:city" v="Colchester"/>
    <tag k="addr:housenumber" v="350"/>
    <tag k="addr:street" v="Ordinance Loop Road"/>
    <tag k="addr:state" v="VT"/>
    <tag k="ref:vcgi:esiteid" v="771696"/>
  </node>
  <node id="-6968" visible="true" lat="44.50802956" lon="-73.15868744">
    <tag k="addr:city" v="Colchester"/>
    <tag k="addr:housenumber" v="256"/>
    <tag k="addr:street" v="Ordinance Loop Road"/>
    <tag k="addr:state" v="VT"/>
    <tag k="ref:vcgi:esiteid" v="771697"/>
  </node>
  <node id="-6970" visible="true" lat="44.50509158" lon="-73.16657279">
    <tag k="addr:city" v="Colchester"/>
    <tag k="addr:housenumber" v="147"/>
    <tag k="addr:street" v="Barnes Avenue"/>
    <tag k="addr:state" v="VT"/>
    <tag k="ref:vcgi:esiteid" v="771699"/>
  </node>
  <node id="-6971" visible="true" lat="44.50295033" lon="-73.16386048">
    <tag k="addr:city" v="Colchester"/>
    <tag k="addr:housenumber" v="101"/>
    <tag k="addr:street" v="Cantonment Circle"/>
    <tag k="addr:state" v="VT"/>
    <tag k="ref:vcgi:esiteid" v="771700"/>
  </node>
  <node id="-6972" visible="true" lat="44.50227815" lon="-73.16518588">
    <tag k="addr:city" v="Colchester"/>
    <tag k="addr:housenumber" v="15"/>
    <tag k="addr:street" v="Cantonment Circle"/>
    <tag k="addr:state" v="VT"/>
    <tag k="ref:vcgi:esiteid" v="771701"/>
  </node>
  <node id="-6974" visible="true" lat="44.51104454" lon="-73.16647342">
    <tag k="addr:city" v="Colchester"/>
    <tag k="addr:housenumber" v="419"/>
    <tag k="addr:street" v="Eoc Road"/>
    <tag k="addr:state" v="VT"/>
    <tag k="ref:vcgi:esiteid" v="771703"/>
  </node>
  <node id="-6975" visible="true" lat="44.51155558" lon="-73.16682422">
    <tag k="addr:city" v="Colchester"/>
    <tag k="addr:housenumber" v="444"/>
    <tag k="addr:street" v="Eoc Road"/>
    <tag k="addr:state" v="VT"/>
    <tag k="ref:vcgi:esiteid" v="771704"/>
  </node>
  <node id="-6976" visible="true" lat="44.5115978" lon="-73.1669783">
    <tag k="addr:city" v="Colchester"/>
    <tag k="addr:housenumber" v="450"/>
    <tag k="addr:street" v="Eoc Road"/>
    <tag k="addr:state" v="VT"/>
    <tag k="ref:vcgi:esiteid" v="771705"/>
  </node>
  <node id="-6977" visible="true" lat="44.51190551" lon="-73.16753185">
    <tag k="addr:city" v="Colchester"/>
    <tag k="addr:housenumber" v="486"/>
    <tag k="addr:street" v="Eoc Road"/>
    <tag k="addr:state" v="VT"/>
    <tag k="ref:vcgi:esiteid" v="771706"/>
  </node>
  <node id="-6978" visible="true" lat="44.51155135" lon="-73.16749902">
    <tag k="addr:city" v="Colchester"/>
    <tag k="addr:housenumber" v="471"/>
    <tag k="addr:street" v="Eoc Road"/>
    <tag k="addr:state" v="VT"/>
    <tag k="ref:vcgi:esiteid" v="771707"/>
  </node>
  <node id="-6979" visible="true" lat="44.50760807" lon="-73.15965525">
    <tag k="addr:city" v="Colchester"/>
    <tag k="addr:housenumber" v="364"/>
    <tag k="addr:street" v="Ordinance Loop Road"/>
    <tag k="addr:state" v="VT"/>
    <tag k="ref:vcgi:esiteid" v="771708"/>
  </node>
</osm>
