<?xml version="1.0" encoding="UTF-8"?>
<osm version="0.6" generator="JOSM" upload="false">
  <node id="-960" visible="true" lat="44.40094938" lon="-71.8252502">
    <tag k="addr:housenumber" v="1665"/>
    <tag k="addr:street" v="Johnson Road"/>
    <tag k="addr:state" v="VT"/>
    <tag k="ref:vcgi:esiteid" v="337462"/>
  </node>
  <node id="-1116" visible="true" lat="44.40227897" lon="-71.86839338">
    <tag k="addr:housenumber" v="3062"/>
    <tag k="addr:street" v="Shadow Lake Road"/>
    <tag k="addr:state" v="VT"/>
    <tag k="ref:vcgi:esiteid" v="763858"/>
  </node>
  <node id="-1121" visible="true" lat="44.40624969" lon="-71.88086396">
    <tag k="addr:housenumber" v="1891"/>
    <tag k="addr:street" v="Shadow Lake Road"/>
    <tag k="addr:state" v="VT"/>
    <tag k="ref:vcgi:esiteid" v="771464"/>
  </node>
  <node id="-1124" visible="true" lat="44.40327552" lon="-71.82538517">
    <tag k="addr:housenumber" v="1555"/>
    <tag k="addr:street" v="Johnson Road"/>
    <tag k="addr:state" v="VT"/>
    <tag k="ref:vcgi:esiteid" v="771790"/>
  </node>
  <node id="-1126" visible="true" lat="44.3919873" lon="-71.82701128">
    <tag k="addr:housenumber" v="457"/>
    <tag k="addr:street" v="Cutting Road"/>
    <tag k="addr:state" v="VT"/>
    <tag k="ref:vcgi:esiteid" v="772295"/>
  </node>
</osm>
