<?xml version="1.0" encoding="UTF-8"?>
<osm version="0.6" generator="JOSM" upload="false">
  <node id="-139" visible="true" lat="44.92532995" lon="-72.27081241">
    <!-- offset: "711 Petit Road, , VT" Significant offset - 428.7m -->
    <tag k="addr:housenumber" v="711"/>
    <tag k="addr:street" v="Petit Road"/>
    <tag k="addr:state" v="VT"/>
    <tag k="ref:vcgi:esiteid" v="78470"/>
  </node>
  <node id="-363" visible="true" lat="44.86691036" lon="-72.26424321">
    <!-- offset: "150 Main Street, , VT" Significant offset - 8821.8m -->
    <tag k="addr:housenumber" v="150"/>
    <tag k="addr:street" v="Main Street"/>
    <tag k="addr:state" v="VT"/>
    <tag k="ref:vcgi:esiteid" v="78699"/>
  </node>
  <node id="-391" visible="true" lat="44.86434936" lon="-72.26711273">
    <!-- offset: "182 Covered Bridge Road, , VT" Significant offset - 6247.3m -->
    <tag k="addr:housenumber" v="182"/>
    <tag k="addr:street" v="Covered Bridge Road"/>
    <tag k="addr:state" v="VT"/>
    <tag k="ref:vcgi:esiteid" v="78735"/>
  </node>
</osm>
