<?xml version="1.0" encoding="UTF-8"?>
<osm version="0.6" generator="JOSM" upload="false">
  <node id="-828" visible="true" lat="44.70376745" lon="-72.42303243">
    <tag k="addr:housenumber" v="3551"/>
    <tag k="addr:street" v="Coburn Hill Road"/>
    <tag k="addr:state" v="VT"/>
    <tag k="ref:vcgi:esiteid" v="610312"/>
  </node>
  <node id="-837" visible="true" lat="44.61675472" lon="-72.35611619">
    <tag k="addr:housenumber" v="100"/>
    <tag k="addr:street" v="Weber Brook Lane"/>
    <tag k="addr:state" v="VT"/>
    <tag k="ref:vcgi:esiteid" v="612066"/>
  </node>
  <node id="-849" visible="true" lat="44.6582668" lon="-72.40273965">
    <tag k="addr:housenumber" v="1174"/>
    <tag k="addr:street" v="Post Road"/>
    <tag k="addr:state" v="VT"/>
    <tag k="ref:vcgi:esiteid" v="646540"/>
  </node>
  <node id="-928" visible="true" lat="44.61776557" lon="-72.37759359">
    <tag k="addr:housenumber" v="90"/>
    <tag k="addr:street" v="Seraphin Crescent Drive"/>
    <tag k="addr:state" v="VT"/>
    <tag k="ref:vcgi:esiteid" v="771595"/>
  </node>
  <node id="-929" visible="true" lat="44.61748005" lon="-72.37767014">
    <tag k="addr:housenumber" v="91"/>
    <tag k="addr:street" v="Seraphin Crescent Drive"/>
    <tag k="addr:state" v="VT"/>
    <tag k="ref:vcgi:esiteid" v="771596"/>
  </node>
  <node id="-930" visible="true" lat="44.64146743" lon="-72.38978174">
    <tag k="addr:housenumber" v="27"/>
    <tag k="addr:street" v="Scotts Lane"/>
    <tag k="addr:state" v="VT"/>
    <tag k="ref:vcgi:esiteid" v="771859"/>
  </node>
  <node id="-931" visible="true" lat="44.63847408" lon="-72.38585793">
    <tag k="addr:housenumber" v="106"/>
    <tag k="addr:street" v="Prescott Drive"/>
    <tag k="addr:state" v="VT"/>
    <tag k="ref:vcgi:esiteid" v="771899"/>
  </node>
  <node id="-932" visible="true" lat="44.61940009" lon="-72.35506358">
    <tag k="addr:housenumber" v="287"/>
    <tag k="addr:street" v="Weber Brook Lane"/>
    <tag k="addr:state" v="VT"/>
    <tag k="ref:vcgi:esiteid" v="772004"/>
  </node>
  <node id="-933" visible="true" lat="44.61885494" lon="-72.35550679">
    <tag k="addr:housenumber" v="249"/>
    <tag k="addr:street" v="Weber Brook Lane"/>
    <tag k="addr:state" v="VT"/>
    <tag k="ref:vcgi:esiteid" v="772005"/>
  </node>
  <node id="-934" visible="true" lat="44.6183735" lon="-72.3557546">
    <tag k="addr:housenumber" v="219"/>
    <tag k="addr:street" v="Weber Brook Lane"/>
    <tag k="addr:state" v="VT"/>
    <tag k="ref:vcgi:esiteid" v="772006"/>
  </node>
  <node id="-935" visible="true" lat="44.61671909" lon="-72.35755648">
    <tag k="addr:housenumber" v="92"/>
    <tag k="addr:street" v="Weber Brook Lane"/>
    <tag k="addr:state" v="VT"/>
    <tag k="ref:vcgi:esiteid" v="772507"/>
  </node>
</osm>
