<?xml version="1.0" encoding="UTF-8"?>
<osm version="0.6" generator="JOSM" upload="false">
  <node id="-155" visible="true" lat="44.68107942" lon="-72.36505085">
    <!-- multiple: "71 East Shore Drive, , VT" Multiple exact matches in OSM. -->
    <tag k="addr:housenumber" v="71"/>
    <tag k="addr:street" v="East Shore Drive"/>
    <tag k="addr:state" v="VT"/>
    <tag k="ref:vcgi:esiteid" v="78933"/>
  </node>
  <node id="-158" visible="true" lat="44.68035409" lon="-72.36348011">
    <!-- multiple: "535 Lost Nation Road, , VT" Multiple exact matches in OSM. -->
    <tag k="addr:housenumber" v="535"/>
    <tag k="addr:street" v="Lost Nation Road"/>
    <tag k="addr:state" v="VT"/>
    <tag k="ref:vcgi:esiteid" v="78936"/>
  </node>
  <node id="-312" visible="true" lat="44.65419356" lon="-72.38198438">
    <!-- multiple: "1422 North Craftsbury Road, , VT" Multiple exact matches in OSM. -->
    <tag k="addr:housenumber" v="1422"/>
    <tag k="addr:street" v="North Craftsbury Road"/>
    <tag k="addr:state" v="VT"/>
    <tag k="ref:vcgi:esiteid" v="79100"/>
  </node>
  <node id="-504" visible="true" lat="44.63454554" lon="-72.37195331">
    <!-- multiple: "118 South Craftsbury Road, , VT" Multiple exact matches in OSM. -->
    <tag k="addr:housenumber" v="118"/>
    <tag k="addr:street" v="South Craftsbury Road"/>
    <tag k="addr:state" v="VT"/>
    <tag k="ref:vcgi:esiteid" v="79300"/>
  </node>
  <node id="-575" visible="true" lat="44.62513251" lon="-72.38729892">
    <!-- multiple: "101 West Hill Road, , VT" Multiple exact matches in OSM. -->
    <tag k="addr:housenumber" v="101"/>
    <tag k="addr:street" v="West Hill Road"/>
    <tag k="addr:state" v="VT"/>
    <tag k="ref:vcgi:esiteid" v="79374"/>
  </node>
  <node id="-740" visible="true" lat="44.62803678" lon="-72.46577895">
    <!-- multiple: "1228 Brook Road, , VT" Multiple exact matches in OSM. -->
    <tag k="addr:housenumber" v="1228"/>
    <tag k="addr:street" v="Brook Road"/>
    <tag k="addr:state" v="VT"/>
    <tag k="ref:vcgi:esiteid" v="300651"/>
  </node>
  <node id="-920" visible="true" lat="44.68099618" lon="-72.36475952">
    <!-- multiple: "71 East Shore Drive, , VT" Multiple exact matches in OSM. -->
    <tag k="addr:housenumber" v="71"/>
    <tag k="addr:street" v="East Shore Drive"/>
    <tag k="addr:state" v="VT"/>
    <tag k="ref:vcgi:esiteid" v="769494"/>
  </node>
</osm>
