<?xml version="1.0" encoding="UTF-8"?>
<osm version="0.6" generator="JOSM" upload="false">
  <node id="-384" visible="true" lat="43.36484659" lon="-73.01806002">
    <!-- multiple: "704 Staples Road, , VT" Multiple exact matches in OSM. -->
    <tag k="addr:housenumber" v="704"/>
    <tag k="addr:street" v="Staples Road"/>
    <tag k="addr:state" v="VT"/>
    <tag k="ref:vcgi:esiteid" v="79836"/>
  </node>
  <node id="-490" visible="true" lat="43.35490729" lon="-73.04965548">
    <!-- multiple: "103 Danby Pawlet Road, , VT" Multiple exact matches in OSM. -->
    <tag k="addr:housenumber" v="103"/>
    <tag k="addr:street" v="Danby Pawlet Road"/>
    <tag k="addr:state" v="VT"/>
    <tag k="ref:vcgi:esiteid" v="79946"/>
  </node>
  <node id="-742" visible="true" lat="43.33548751" lon="-73.00789162">
    <!-- multiple: "502 Easy Street, , VT" Multiple exact matches in OSM. -->
    <tag k="addr:housenumber" v="502"/>
    <tag k="addr:street" v="Easy Street"/>
    <tag k="addr:state" v="VT"/>
    <tag k="ref:vcgi:esiteid" v="80206"/>
  </node>
  <node id="-786" visible="true" lat="43.40015212" lon="-73.04329658">
    <!-- multiple: "746 Mountain View Road, , VT" Multiple exact matches in OSM. -->
    <tag k="addr:housenumber" v="746"/>
    <tag k="addr:street" v="Mountain View Road"/>
    <tag k="addr:state" v="VT"/>
    <tag k="ref:vcgi:esiteid" v="80251"/>
  </node>
  <node id="-875" visible="true" lat="43.40245806" lon="-73.11568038">
    <!-- multiple: "2950 Lilly Hill Road, , VT" Multiple exact matches in OSM. -->
    <tag k="addr:housenumber" v="2950"/>
    <tag k="addr:street" v="Lilly Hill Road"/>
    <tag k="addr:state" v="VT"/>
    <tag k="ref:vcgi:esiteid" v="340733"/>
  </node>
  <node id="-876" visible="true" lat="43.40159706" lon="-73.11432719">
    <!-- multiple: "2900 Lilly Hill Road, , VT" Multiple exact matches in OSM. -->
    <tag k="addr:housenumber" v="2900"/>
    <tag k="addr:street" v="Lilly Hill Road"/>
    <tag k="addr:state" v="VT"/>
    <tag k="ref:vcgi:esiteid" v="340734"/>
  </node>
  <node id="-890" visible="true" lat="43.36431837" lon="-73.01872378">
    <!-- multiple: "704 Staples Road, , VT" Multiple exact matches in OSM. -->
    <tag k="addr:housenumber" v="704"/>
    <tag k="addr:street" v="Staples Road"/>
    <tag k="addr:state" v="VT"/>
    <tag k="ref:vcgi:esiteid" v="455763"/>
  </node>
  <node id="-904" visible="true" lat="43.38135804" lon="-73.12144388">
    <!-- multiple: "1383 Kelley Hill Road, , VT" Multiple exact matches in OSM. -->
    <tag k="addr:housenumber" v="1383"/>
    <tag k="addr:street" v="Kelley Hill Road"/>
    <tag k="addr:state" v="VT"/>
    <tag k="ref:vcgi:esiteid" v="700115"/>
  </node>
  <node id="-967" visible="true" lat="43.3980477" lon="-73.00637297">
    <!-- multiple: "414 Tifft Road, , VT" Multiple exact matches in OSM. -->
    <tag k="addr:housenumber" v="414"/>
    <tag k="addr:street" v="Tifft Road"/>
    <tag k="addr:state" v="VT"/>
    <tag k="ref:vcgi:esiteid" v="768660"/>
  </node>
</osm>
