<?xml version="1.0" encoding="UTF-8"?>
<osm version="0.6" generator="JOSM" upload="false">
  <node id="-129" visible="true" lat="44.49947557" lon="-72.09269204">
    <!-- multiple: "1404 Wheelock Road, , VT" Multiple exact matches in OSM. -->
    <tag k="addr:housenumber" v="1404"/>
    <tag k="addr:street" v="Wheelock Road"/>
    <tag k="addr:state" v="VT"/>
    <tag k="ref:vcgi:esiteid" v="80325"/>
  </node>
  <node id="-643" visible="true" lat="44.41477791" lon="-72.13879295">
    <!-- multiple: "177 Highland Avenue, , VT" Multiple exact matches in OSM. -->
    <tag k="addr:housenumber" v="177"/>
    <tag k="addr:street" v="Highland Avenue"/>
    <tag k="addr:state" v="VT"/>
    <tag k="ref:vcgi:esiteid" v="80848"/>
  </node>
  <node id="-651" visible="true" lat="44.41461555" lon="-72.13292158">
    <!-- multiple: "421 U.S. Route 2 East, , VT" Multiple exact matches in OSM. -->
    <tag k="addr:housenumber" v="421"/>
    <tag k="addr:street" v="U.S. Route 2 East"/>
    <tag k="addr:state" v="VT"/>
    <tag k="ref:vcgi:esiteid" v="80856"/>
  </node>
  <node id="-792" visible="true" lat="44.41082763" lon="-72.14350128">
    <!-- multiple: "148 Peacham Road, , VT" Multiple exact matches in OSM. -->
    <tag k="addr:housenumber" v="148"/>
    <tag k="addr:street" v="Peacham Road"/>
    <tag k="addr:state" v="VT"/>
    <tag k="ref:vcgi:esiteid" v="81009"/>
  </node>
  <node id="-1234" visible="true" lat="44.42205621" lon="-72.11505943">
    <!-- multiple: "24 Old Stagecoach Road, , VT" Multiple exact matches in OSM. -->
    <tag k="addr:housenumber" v="24"/>
    <tag k="addr:street" v="Old Stagecoach Road"/>
    <tag k="addr:state" v="VT"/>
    <tag k="ref:vcgi:esiteid" v="81462"/>
  </node>
  <node id="-1465" visible="true" lat="44.43065921" lon="-72.10310266">
    <!-- multiple: "2211 U.S. Route 2 East, , VT" Multiple exact matches in OSM. -->
    <tag k="addr:housenumber" v="2211"/>
    <tag k="addr:street" v="U.S. Route 2 East"/>
    <tag k="addr:state" v="VT"/>
    <tag k="ref:vcgi:esiteid" v="81700"/>
  </node>
  <node id="-1503" visible="true" lat="44.47952859" lon="-72.07358037">
    <!-- multiple: "745 Rabbit Plain, , VT" Multiple exact matches in OSM. -->
    <tag k="addr:housenumber" v="745"/>
    <tag k="addr:street" v="Rabbit Plain"/>
    <tag k="addr:state" v="VT"/>
    <tag k="ref:vcgi:esiteid" v="327383"/>
  </node>
  <node id="-1520" visible="true" lat="44.41168529" lon="-72.11709933">
    <!-- multiple: "135 Maple Lane, , VT" Multiple exact matches in OSM. -->
    <tag k="addr:housenumber" v="135"/>
    <tag k="addr:street" v="Maple Lane"/>
    <tag k="addr:state" v="VT"/>
    <tag k="ref:vcgi:esiteid" v="337798"/>
  </node>
</osm>
