<?xml version="1.0" encoding="UTF-8"?>
<osm version="0.6" generator="JOSM" upload="false">
  <node id="-103" visible="true" lat="44.42740588" lon="-72.0967943">
    <!-- offset: "696 Parker Road, , VT" Significant offset - 246.4m -->
    <tag k="addr:housenumber" v="696"/>
    <tag k="addr:street" v="Parker Road"/>
    <tag k="addr:state" v="VT"/>
    <tag k="ref:vcgi:esiteid" v="18334"/>
  </node>
  <node id="-1625" visible="true" lat="44.37106967" lon="-72.12526181">
    <!-- offset: "3737 Thaddeus Stevens Road, , VT" Significant offset - 125.3m -->
    <tag k="addr:housenumber" v="3737"/>
    <tag k="addr:street" v="Thaddeus Stevens Road"/>
    <tag k="addr:state" v="VT"/>
    <tag k="ref:vcgi:esiteid" v="365516"/>
  </node>
  <node id="-1638" visible="true" lat="44.39191941" lon="-72.20219854">
    <!-- offset: "1128 Woodward Road, , VT" Significant offset - 161.9m -->
    <tag k="addr:housenumber" v="1128"/>
    <tag k="addr:street" v="Woodward Road"/>
    <tag k="addr:state" v="VT"/>
    <tag k="ref:vcgi:esiteid" v="365635"/>
  </node>
</osm>
