<?xml version="1.0" encoding="UTF-8"?>
<osm version="0.6" generator="JOSM" upload="false">
  <node id="-2619" visible="true" lat="45.00493948" lon="-72.08253414">
    <tag k="addr:housenumber" v="168"/>
    <tag k="addr:street" v="Holland Road"/>
    <tag k="addr:state" v="VT"/>
    <tag k="ref:vcgi:esiteid" v="611273"/>
  </node>
  <node id="-2863" visible="true" lat="44.90517664" lon="-72.09302565">
    <tag k="addr:housenumber" v="230"/>
    <tag k="addr:street" v="Bushey Hill Road"/>
    <tag k="addr:state" v="VT"/>
    <tag k="ref:vcgi:esiteid" v="771110"/>
  </node>
  <node id="-2864" visible="true" lat="44.95356258" lon="-72.13915683">
    <tag k="addr:housenumber" v="43"/>
    <tag k="addr:street" v="Roy Street"/>
    <tag k="addr:state" v="VT"/>
    <tag k="ref:vcgi:esiteid" v="771463"/>
  </node>
  <node id="-2865" visible="true" lat="44.91810853" lon="-72.08526046">
    <tag k="addr:housenumber" v="214"/>
    <tag k="addr:street" v="Little Salem Lane"/>
    <tag k="addr:state" v="VT"/>
    <tag k="ref:vcgi:esiteid" v="771629"/>
  </node>
  <node id="-2866" visible="true" lat="44.93196988" lon="-72.14531998">
    <tag k="addr:housenumber" v="1005"/>
    <tag k="addr:street" v="Hinman Settler Road"/>
    <tag k="addr:state" v="VT"/>
    <tag k="ref:vcgi:esiteid" v="771685"/>
  </node>
  <node id="-2870" visible="true" lat="44.97823834" lon="-72.17413838">
    <tag k="addr:housenumber" v="2535"/>
    <tag k="addr:street" v="Darling Hill Road"/>
    <tag k="addr:state" v="VT"/>
    <tag k="ref:vcgi:esiteid" v="772319"/>
  </node>
  <node id="-2871" visible="true" lat="44.89472104" lon="-72.14933251">
    <tag k="addr:housenumber" v="3693"/>
    <tag k="addr:street" v="Hinman Settler Road"/>
    <tag k="addr:state" v="VT"/>
    <tag k="ref:vcgi:esiteid" v="772326"/>
  </node>
  <node id="-2872" visible="true" lat="44.91634404" lon="-72.18460475">
    <tag k="addr:housenumber" v="1483"/>
    <tag k="addr:street" v="Pine Hill Road"/>
    <tag k="addr:state" v="VT"/>
    <tag k="ref:vcgi:esiteid" v="772555"/>
  </node>
  <node id="-2873" visible="true" lat="45.00483162" lon="-72.15678058">
    <tag k="addr:housenumber" v="3364"/>
    <tag k="addr:street" v="North Derby Road"/>
    <tag k="addr:state" v="VT"/>
    <tag k="ref:vcgi:esiteid" v="772674"/>
  </node>
</osm>
