<?xml version="1.0" encoding="UTF-8"?>
<osm version="0.6" generator="JOSM" upload="false">
  <node id="-1458" visible="true" lat="44.50690537" lon="-73.14372351">
    <tag k="addr:housenumber" v="1105"/>
    <tag k="addr:street" v="Winooski Road"/>
    <tag k="addr:state" v="VT"/>
    <tag k="ref:vcgi:esiteid" v="95935"/>
  </node>
  <node id="-1472" visible="true" lat="44.50676679" lon="-73.14383768">
    <tag k="addr:housenumber" v="1104"/>
    <tag k="addr:street" v="Winooski Road"/>
    <tag k="addr:state" v="VT"/>
    <tag k="ref:vcgi:esiteid" v="95954"/>
  </node>
  <node id="-4152" visible="true" lat="44.51881799" lon="-73.08782539">
    <tag k="addr:housenumber" v="37"/>
    <tag k="addr:street" v="Indian Brook Road"/>
    <tag k="addr:state" v="VT"/>
    <tag k="ref:vcgi:esiteid" v="646457"/>
  </node>
  <node id="-4153" visible="true" lat="44.533318" lon="-73.0239881">
    <tag k="addr:housenumber" v="51"/>
    <tag k="addr:street" v="Osgood Hill Road"/>
    <tag k="addr:state" v="VT"/>
    <tag k="ref:vcgi:esiteid" v="646631"/>
  </node>
  <node id="-4158" visible="true" lat="44.50502906" lon="-73.04740678">
    <tag k="addr:housenumber" v="17B"/>
    <tag k="addr:street" v="Corporate Drive"/>
    <tag k="addr:state" v="VT"/>
    <tag k="ref:vcgi:esiteid" v="656406"/>
  </node>
  <node id="-4159" visible="true" lat="44.5046826" lon="-73.11859416">
    <tag k="addr:housenumber" v="8"/>
    <tag k="addr:street" v="Weschester Circle"/>
    <tag k="addr:state" v="VT"/>
    <tag k="ref:vcgi:esiteid" v="656431"/>
  </node>
  <node id="-4388" visible="true" lat="44.53464152" lon="-73.07259021">
    <tag k="addr:housenumber" v="15"/>
    <tag k="addr:street" v="Colonel Page Road"/>
    <tag k="addr:state" v="VT"/>
    <tag k="ref:vcgi:esiteid" v="771262"/>
  </node>
  <node id="-4389" visible="true" lat="44.53507597" lon="-73.07226015">
    <tag k="addr:housenumber" v="17"/>
    <tag k="addr:street" v="Colonel Page Road"/>
    <tag k="addr:state" v="VT"/>
    <tag k="ref:vcgi:esiteid" v="771263"/>
  </node>
</osm>
