<?xml version="1.0" encoding="UTF-8"?>
<osm version="0.6" generator="JOSM" upload="false">
  <node id="-254" visible="true" lat="43.90613641" lon="-72.14611866">
    <tag k="addr:city" v="Fairlee"/>
    <tag k="addr:housenumber" v="20"/>
    <tag k="addr:street" v="School Street"/>
    <tag k="addr:state" v="VT"/>
    <tag k="ref:vcgi:esiteid" v="105423"/>
  </node>
  <node id="-557" visible="true" lat="43.92041406" lon="-72.12558875">
    <tag k="addr:city" v="Fairlee"/>
    <tag k="addr:housenumber" v="75"/>
    <tag k="addr:street" v="Destiny Drive"/>
    <tag k="addr:state" v="VT"/>
    <tag k="ref:vcgi:esiteid" v="105757"/>
  </node>
  <node id="-558" visible="true" lat="43.92051824" lon="-72.12545375">
    <tag k="addr:city" v="Fairlee"/>
    <tag k="addr:housenumber" v="65"/>
    <tag k="addr:street" v="Destiny Drive"/>
    <tag k="addr:state" v="VT"/>
    <tag k="ref:vcgi:esiteid" v="105758"/>
  </node>
  <node id="-798" visible="true" lat="43.95325273" lon="-72.1179184">
    <tag k="addr:city" v="Fairlee"/>
    <tag k="addr:housenumber" v="132"/>
    <tag k="addr:street" v="Sawyer Mountain Drive"/>
    <tag k="addr:state" v="VT"/>
    <tag k="ref:vcgi:esiteid" v="646625"/>
  </node>
  <node id="-799" visible="true" lat="43.93028434" lon="-72.12465721">
    <tag k="addr:city" v="Fairlee"/>
    <tag k="addr:housenumber" v="266"/>
    <tag k="addr:street" v="Mountain Road"/>
    <tag k="addr:state" v="VT"/>
    <tag k="ref:vcgi:esiteid" v="646626"/>
  </node>
  <node id="-800" visible="true" lat="43.91409286" lon="-72.1635905">
    <tag k="addr:city" v="Fairlee"/>
    <tag k="addr:housenumber" v="285"/>
    <tag k="addr:street" v="Bald Top Road"/>
    <tag k="addr:state" v="VT"/>
    <tag k="ref:vcgi:esiteid" v="646627"/>
  </node>
  <node id="-801" visible="true" lat="43.89958618" lon="-72.17139878">
    <tag k="addr:city" v="Fairlee"/>
    <tag k="addr:housenumber" v="91"/>
    <tag k="addr:street" v="Indian Acres Road"/>
    <tag k="addr:state" v="VT"/>
    <tag k="ref:vcgi:esiteid" v="646628"/>
  </node>
  <node id="-802" visible="true" lat="43.88919636" lon="-72.17256536">
    <tag k="addr:city" v="Fairlee"/>
    <tag k="addr:housenumber" v="1595"/>
    <tag k="addr:street" v="U.S. Route 5 South"/>
    <tag k="addr:state" v="VT"/>
    <tag k="ref:vcgi:esiteid" v="646629"/>
  </node>
  <node id="-803" visible="true" lat="43.92448337" lon="-72.11853148">
    <tag k="addr:city" v="Fairlee"/>
    <tag k="addr:housenumber" v="1854"/>
    <tag k="addr:street" v="U.S. Route 5 North"/>
    <tag k="addr:state" v="VT"/>
    <tag k="ref:vcgi:esiteid" v="646630"/>
  </node>
  <node id="-833" visible="true" lat="43.8958994" lon="-72.17403674">
    <tag k="addr:city" v="Fairlee"/>
    <tag k="addr:housenumber" v="196"/>
    <tag k="addr:street" v="Brackett Road"/>
    <tag k="addr:state" v="VT"/>
    <tag k="ref:vcgi:esiteid" v="758025"/>
  </node>
  <node id="-842" visible="true" lat="43.89219544" lon="-72.21231208">
    <tag k="addr:city" v="Fairlee"/>
    <tag k="addr:housenumber" v="286"/>
    <tag k="addr:street" v="Quinibeck Road"/>
    <tag k="addr:state" v="VT"/>
    <tag k="ref:vcgi:esiteid" v="758034"/>
  </node>
  <node id="-856" visible="true" lat="43.9271106" lon="-72.12324052">
    <tag k="addr:city" v="Fairlee"/>
    <tag k="addr:housenumber" v="2147"/>
    <tag k="addr:street" v="U.S. Route 5 North"/>
    <tag k="addr:state" v="VT"/>
    <tag k="ref:vcgi:esiteid" v="758072"/>
  </node>
  <node id="-879" visible="true" lat="43.8916319" lon="-72.17915607">
    <tag k="addr:city" v="Fairlee"/>
    <tag k="addr:housenumber" v="272"/>
    <tag k="addr:street" v="Echo Brook Lane"/>
    <tag k="addr:state" v="VT"/>
    <tag k="ref:vcgi:esiteid" v="768744"/>
  </node>
  <node id="-881" visible="true" lat="43.90577079" lon="-72.14554693">
    <tag k="addr:city" v="Fairlee"/>
    <tag k="addr:housenumber" v="234"/>
    <tag k="addr:street" v="U.S. Route 5 North"/>
    <tag k="addr:state" v="VT"/>
    <tag k="ref:vcgi:esiteid" v="771161"/>
  </node>
  <node id="-882" visible="true" lat="43.92095422" lon="-72.12512737">
    <tag k="addr:city" v="Fairlee"/>
    <tag k="addr:housenumber" v="27"/>
    <tag k="addr:street" v="Destiny Drive"/>
    <tag k="addr:state" v="VT"/>
    <tag k="ref:vcgi:esiteid" v="771162"/>
  </node>
  <node id="-883" visible="true" lat="43.94589906" lon="-72.16097162">
    <tag k="addr:city" v="Fairlee"/>
    <tag k="addr:housenumber" v="1342"/>
    <tag k="addr:street" v="Brushwood Road"/>
    <tag k="addr:state" v="VT"/>
    <tag k="ref:vcgi:esiteid" v="771249"/>
  </node>
  <node id="-884" visible="true" lat="43.94839183" lon="-72.16650327">
    <tag k="addr:city" v="Fairlee"/>
    <tag k="addr:housenumber" v="1380"/>
    <tag k="addr:street" v="Brushwood Road"/>
    <tag k="addr:state" v="VT"/>
    <tag k="ref:vcgi:esiteid" v="771250"/>
  </node>
  <node id="-885" visible="true" lat="43.89207614" lon="-72.16881717">
    <tag k="addr:city" v="Fairlee"/>
    <tag k="addr:housenumber" v="97"/>
    <tag k="addr:street" v="Deerfield Farm Road"/>
    <tag k="addr:state" v="VT"/>
    <tag k="ref:vcgi:esiteid" v="771748"/>
  </node>
  <node id="-886" visible="true" lat="43.94060345" lon="-72.14446266">
    <tag k="addr:city" v="Fairlee"/>
    <tag k="addr:housenumber" v="251"/>
    <tag k="addr:street" v="Gaywalden Road"/>
    <tag k="addr:state" v="VT"/>
    <tag k="ref:vcgi:esiteid" v="771749"/>
  </node>
  <node id="-887" visible="true" lat="43.91983122" lon="-72.12089554">
    <tag k="addr:city" v="Fairlee"/>
    <tag k="addr:housenumber" v="1854"/>
    <tag k="addr:street" v="U.S. Route 5 North"/>
    <tag k="addr:state" v="VT"/>
    <tag k="ref:vcgi:esiteid" v="771922"/>
  </node>
  <node id="-888" visible="true" lat="43.90851676" lon="-72.14198954">
    <tag k="addr:city" v="Fairlee"/>
    <tag k="addr:housenumber" v="14"/>
    <tag k="addr:street" v="Wilcox Lane"/>
    <tag k="addr:state" v="VT"/>
    <tag k="ref:vcgi:esiteid" v="772024"/>
  </node>
  <node id="-889" visible="true" lat="43.9085086" lon="-72.14192637">
    <tag k="addr:city" v="Fairlee"/>
    <tag k="addr:housenumber" v="16"/>
    <tag k="addr:street" v="Wilcox Lane"/>
    <tag k="addr:state" v="VT"/>
    <tag k="ref:vcgi:esiteid" v="772025"/>
  </node>
  <node id="-890" visible="true" lat="43.90853395" lon="-72.14185202">
    <tag k="addr:city" v="Fairlee"/>
    <tag k="addr:housenumber" v="18"/>
    <tag k="addr:street" v="Wilcox Lane"/>
    <tag k="addr:state" v="VT"/>
    <tag k="ref:vcgi:esiteid" v="772026"/>
  </node>
  <node id="-891" visible="true" lat="43.90847987" lon="-72.14185539">
    <tag k="addr:city" v="Fairlee"/>
    <tag k="addr:housenumber" v="87"/>
    <tag k="addr:street" v="Town Common Road"/>
    <tag k="addr:state" v="VT"/>
    <tag k="ref:vcgi:esiteid" v="772566"/>
  </node>
  <node id="-892" visible="true" lat="43.90846679" lon="-72.14190821">
    <tag k="addr:city" v="Fairlee"/>
    <tag k="addr:housenumber" v="89"/>
    <tag k="addr:street" v="Town Common Road"/>
    <tag k="addr:state" v="VT"/>
    <tag k="ref:vcgi:esiteid" v="772567"/>
  </node>
  <node id="-893" visible="true" lat="43.90518027" lon="-72.15025815">
    <tag k="addr:city" v="Fairlee"/>
    <tag k="addr:housenumber" v="52"/>
    <tag k="addr:street" v="Lake Morey Road"/>
    <tag k="addr:state" v="VT"/>
    <tag k="ref:vcgi:esiteid" v="772581"/>
  </node>
</osm>
