<?xml version="1.0" encoding="UTF-8"?>
<osm version="0.6" generator="JOSM" upload="false">
  <node id="-915" visible="true" lat="44.20128908" lon="-73.24700813">
    <tag k="addr:housenumber" v="2822"/>
    <tag k="addr:street" v="U.S. Route 7"/>
    <tag k="addr:state" v="VT"/>
    <tag k="ref:vcgi:esiteid" v="107674"/>
  </node>
  <node id="-1071" visible="true" lat="44.19444274" lon="-73.36251831">
    <tag k="addr:housenumber" v="276"/>
    <tag k="addr:street" v="Red Mill Road"/>
    <tag k="addr:state" v="VT"/>
    <tag k="ref:vcgi:esiteid" v="107841"/>
  </node>
  <node id="-1551" visible="true" lat="44.25655647" lon="-73.22634752">
    <tag k="addr:housenumber" v="6722"/>
    <tag k="addr:street" v="U.S. Route 7"/>
    <tag k="addr:state" v="VT"/>
    <tag k="ref:vcgi:esiteid" v="108339"/>
  </node>
  <node id="-1803" visible="true" lat="44.1928814" lon="-73.36948375">
    <tag k="addr:housenumber" v="520"/>
    <tag k="addr:street" v="Woods Road"/>
    <tag k="addr:state" v="VT"/>
    <tag k="ref:vcgi:esiteid" v="646512"/>
  </node>
  <node id="-1805" visible="true" lat="44.25716602" lon="-73.23034252">
    <tag k="addr:housenumber" v="91"/>
    <tag k="addr:street" v="Swan Lane"/>
    <tag k="addr:state" v="VT"/>
    <tag k="ref:vcgi:esiteid" v="646549"/>
  </node>
  <node id="-1897" visible="true" lat="44.16916588" lon="-73.34800188">
    <tag k="addr:housenumber" v="2054"/>
    <tag k="addr:street" v="Button Bay Road"/>
    <tag k="addr:state" v="VT"/>
    <tag k="ref:vcgi:esiteid" v="771851"/>
  </node>
  <node id="-1898" visible="true" lat="44.177437" lon="-73.35152513">
    <tag k="addr:housenumber" v="1050"/>
    <tag k="addr:street" v="Button Bay Road"/>
    <tag k="addr:state" v="VT"/>
    <tag k="ref:vcgi:esiteid" v="772357"/>
  </node>
  <node id="-1900" visible="true" lat="44.24624679" lon="-73.21351891">
    <tag k="addr:housenumber" v="261"/>
    <tag k="addr:street" v="Four Winds Road"/>
    <tag k="addr:state" v="VT"/>
    <tag k="ref:vcgi:esiteid" v="772361"/>
  </node>
  <node id="-1901" visible="true" lat="44.18919946" lon="-73.25013628">
    <tag k="addr:housenumber" v="123"/>
    <tag k="addr:street" v="Tuppers Crossing"/>
    <tag k="addr:state" v="VT"/>
    <tag k="ref:vcgi:esiteid" v="772614"/>
  </node>
</osm>
