<?xml version="1.0" encoding="UTF-8"?>
<osm version="0.6" generator="JOSM" upload="false">
  <node id="-693" visible="true" lat="44.72262042" lon="-72.97557595">
    <tag k="addr:housenumber" v="177"/>
    <tag k="addr:street" v="Gedeon Road"/>
    <tag k="addr:state" v="VT"/>
    <tag k="ref:vcgi:esiteid" v="340756"/>
  </node>
  <node id="-746" visible="true" lat="44.74278567" lon="-72.98894897">
    <tag k="addr:housenumber" v="1235"/>
    <tag k="addr:street" v="Buck Hollow Road"/>
    <tag k="addr:state" v="VT"/>
    <tag k="ref:vcgi:esiteid" v="646587"/>
  </node>
  <node id="-760" visible="true" lat="44.74082176" lon="-72.98014444">
    <tag k="addr:housenumber" v="611"/>
    <tag k="addr:street" v="Lloyd Road"/>
    <tag k="addr:state" v="VT"/>
    <tag k="ref:vcgi:esiteid" v="656451"/>
  </node>
  <node id="-843" visible="true" lat="44.68922957" lon="-72.92700366">
    <tag k="addr:housenumber" v="715"/>
    <tag k="addr:street" v="Fairfield Road"/>
    <tag k="addr:state" v="VT"/>
    <tag k="ref:vcgi:esiteid" v="772274"/>
  </node>
  <node id="-844" visible="true" lat="44.69078162" lon="-72.92775596">
    <tag k="addr:housenumber" v="833"/>
    <tag k="addr:street" v="Fairfield Road"/>
    <tag k="addr:state" v="VT"/>
    <tag k="ref:vcgi:esiteid" v="772275"/>
  </node>
</osm>
