<?xml version="1.0" encoding="UTF-8"?>
<osm version="0.6" generator="JOSM" upload="false">
  <node id="-2136" visible="true" lat="44.74739001" lon="-73.18539674">
    <tag k="addr:housenumber" v="2710"/>
    <tag k="addr:street" v="Georgia Shore Road"/>
    <tag k="addr:state" v="VT"/>
    <tag k="ref:vcgi:esiteid" v="646712"/>
  </node>
  <node id="-2137" visible="true" lat="44.74135149" lon="-73.18918006">
    <tag k="addr:housenumber" v="307"/>
    <tag k="addr:street" v="Harriet Drive"/>
    <tag k="addr:state" v="VT"/>
    <tag k="ref:vcgi:esiteid" v="646713"/>
  </node>
  <node id="-2138" visible="true" lat="44.74218235" lon="-73.18880407">
    <tag k="addr:housenumber" v="369"/>
    <tag k="addr:street" v="Harriet Drive"/>
    <tag k="addr:state" v="VT"/>
    <tag k="ref:vcgi:esiteid" v="646714"/>
  </node>
  <node id="-2259" visible="true" lat="44.746475" lon="-73.08660495">
    <tag k="addr:housenumber" v="2439"/>
    <tag k="addr:street" v="Oakland Station Road"/>
    <tag k="addr:state" v="VT"/>
    <tag k="ref:vcgi:esiteid" v="764752"/>
  </node>
  <node id="-2317" visible="true" lat="44.69990471" lon="-73.12416333">
    <tag k="addr:housenumber" v="34"/>
    <tag k="addr:street" v="Sweet Bedrock Lane"/>
    <tag k="addr:state" v="VT"/>
    <tag k="ref:vcgi:esiteid" v="771186"/>
  </node>
  <node id="-2318" visible="true" lat="44.6993709" lon="-73.12365861">
    <tag k="addr:housenumber" v="84"/>
    <tag k="addr:street" v="Sweet Bedrock Lane"/>
    <tag k="addr:state" v="VT"/>
    <tag k="ref:vcgi:esiteid" v="771187"/>
  </node>
  <node id="-2319" visible="true" lat="44.71702254" lon="-73.20484423">
    <tag k="addr:housenumber" v="108"/>
    <tag k="addr:street" v="Mills Road"/>
    <tag k="addr:state" v="VT"/>
    <tag k="ref:vcgi:esiteid" v="771950"/>
  </node>
  <node id="-2320" visible="true" lat="44.70713288" lon="-73.14630581">
    <tag k="addr:housenumber" v="631"/>
    <tag k="addr:street" v="Sodom Road"/>
    <tag k="addr:state" v="VT"/>
    <tag k="ref:vcgi:esiteid" v="771981"/>
  </node>
  <node id="-2321" visible="true" lat="44.73029303" lon="-73.13251081">
    <tag k="addr:housenumber" v="196"/>
    <tag k="addr:street" v="Pattee Hill Road"/>
    <tag k="addr:state" v="VT"/>
    <tag k="ref:vcgi:esiteid" v="771982"/>
  </node>
  <node id="-2322" visible="true" lat="44.68492007" lon="-73.09504282">
    <tag k="addr:housenumber" v="85"/>
    <tag k="addr:street" v="Greene Street"/>
    <tag k="addr:state" v="VT"/>
    <tag k="ref:vcgi:esiteid" v="772157"/>
  </node>
</osm>
