<?xml version="1.0" encoding="UTF-8"?>
<osm version="0.6" generator="JOSM" upload="false">
  <node id="-994" visible="true" lat="44.67853449" lon="-72.20437076">
    <tag k="addr:housenumber" v="173"/>
    <tag k="addr:street" v="Drew Place"/>
    <tag k="addr:state" v="VT"/>
    <tag k="ref:vcgi:esiteid" v="771773"/>
  </node>
  <node id="-995" visible="true" lat="44.72968401" lon="-72.22293189">
    <tag k="addr:housenumber" v="2565"/>
    <tag k="addr:street" v="Roaring Brook Road"/>
    <tag k="addr:state" v="VT"/>
    <tag k="ref:vcgi:esiteid" v="771774"/>
  </node>
  <node id="-997" visible="true" lat="44.6660686" lon="-72.23182107">
    <tag k="addr:housenumber" v="1954"/>
    <tag k="addr:street" v="Shadow Lake Road"/>
    <tag k="addr:state" v="VT"/>
    <tag k="ref:vcgi:esiteid" v="771951"/>
  </node>
  <node id="-998" visible="true" lat="44.66458138" lon="-72.19490524">
    <tag k="addr:housenumber" v="1650"/>
    <tag k="addr:street" v="Dry Pond Road"/>
    <tag k="addr:state" v="VT"/>
    <tag k="ref:vcgi:esiteid" v="772154"/>
  </node>
  <node id="-999" visible="true" lat="44.71103885" lon="-72.28203831">
    <tag k="addr:housenumber" v="4032"/>
    <tag k="addr:street" v="County Road"/>
    <tag k="addr:state" v="VT"/>
    <tag k="ref:vcgi:esiteid" v="772320"/>
  </node>
  <node id="-1000" visible="true" lat="44.71532085" lon="-72.20282536">
    <tag k="addr:housenumber" v="1103"/>
    <tag k="addr:street" v="Bean Hill Road"/>
    <tag k="addr:state" v="VT"/>
    <tag k="ref:vcgi:esiteid" v="772332"/>
  </node>
  <node id="-1001" visible="true" lat="44.70411893" lon="-72.188918">
    <tag k="addr:housenumber" v="3140"/>
    <tag k="addr:street" v="Glover Street"/>
    <tag k="addr:state" v="VT"/>
    <tag k="ref:vcgi:esiteid" v="772406"/>
  </node>
  <node id="-1002" visible="true" lat="44.7035899" lon="-72.1896287">
    <tag k="addr:housenumber" v="39"/>
    <tag k="addr:street" v="Still Hill"/>
    <tag k="addr:state" v="VT"/>
    <tag k="ref:vcgi:esiteid" v="772407"/>
  </node>
  <node id="-1003" visible="true" lat="44.66362223" lon="-72.1932275">
    <tag k="addr:housenumber" v="1609"/>
    <tag k="addr:street" v="Dry Pond Road"/>
    <tag k="addr:state" v="VT"/>
    <tag k="ref:vcgi:esiteid" v="772580"/>
  </node>
</osm>
