<?xml version="1.0" encoding="UTF-8"?>
<osm version="0.6" generator="JOSM" upload="false">
  <node id="-503" visible="true" lat="43.17773813" lon="-72.61622811">
    <tag k="addr:housenumber" v="467"/>
    <tag k="addr:street" v="Middletown Road"/>
    <tag k="addr:state" v="VT"/>
    <tag k="ref:vcgi:esiteid" v="113212"/>
  </node>
  <node id="-695" visible="true" lat="43.22131821" lon="-72.61007474">
    <tag k="addr:housenumber" v="1606"/>
    <tag k="addr:street" v="Hall Ranch Road"/>
    <tag k="addr:state" v="VT"/>
    <tag k="ref:vcgi:esiteid" v="764457"/>
  </node>
  <node id="-724" visible="true" lat="43.19748646" lon="-72.6410761">
    <tag k="addr:housenumber" v="2966"/>
    <tag k="addr:street" v="Houghtonville Road"/>
    <tag k="addr:state" v="VT"/>
    <tag k="ref:vcgi:esiteid" v="771116"/>
  </node>
  <node id="-726" visible="true" lat="43.12848525" lon="-72.63935638">
    <tag k="addr:housenumber" v="3496"/>
    <tag k="addr:street" v="Townshend Road"/>
    <tag k="addr:state" v="VT"/>
    <tag k="ref:vcgi:esiteid" v="771118"/>
  </node>
  <node id="-727" visible="true" lat="43.12829324" lon="-72.63878914">
    <tag k="addr:housenumber" v="3500"/>
    <tag k="addr:street" v="Townshend Road"/>
    <tag k="addr:state" v="VT"/>
    <tag k="ref:vcgi:esiteid" v="771122"/>
  </node>
  <node id="-730" visible="true" lat="43.18526189" lon="-72.62262727">
    <tag k="addr:housenumber" v="1011"/>
    <tag k="addr:street" v="Middletown Road"/>
    <tag k="addr:state" v="VT"/>
    <tag k="ref:vcgi:esiteid" v="771593"/>
  </node>
  <node id="-731" visible="true" lat="43.22357317" lon="-72.61652674">
    <tag k="addr:housenumber" v="1355"/>
    <tag k="addr:street" v="Hall Ranch Road"/>
    <tag k="addr:state" v="VT"/>
    <tag k="ref:vcgi:esiteid" v="771594"/>
  </node>
  <node id="-732" visible="true" lat="43.21482149" lon="-72.61103228">
    <tag k="addr:housenumber" v="897"/>
    <tag k="addr:street" v="Otis Road"/>
    <tag k="addr:state" v="VT"/>
    <tag k="ref:vcgi:esiteid" v="771684"/>
  </node>
  <node id="-733" visible="true" lat="43.16999921" lon="-72.60667925">
    <tag k="addr:housenumber" v="106"/>
    <tag k="addr:street" v="Kidder Hill Road"/>
    <tag k="addr:state" v="VT"/>
    <tag k="ref:vcgi:esiteid" v="771803"/>
  </node>
  <node id="-734" visible="true" lat="43.1775252" lon="-72.61614474">
    <tag k="addr:housenumber" v="465"/>
    <tag k="addr:street" v="Middletown Road"/>
    <tag k="addr:state" v="VT"/>
    <tag k="ref:vcgi:esiteid" v="772027"/>
  </node>
  <node id="-735" visible="true" lat="43.19550522" lon="-72.61800184">
    <tag k="addr:housenumber" v="1680"/>
    <tag k="addr:street" v="Houghtonville Road"/>
    <tag k="addr:state" v="VT"/>
    <tag k="ref:vcgi:esiteid" v="772047"/>
  </node>
  <node id="-739" visible="true" lat="43.2134316" lon="-72.59564522">
    <tag k="addr:housenumber" v="124"/>
    <tag k="addr:street" v="Otis Road"/>
    <tag k="addr:state" v="VT"/>
    <tag k="ref:vcgi:esiteid" v="772168"/>
  </node>
</osm>
