<?xml version="1.0" encoding="UTF-8"?>
<osm version="0.6" generator="JOSM" upload="false">
  <node id="-677" visible="true" lat="43.6796855" lon="-72.31274391">
    <!-- offset: "133 Colonial Drive, , VT" Significant offset - 104.1m -->
    <tag k="addr:housenumber" v="133"/>
    <tag k="addr:street" v="Colonial Drive"/>
    <tag k="addr:state" v="VT"/>
    <tag k="ref:vcgi:esiteid" v="120682"/>
  </node>
  <node id="-688" visible="true" lat="43.67937866" lon="-72.31326618">
    <!-- offset: "133 Colonial Drive, , VT" Significant offset - 111.1m -->
    <tag k="addr:housenumber" v="133"/>
    <tag k="addr:street" v="Colonial Drive"/>
    <tag k="addr:state" v="VT"/>
    <tag k="ref:vcgi:esiteid" v="120694"/>
  </node>
  <node id="-713" visible="true" lat="43.67895048" lon="-72.31334833">
    <!-- offset: "133 Colonial Drive, , VT" Significant offset - 103.8m -->
    <tag k="addr:housenumber" v="133"/>
    <tag k="addr:street" v="Colonial Drive"/>
    <tag k="addr:state" v="VT"/>
    <tag k="ref:vcgi:esiteid" v="120723"/>
  </node>
  <node id="-934" visible="true" lat="43.67614793" lon="-72.38571278">
    <!-- offset: "1995 Vermont Route 14, , VT" Significant offset - 9138.4m -->
    <tag k="addr:housenumber" v="1995"/>
    <tag k="addr:street" v="Vermont Route 14"/>
    <tag k="addr:state" v="VT"/>
    <tag k="ref:vcgi:esiteid" v="120957"/>
  </node>
  <node id="-1723" visible="true" lat="43.66357847" lon="-72.44984162">
    <!-- offset: "105 Williams Lane, , VT" Significant offset - 150.5m -->
    <tag k="addr:housenumber" v="105"/>
    <tag k="addr:street" v="Williams Lane"/>
    <tag k="addr:state" v="VT"/>
    <tag k="ref:vcgi:esiteid" v="121795"/>
  </node>
  <node id="-1824" visible="true" lat="43.66226402" lon="-72.44372112">
    <!-- offset: "451 Williams Lane, , VT" Significant offset - 100.9m -->
    <tag k="addr:housenumber" v="451"/>
    <tag k="addr:street" v="Williams Lane"/>
    <tag k="addr:state" v="VT"/>
    <tag k="ref:vcgi:esiteid" v="121898"/>
  </node>
  <node id="-1893" visible="true" lat="43.66154027" lon="-72.31147811">
    <!-- offset: "150 Advent Lane, , VT" Significant offset - 120.8m -->
    <tag k="addr:housenumber" v="150"/>
    <tag k="addr:street" v="Advent Lane"/>
    <tag k="addr:state" v="VT"/>
    <tag k="ref:vcgi:esiteid" v="121978"/>
  </node>
  <node id="-1907" visible="true" lat="43.66191059" lon="-72.31098912">
    <!-- offset: "150 Advent Lane, , VT" Significant offset - 174.6m -->
    <tag k="addr:housenumber" v="150"/>
    <tag k="addr:street" v="Advent Lane"/>
    <tag k="addr:state" v="VT"/>
    <tag k="ref:vcgi:esiteid" v="121994"/>
  </node>
  <node id="-1911" visible="true" lat="43.66152293" lon="-72.31111887">
    <!-- offset: "150 Advent Lane, , VT" Significant offset - 132m -->
    <tag k="addr:housenumber" v="150"/>
    <tag k="addr:street" v="Advent Lane"/>
    <tag k="addr:state" v="VT"/>
    <tag k="ref:vcgi:esiteid" v="121998"/>
  </node>
  <node id="-1926" visible="true" lat="43.66149272" lon="-72.31092925">
    <!-- offset: "150 Advent Lane, , VT" Significant offset - 138.2m -->
    <tag k="addr:housenumber" v="150"/>
    <tag k="addr:street" v="Advent Lane"/>
    <tag k="addr:state" v="VT"/>
    <tag k="ref:vcgi:esiteid" v="122016"/>
  </node>
  <node id="-1954" visible="true" lat="43.66110375" lon="-72.31087626">
    <!-- offset: "150 Advent Lane, , VT" Significant offset - 111.3m -->
    <tag k="addr:housenumber" v="150"/>
    <tag k="addr:street" v="Advent Lane"/>
    <tag k="addr:state" v="VT"/>
    <tag k="ref:vcgi:esiteid" v="122050"/>
  </node>
  <node id="-2015" visible="true" lat="43.66158469" lon="-72.35837965">
    <!-- offset: "1544 Woodstock Road, , VT" Significant offset - 155.9m -->
    <tag k="addr:housenumber" v="1544"/>
    <tag k="addr:street" v="Woodstock Road"/>
    <tag k="addr:state" v="VT"/>
    <tag k="ref:vcgi:esiteid" v="122118"/>
  </node>
  <node id="-2262" visible="true" lat="43.65750728" lon="-72.42254255">
    <!-- offset: "574 Willard Road, , VT" Significant offset - 144.9m -->
    <tag k="addr:housenumber" v="574"/>
    <tag k="addr:street" v="Willard Road"/>
    <tag k="addr:state" v="VT"/>
    <tag k="ref:vcgi:esiteid" v="122380"/>
  </node>
  <node id="-2396" visible="true" lat="43.65544053" lon="-72.32697788">
    <!-- offset: "35 Sargent Street, , VT" Significant offset - 7389.5m -->
    <tag k="addr:housenumber" v="35"/>
    <tag k="addr:street" v="Sargent Street"/>
    <tag k="addr:state" v="VT"/>
    <tag k="ref:vcgi:esiteid" v="122523"/>
  </node>
  <node id="-2424" visible="true" lat="43.65519875" lon="-72.32612807">
    <!-- offset: "5 Sargent Street, , VT" Significant offset - 7289.1m -->
    <tag k="addr:housenumber" v="5"/>
    <tag k="addr:street" v="Sargent Street"/>
    <tag k="addr:state" v="VT"/>
    <tag k="ref:vcgi:esiteid" v="122551"/>
  </node>
  <node id="-2462" visible="true" lat="43.65470983" lon="-72.32327655">
    <!-- offset: "24 Hazen Street, , VT" Significant offset - 7100.9m -->
    <tag k="addr:housenumber" v="24"/>
    <tag k="addr:street" v="Hazen Street"/>
    <tag k="addr:state" v="VT"/>
    <tag k="ref:vcgi:esiteid" v="122592"/>
  </node>
  <node id="-2649" visible="true" lat="43.65238189" lon="-72.43745422">
    <!-- offset: "111 Lakeland Drive, , VT" Significant offset - 118.4m -->
    <tag k="addr:housenumber" v="111"/>
    <tag k="addr:street" v="Lakeland Drive"/>
    <tag k="addr:state" v="VT"/>
    <tag k="ref:vcgi:esiteid" v="122799"/>
  </node>
  <node id="-2727" visible="true" lat="43.65111128" lon="-72.4460388">
    <!-- offset: "3755 Quechee Main Street, , VT" Significant offset - 356.5m -->
    <tag k="addr:housenumber" v="3755"/>
    <tag k="addr:street" v="Quechee Main Street"/>
    <tag k="addr:state" v="VT"/>
    <tag k="ref:vcgi:esiteid" v="122891"/>
  </node>
  <node id="-2728" visible="true" lat="43.65103317" lon="-72.44702092">
    <!-- offset: "3755 Quechee Main Street, , VT" Significant offset - 356.9m -->
    <tag k="addr:housenumber" v="3755"/>
    <tag k="addr:street" v="Quechee Main Street"/>
    <tag k="addr:state" v="VT"/>
    <tag k="ref:vcgi:esiteid" v="122892"/>
  </node>
  <node id="-2731" visible="true" lat="43.65106929" lon="-72.44654375">
    <!-- offset: "3755 Quechee Main Street, , VT" Significant offset - 354.3m -->
    <tag k="addr:housenumber" v="3755"/>
    <tag k="addr:street" v="Quechee Main Street"/>
    <tag k="addr:state" v="VT"/>
    <tag k="ref:vcgi:esiteid" v="122895"/>
  </node>
  <node id="-2745" visible="true" lat="43.65089392" lon="-72.44571868">
    <!-- offset: "3755 Quechee Main Street, , VT" Significant offset - 333.3m -->
    <tag k="addr:housenumber" v="3755"/>
    <tag k="addr:street" v="Quechee Main Street"/>
    <tag k="addr:state" v="VT"/>
    <tag k="ref:vcgi:esiteid" v="122912"/>
  </node>
  <node id="-2763" visible="true" lat="43.65065884" lon="-72.44517497">
    <!-- offset: "3755 Quechee Main Street, , VT" Significant offset - 313.8m -->
    <tag k="addr:housenumber" v="3755"/>
    <tag k="addr:street" v="Quechee Main Street"/>
    <tag k="addr:state" v="VT"/>
    <tag k="ref:vcgi:esiteid" v="122932"/>
  </node>
  <node id="-2780" visible="true" lat="43.65045184" lon="-72.4459641">
    <!-- offset: "3755 Quechee Main Street, , VT" Significant offset - 283.2m -->
    <tag k="addr:housenumber" v="3755"/>
    <tag k="addr:street" v="Quechee Main Street"/>
    <tag k="addr:state" v="VT"/>
    <tag k="ref:vcgi:esiteid" v="122951"/>
  </node>
  <node id="-2788" visible="true" lat="43.65026783" lon="-72.44478795">
    <!-- offset: "3755 Quechee Main Street, , VT" Significant offset - 281m -->
    <tag k="addr:housenumber" v="3755"/>
    <tag k="addr:street" v="Quechee Main Street"/>
    <tag k="addr:state" v="VT"/>
    <tag k="ref:vcgi:esiteid" v="122959"/>
  </node>
  <node id="-2798" visible="true" lat="43.65013122" lon="-72.43862152">
    <!-- offset: "805 Murphys Road, , VT" Significant offset - 106m -->
    <tag k="addr:housenumber" v="805"/>
    <tag k="addr:street" v="Murphys Road"/>
    <tag k="addr:state" v="VT"/>
    <tag k="ref:vcgi:esiteid" v="122970"/>
  </node>
  <node id="-2807" visible="true" lat="43.65010137" lon="-72.44578642">
    <!-- offset: "3755 Quechee Main Street, , VT" Significant offset - 245m -->
    <tag k="addr:housenumber" v="3755"/>
    <tag k="addr:street" v="Quechee Main Street"/>
    <tag k="addr:state" v="VT"/>
    <tag k="ref:vcgi:esiteid" v="122980"/>
  </node>
  <node id="-2817" visible="true" lat="43.6500693" lon="-72.44505662">
    <!-- offset: "3755 Quechee Main Street, , VT" Significant offset - 253m -->
    <tag k="addr:housenumber" v="3755"/>
    <tag k="addr:street" v="Quechee Main Street"/>
    <tag k="addr:state" v="VT"/>
    <tag k="ref:vcgi:esiteid" v="122991"/>
  </node>
  <node id="-2836" visible="true" lat="43.64981861" lon="-72.44537085">
    <!-- offset: "3755 Quechee Main Street, , VT" Significant offset - 219.2m -->
    <tag k="addr:housenumber" v="3755"/>
    <tag k="addr:street" v="Quechee Main Street"/>
    <tag k="addr:state" v="VT"/>
    <tag k="ref:vcgi:esiteid" v="123016"/>
  </node>
  <node id="-2859" visible="true" lat="43.64953824" lon="-72.44495439">
    <!-- offset: "3755 Quechee Main Street, , VT" Significant offset - 201.1m -->
    <tag k="addr:housenumber" v="3755"/>
    <tag k="addr:street" v="Quechee Main Street"/>
    <tag k="addr:state" v="VT"/>
    <tag k="ref:vcgi:esiteid" v="123041"/>
  </node>
  <node id="-2876" visible="true" lat="43.64932632" lon="-72.4358139">
    <!-- offset: "860 Murphys Road, , VT" Significant offset - 158m -->
    <tag k="addr:housenumber" v="860"/>
    <tag k="addr:street" v="Murphys Road"/>
    <tag k="addr:state" v="VT"/>
    <tag k="ref:vcgi:esiteid" v="123063"/>
  </node>
  <node id="-2896" visible="true" lat="43.64941138" lon="-72.44007452">
    <!-- offset: "807 Murphys Road, , VT" Significant offset - 188.9m -->
    <tag k="addr:housenumber" v="807"/>
    <tag k="addr:street" v="Murphys Road"/>
    <tag k="addr:state" v="VT"/>
    <tag k="ref:vcgi:esiteid" v="123085"/>
  </node>
  <node id="-2914" visible="true" lat="43.64918583" lon="-72.44489257">
    <!-- offset: "3755 Quechee Main Street, , VT" Significant offset - 169.1m -->
    <tag k="addr:housenumber" v="3755"/>
    <tag k="addr:street" v="Quechee Main Street"/>
    <tag k="addr:state" v="VT"/>
    <tag k="ref:vcgi:esiteid" v="123105"/>
  </node>
  <node id="-2926" visible="true" lat="43.64895248" lon="-72.43603515">
    <!-- offset: "860 Murphys Road, , VT" Significant offset - 114.1m -->
    <tag k="addr:housenumber" v="860"/>
    <tag k="addr:street" v="Murphys Road"/>
    <tag k="addr:state" v="VT"/>
    <tag k="ref:vcgi:esiteid" v="123118"/>
  </node>
  <node id="-2931" visible="true" lat="43.64892578" lon="-72.439682">
    <!-- offset: "807 Murphys Road, , VT" Significant offset - 156.6m -->
    <tag k="addr:housenumber" v="807"/>
    <tag k="addr:street" v="Murphys Road"/>
    <tag k="addr:state" v="VT"/>
    <tag k="ref:vcgi:esiteid" v="123125"/>
  </node>
  <node id="-2944" visible="true" lat="43.64892886" lon="-72.44045428">
    <!-- offset: "807 Murphys Road, , VT" Significant offset - 128.4m -->
    <tag k="addr:housenumber" v="807"/>
    <tag k="addr:street" v="Murphys Road"/>
    <tag k="addr:state" v="VT"/>
    <tag k="ref:vcgi:esiteid" v="123140"/>
  </node>
  <node id="-2956" visible="true" lat="43.64864109" lon="-72.32801592">
    <!-- offset: "95 Templeton Avenue, , VT" Significant offset - 149.4m -->
    <tag k="addr:housenumber" v="95"/>
    <tag k="addr:street" v="Templeton Avenue"/>
    <tag k="addr:state" v="VT"/>
    <tag k="ref:vcgi:esiteid" v="123153"/>
  </node>
  <node id="-3002" visible="true" lat="43.64822173" lon="-72.41053716">
    <!-- offset: "1299 Quechee Main Street, , VT" Significant offset - 110.7m -->
    <tag k="addr:housenumber" v="1299"/>
    <tag k="addr:street" v="Quechee Main Street"/>
    <tag k="addr:state" v="VT"/>
    <tag k="ref:vcgi:esiteid" v="123209"/>
  </node>
  <node id="-3012" visible="true" lat="43.64805211" lon="-72.34221883">
    <!-- offset: "163 Veterans Drive, , VT" Significant offset - 100.2m -->
    <tag k="addr:housenumber" v="163"/>
    <tag k="addr:street" v="Veterans Drive"/>
    <tag k="addr:state" v="VT"/>
    <tag k="ref:vcgi:esiteid" v="123222"/>
  </node>
  <node id="-3016" visible="true" lat="43.64822385" lon="-72.43420696">
    <!-- offset: "580 Murphys Road, , VT" Significant offset - 146.6m -->
    <tag k="addr:housenumber" v="580"/>
    <tag k="addr:street" v="Murphys Road"/>
    <tag k="addr:state" v="VT"/>
    <tag k="ref:vcgi:esiteid" v="123228"/>
  </node>
  <node id="-3018" visible="true" lat="43.64817017" lon="-72.42164492">
    <!-- offset: "1952 Quechee Main Street, , VT" Significant offset - 609.3m -->
    <tag k="addr:housenumber" v="1952"/>
    <tag k="addr:street" v="Quechee Main Street"/>
    <tag k="addr:state" v="VT"/>
    <tag k="ref:vcgi:esiteid" v="123231"/>
  </node>
  <node id="-3084" visible="true" lat="43.64755626" lon="-72.43425865">
    <!-- offset: "1140 Murphys Road, , VT" Significant offset - 254.2m -->
    <tag k="addr:housenumber" v="1140"/>
    <tag k="addr:street" v="Murphys Road"/>
    <tag k="addr:state" v="VT"/>
    <tag k="ref:vcgi:esiteid" v="123309"/>
  </node>
  <node id="-3085" visible="true" lat="43.64749908" lon="-72.43347167">
    <!-- offset: "1140 Murphys Road, , VT" Significant offset - 193.3m -->
    <tag k="addr:housenumber" v="1140"/>
    <tag k="addr:street" v="Murphys Road"/>
    <tag k="addr:state" v="VT"/>
    <tag k="ref:vcgi:esiteid" v="123310"/>
  </node>
  <node id="-3100" visible="true" lat="43.64735412" lon="-72.43295288">
    <!-- offset: "1140 Murphys Road, , VT" Significant offset - 148.7m -->
    <tag k="addr:housenumber" v="1140"/>
    <tag k="addr:street" v="Murphys Road"/>
    <tag k="addr:state" v="VT"/>
    <tag k="ref:vcgi:esiteid" v="123326"/>
  </node>
  <node id="-3170" visible="true" lat="43.6466217" lon="-72.43302154">
    <!-- offset: "1140 Murphys Road, , VT" Significant offset - 139.6m -->
    <tag k="addr:housenumber" v="1140"/>
    <tag k="addr:street" v="Murphys Road"/>
    <tag k="addr:state" v="VT"/>
    <tag k="ref:vcgi:esiteid" v="123408"/>
  </node>
  <node id="-3205" visible="true" lat="43.64608313" lon="-72.32937023">
    <!-- offset: "144 Hickory Ridge, , VT" Significant offset - 6669.4m -->
    <tag k="addr:housenumber" v="144"/>
    <tag k="addr:street" v="Hickory Ridge"/>
    <tag k="addr:state" v="VT"/>
    <tag k="ref:vcgi:esiteid" v="123450"/>
  </node>
  <node id="-3229" visible="true" lat="43.64600114" lon="-72.4301757">
    <!-- offset: "1140 Murphys Road, , VT" Significant offset - 123.5m -->
    <tag k="addr:housenumber" v="1140"/>
    <tag k="addr:street" v="Murphys Road"/>
    <tag k="addr:state" v="VT"/>
    <tag k="ref:vcgi:esiteid" v="123476"/>
  </node>
  <node id="-3292" visible="true" lat="43.64534862" lon="-72.42024121">
    <!-- offset: "61 River Street, , VT" Significant offset - 8963.8m -->
    <tag k="addr:housenumber" v="61"/>
    <tag k="addr:street" v="River Street"/>
    <tag k="addr:state" v="VT"/>
    <tag k="ref:vcgi:esiteid" v="123551"/>
  </node>
  <node id="-3295" visible="true" lat="43.64537811" lon="-72.41982269">
    <!-- offset: "39 River Street, , VT" Significant offset - 8651.2m -->
    <tag k="addr:housenumber" v="39"/>
    <tag k="addr:street" v="River Street"/>
    <tag k="addr:state" v="VT"/>
    <tag k="ref:vcgi:esiteid" v="123554"/>
  </node>
  <node id="-3443" visible="true" lat="43.64386093" lon="-72.42767373">
    <!-- offset: "399 West Gilson Avenue, , VT" Significant offset - 120.9m -->
    <tag k="addr:housenumber" v="399"/>
    <tag k="addr:street" v="West Gilson Avenue"/>
    <tag k="addr:state" v="VT"/>
    <tag k="ref:vcgi:esiteid" v="123720"/>
  </node>
  <node id="-4103" visible="true" lat="43.66911993" lon="-72.32372222">
    <!-- offset: "649 Bugbee Street, , VT" Significant offset - 119.2m -->
    <tag k="addr:housenumber" v="649"/>
    <tag k="addr:street" v="Bugbee Street"/>
    <tag k="addr:state" v="VT"/>
    <tag k="ref:vcgi:esiteid" v="124432"/>
  </node>
  <node id="-4230" visible="true" lat="43.64825513" lon="-72.43470583">
    <!-- offset: "580 Murphys Road, , VT" Significant offset - 164.5m -->
    <tag k="addr:housenumber" v="580"/>
    <tag k="addr:street" v="Murphys Road"/>
    <tag k="addr:state" v="VT"/>
    <tag k="ref:vcgi:esiteid" v="124564"/>
  </node>
  <node id="-4231" visible="true" lat="43.64831972" lon="-72.43509012">
    <!-- offset: "580 Murphys Road, , VT" Significant offset - 180.1m -->
    <tag k="addr:housenumber" v="580"/>
    <tag k="addr:street" v="Murphys Road"/>
    <tag k="addr:state" v="VT"/>
    <tag k="ref:vcgi:esiteid" v="124565"/>
  </node>
  <node id="-4232" visible="true" lat="43.64858462" lon="-72.43528234">
    <!-- offset: "580 Murphys Road, , VT" Significant offset - 174.3m -->
    <tag k="addr:housenumber" v="580"/>
    <tag k="addr:street" v="Murphys Road"/>
    <tag k="addr:state" v="VT"/>
    <tag k="ref:vcgi:esiteid" v="124566"/>
  </node>
  <node id="-4233" visible="true" lat="43.64922976" lon="-72.4349962">
    <!-- offset: "580 Murphys Road, , VT" Significant offset - 126.1m -->
    <tag k="addr:housenumber" v="580"/>
    <tag k="addr:street" v="Murphys Road"/>
    <tag k="addr:state" v="VT"/>
    <tag k="ref:vcgi:esiteid" v="124567"/>
  </node>
  <node id="-4234" visible="true" lat="43.64945591" lon="-72.43484561">
    <!-- offset: "580 Murphys Road, , VT" Significant offset - 112.2m -->
    <tag k="addr:housenumber" v="580"/>
    <tag k="addr:street" v="Murphys Road"/>
    <tag k="addr:state" v="VT"/>
    <tag k="ref:vcgi:esiteid" v="124568"/>
  </node>
  <node id="-4385" visible="true" lat="43.66125215" lon="-72.31093501">
    <!-- offset: "150 Advent Lane, , VT" Significant offset - 118.2m -->
    <tag k="addr:housenumber" v="150"/>
    <tag k="addr:street" v="Advent Lane"/>
    <tag k="addr:state" v="VT"/>
    <tag k="ref:vcgi:esiteid" v="124727"/>
  </node>
  <node id="-4386" visible="true" lat="43.66135863" lon="-72.31090669">
    <!-- offset: "150 Advent Lane, , VT" Significant offset - 128.2m -->
    <tag k="addr:housenumber" v="150"/>
    <tag k="addr:street" v="Advent Lane"/>
    <tag k="addr:state" v="VT"/>
    <tag k="ref:vcgi:esiteid" v="124728"/>
  </node>
  <node id="-4387" visible="true" lat="43.66130063" lon="-72.3112712">
    <!-- offset: "150 Advent Lane, , VT" Significant offset - 104.7m -->
    <tag k="addr:housenumber" v="150"/>
    <tag k="addr:street" v="Advent Lane"/>
    <tag k="addr:state" v="VT"/>
    <tag k="ref:vcgi:esiteid" v="124729"/>
  </node>
  <node id="-4388" visible="true" lat="43.6615327" lon="-72.31123751">
    <!-- offset: "150 Advent Lane, , VT" Significant offset - 128.1m -->
    <tag k="addr:housenumber" v="150"/>
    <tag k="addr:street" v="Advent Lane"/>
    <tag k="addr:state" v="VT"/>
    <tag k="ref:vcgi:esiteid" v="124730"/>
  </node>
  <node id="-4389" visible="true" lat="43.66154004" lon="-72.31133637">
    <!-- offset: "150 Advent Lane, , VT" Significant offset - 125.2m -->
    <tag k="addr:housenumber" v="150"/>
    <tag k="addr:street" v="Advent Lane"/>
    <tag k="addr:state" v="VT"/>
    <tag k="ref:vcgi:esiteid" v="124731"/>
  </node>
  <node id="-4390" visible="true" lat="43.66171753" lon="-72.31158304">
    <!-- offset: "150 Advent Lane, , VT" Significant offset - 137.1m -->
    <tag k="addr:housenumber" v="150"/>
    <tag k="addr:street" v="Advent Lane"/>
    <tag k="addr:state" v="VT"/>
    <tag k="ref:vcgi:esiteid" v="124732"/>
  </node>
  <node id="-4391" visible="true" lat="43.66154291" lon="-72.31162314">
    <!-- offset: "150 Advent Lane, , VT" Significant offset - 117.5m -->
    <tag k="addr:housenumber" v="150"/>
    <tag k="addr:street" v="Advent Lane"/>
    <tag k="addr:state" v="VT"/>
    <tag k="ref:vcgi:esiteid" v="124733"/>
  </node>
  <node id="-4392" visible="true" lat="43.66156238" lon="-72.31182415">
    <!-- offset: "150 Advent Lane, , VT" Significant offset - 116.5m -->
    <tag k="addr:housenumber" v="150"/>
    <tag k="addr:street" v="Advent Lane"/>
    <tag k="addr:state" v="VT"/>
    <tag k="ref:vcgi:esiteid" v="124734"/>
  </node>
  <node id="-4393" visible="true" lat="43.66146198" lon="-72.31188709">
    <!-- offset: "150 Advent Lane, , VT" Significant offset - 104.9m -->
    <tag k="addr:housenumber" v="150"/>
    <tag k="addr:street" v="Advent Lane"/>
    <tag k="addr:state" v="VT"/>
    <tag k="ref:vcgi:esiteid" v="124735"/>
  </node>
  <node id="-4645" visible="true" lat="43.67255185" lon="-72.38090319">
    <!-- offset: "1700 Vermont Route 14, , VT" Significant offset - 9221.3m -->
    <tag k="addr:housenumber" v="1700"/>
    <tag k="addr:street" v="Vermont Route 14"/>
    <tag k="addr:state" v="VT"/>
    <tag k="ref:vcgi:esiteid" v="315950"/>
  </node>
  <node id="-4827" visible="true" lat="43.6834846" lon="-72.31897102">
    <!-- offset: "2680 Hartford Avenue, , VT" Significant offset - 108.9m -->
    <tag k="addr:housenumber" v="2680"/>
    <tag k="addr:street" v="Hartford Avenue"/>
    <tag k="addr:state" v="VT"/>
    <tag k="ref:vcgi:esiteid" v="333247"/>
  </node>
  <node id="-4828" visible="true" lat="43.68326057" lon="-72.31913576">
    <!-- offset: "2680 Hartford Avenue, , VT" Significant offset - 116.6m -->
    <tag k="addr:housenumber" v="2680"/>
    <tag k="addr:street" v="Hartford Avenue"/>
    <tag k="addr:state" v="VT"/>
    <tag k="ref:vcgi:esiteid" v="333248"/>
  </node>
  <node id="-4839" visible="true" lat="43.68261697" lon="-72.3166462">
    <!-- offset: "2680 Hartford Avenue, , VT" Significant offset - 103.6m -->
    <tag k="addr:housenumber" v="2680"/>
    <tag k="addr:street" v="Hartford Avenue"/>
    <tag k="addr:state" v="VT"/>
    <tag k="ref:vcgi:esiteid" v="333259"/>
  </node>
  <node id="-4888" visible="true" lat="43.70024242" lon="-72.34335082">
    <!-- offset: "221 Newton Lane, , VT" Significant offset - 366.3m -->
    <tag k="addr:housenumber" v="221"/>
    <tag k="addr:street" v="Newton Lane"/>
    <tag k="addr:state" v="VT"/>
    <tag k="ref:vcgi:esiteid" v="341216"/>
  </node>
  <node id="-4891" visible="true" lat="43.67233367" lon="-72.44798669">
    <!-- offset: "332 Cushing Road, , VT" Significant offset - 807m -->
    <tag k="addr:housenumber" v="332"/>
    <tag k="addr:street" v="Cushing Road"/>
    <tag k="addr:state" v="VT"/>
    <tag k="ref:vcgi:esiteid" v="342142"/>
  </node>
  <node id="-4901" visible="true" lat="43.68435975" lon="-72.31849047">
    <!-- offset: "205 Billings Farm Road, , VT" Significant offset - 127.5m -->
    <tag k="addr:housenumber" v="205"/>
    <tag k="addr:street" v="Billings Farm Road"/>
    <tag k="addr:state" v="VT"/>
    <tag k="ref:vcgi:esiteid" v="345108"/>
  </node>
  <node id="-4902" visible="true" lat="43.68425702" lon="-72.31810275">
    <!-- offset: "205 Billings Farm Road, , VT" Significant offset - 107.4m -->
    <tag k="addr:housenumber" v="205"/>
    <tag k="addr:street" v="Billings Farm Road"/>
    <tag k="addr:state" v="VT"/>
    <tag k="ref:vcgi:esiteid" v="345110"/>
  </node>
  <node id="-4939" visible="true" lat="43.70744962" lon="-72.36977333">
    <!-- offset: "179 Sugartop Road, , VT" Significant offset - 558.2m -->
    <tag k="addr:housenumber" v="179"/>
    <tag k="addr:street" v="Sugartop Road"/>
    <tag k="addr:state" v="VT"/>
    <tag k="ref:vcgi:esiteid" v="452463"/>
  </node>
  <node id="-4951" visible="true" lat="43.65063493" lon="-72.4701323">
    <!-- offset: "1455 High Pastures Road, , VT" Significant offset - 192.6m -->
    <tag k="addr:housenumber" v="1455"/>
    <tag k="addr:street" v="High Pastures Road"/>
    <tag k="addr:state" v="VT"/>
    <tag k="ref:vcgi:esiteid" v="455202"/>
  </node>
  <node id="-4961" visible="true" lat="43.61711815" lon="-72.35353164">
    <!-- offset: "2604 North Hartland Road, , VT" Significant offset - 136.2m -->
    <tag k="addr:housenumber" v="2604"/>
    <tag k="addr:street" v="North Hartland Road"/>
    <tag k="addr:state" v="VT"/>
    <tag k="ref:vcgi:esiteid" v="611522"/>
  </node>
  <node id="-4989" visible="true" lat="43.64848978" lon="-72.32756174">
    <!-- offset: "95 Templeton Avenue, , VT" Significant offset - 110.8m -->
    <tag k="addr:housenumber" v="95"/>
    <tag k="addr:street" v="Templeton Avenue"/>
    <tag k="addr:state" v="VT"/>
    <tag k="ref:vcgi:esiteid" v="620534"/>
  </node>
  <node id="-5188" visible="true" lat="43.66269677" lon="-72.45016241">
    <!-- offset: "105 Williams Lane, , VT" Significant offset - 160.9m -->
    <tag k="addr:housenumber" v="105"/>
    <tag k="addr:street" v="Williams Lane"/>
    <tag k="addr:state" v="VT"/>
    <tag k="ref:vcgi:esiteid" v="1051570"/>
  </node>
</osm>
