<?xml version="1.0" encoding="UTF-8"?>
<osm version="0.6" generator="JOSM" upload="false">
  <node id="-1756" visible="true" lat="43.57902337" lon="-72.42240071">
    <tag k="addr:housenumber" v="38"/>
    <tag k="addr:street" v="Brothers Road"/>
    <tag k="addr:state" v="VT"/>
    <tag k="ref:vcgi:esiteid" v="646664"/>
  </node>
  <node id="-1900" visible="true" lat="43.52747319" lon="-72.42831428">
    <tag k="addr:housenumber" v="25"/>
    <tag k="addr:street" v="Hamblin Road"/>
    <tag k="addr:state" v="VT"/>
    <tag k="ref:vcgi:esiteid" v="771522"/>
  </node>
  <node id="-1901" visible="true" lat="43.5787852" lon="-72.46662053">
    <tag k="addr:housenumber" v="52"/>
    <tag k="addr:street" v="Garvin Hill Road"/>
    <tag k="addr:state" v="VT"/>
    <tag k="ref:vcgi:esiteid" v="771564"/>
  </node>
  <node id="-1902" visible="true" lat="43.55081704" lon="-72.38582455">
    <tag k="addr:housenumber" v="272"/>
    <tag k="addr:street" v="U.S. Route 5"/>
    <tag k="addr:state" v="VT"/>
    <tag k="ref:vcgi:esiteid" v="771583"/>
  </node>
  <node id="-1903" visible="true" lat="43.55108941" lon="-72.38579696">
    <tag k="addr:housenumber" v="276"/>
    <tag k="addr:street" v="U.S. Route 5"/>
    <tag k="addr:state" v="VT"/>
    <tag k="ref:vcgi:esiteid" v="771585"/>
  </node>
  <node id="-1905" visible="true" lat="43.54468723" lon="-72.40113802">
    <tag k="addr:housenumber" v="29"/>
    <tag k="addr:street" v="Quechee Road"/>
    <tag k="addr:state" v="VT"/>
    <tag k="ref:vcgi:esiteid" v="771603"/>
  </node>
  <node id="-1906" visible="true" lat="43.54566453" lon="-72.4250415">
    <tag k="addr:housenumber" v="7B"/>
    <tag k="addr:street" v="Brownsville Road"/>
    <tag k="addr:state" v="VT"/>
    <tag k="ref:vcgi:esiteid" v="771821"/>
  </node>
  <node id="-1910" visible="true" lat="43.54936279" lon="-72.48238626">
    <tag k="addr:housenumber" v="195"/>
    <tag k="addr:street" v="Densmore Hill Road"/>
    <tag k="addr:state" v="VT"/>
    <tag k="ref:vcgi:esiteid" v="772569"/>
  </node>
</osm>
