<?xml version="1.0" encoding="UTF-8"?>
<osm version="0.6" generator="JOSM" upload="false">
  <node id="-2035" visible="true" lat="44.32381316" lon="-73.07689307">
    <tag k="addr:city" v="Hinesburg"/>
    <tag k="addr:housenumber" v="260"/>
    <tag k="addr:street" v="Observatory Road"/>
    <tag k="addr:state" v="VT"/>
    <tag k="ref:vcgi:esiteid" v="646484"/>
  </node>
  <node id="-2036" visible="true" lat="44.3239316" lon="-73.07840656">
    <tag k="addr:city" v="Hinesburg"/>
    <tag k="addr:housenumber" v="262"/>
    <tag k="addr:street" v="Observatory Road"/>
    <tag k="addr:state" v="VT"/>
    <tag k="ref:vcgi:esiteid" v="646485"/>
  </node>
  <node id="-2037" visible="true" lat="44.32495265" lon="-73.07668816">
    <tag k="addr:city" v="Hinesburg"/>
    <tag k="addr:housenumber" v="33"/>
    <tag k="addr:street" v="Hardwood Hill"/>
    <tag k="addr:state" v="VT"/>
    <tag k="ref:vcgi:esiteid" v="646486"/>
  </node>
  <node id="-2038" visible="true" lat="44.28282402" lon="-73.13253721">
    <tag k="addr:city" v="Hinesburg"/>
    <tag k="addr:housenumber" v="2844"/>
    <tag k="addr:street" v="Baldwin Road"/>
    <tag k="addr:state" v="VT"/>
    <tag k="ref:vcgi:esiteid" v="646593"/>
  </node>
  <node id="-2039" visible="true" lat="44.3321028" lon="-73.12540068">
    <tag k="addr:city" v="Hinesburg"/>
    <tag k="addr:housenumber" v="297"/>
    <tag k="addr:street" v="Lagoon Road"/>
    <tag k="addr:state" v="VT"/>
    <tag k="ref:vcgi:esiteid" v="646594"/>
  </node>
  <node id="-2040" visible="true" lat="44.33219353" lon="-73.12502926">
    <tag k="addr:city" v="Hinesburg"/>
    <tag k="addr:housenumber" v="335"/>
    <tag k="addr:street" v="Lagoon Road"/>
    <tag k="addr:state" v="VT"/>
    <tag k="ref:vcgi:esiteid" v="646595"/>
  </node>
  <node id="-2041" visible="true" lat="44.33226414" lon="-73.12452824">
    <tag k="addr:city" v="Hinesburg"/>
    <tag k="addr:housenumber" v="357"/>
    <tag k="addr:street" v="Lagoon Road"/>
    <tag k="addr:state" v="VT"/>
    <tag k="ref:vcgi:esiteid" v="646596"/>
  </node>
  <node id="-2042" visible="true" lat="44.33282007" lon="-73.12601403">
    <tag k="addr:city" v="Hinesburg"/>
    <tag k="addr:housenumber" v="257"/>
    <tag k="addr:street" v="Lagoon Road"/>
    <tag k="addr:state" v="VT"/>
    <tag k="ref:vcgi:esiteid" v="646597"/>
  </node>
  <node id="-2068" visible="true" lat="44.33169186" lon="-73.1248169">
    <tag k="addr:city" v="Hinesburg"/>
    <tag k="addr:housenumber" v="206"/>
    <tag k="addr:street" v="Lagoon Road"/>
    <tag k="addr:state" v="VT"/>
    <tag k="ref:vcgi:esiteid" v="752137"/>
  </node>
  <node id="-2076" visible="true" lat="44.28487281" lon="-73.10063172">
    <tag k="addr:city" v="Hinesburg"/>
    <tag k="addr:housenumber" v="95"/>
    <tag k="addr:street" v="Sparrows Way"/>
    <tag k="addr:state" v="VT"/>
    <tag k="ref:vcgi:esiteid" v="753601"/>
  </node>
  <node id="-2241" visible="true" lat="44.28447353" lon="-73.10176142">
    <tag k="addr:city" v="Hinesburg"/>
    <tag k="addr:housenumber" v="30"/>
    <tag k="addr:street" v="Sparrows Way"/>
    <tag k="addr:state" v="VT"/>
    <tag k="ref:vcgi:esiteid" v="771458"/>
  </node>
</osm>
