<?xml version="1.0" encoding="UTF-8"?>
<osm version="0.6" generator="JOSM" upload="false">
  <node id="-106" visible="true" lat="44.67748539" lon="-72.58802101">
    <tag k="addr:city" v="Hyde Park"/>
    <tag k="addr:housenumber" v="551"/>
    <tag k="addr:street" v="Heath Road"/>
    <tag k="addr:state" v="VT"/>
    <tag k="ref:vcgi:esiteid" v="131973"/>
  </node>
  <node id="-1648" visible="true" lat="44.62934651" lon="-72.56166387">
    <tag k="addr:city" v="Hyde Park"/>
    <tag k="addr:housenumber" v="117"/>
    <tag k="addr:street" v="Bourdeau Road"/>
    <tag k="addr:state" v="VT"/>
    <tag k="ref:vcgi:esiteid" v="771502"/>
  </node>
  <node id="-1649" visible="true" lat="44.66239109" lon="-72.6070216">
    <tag k="addr:city" v="Hyde Park"/>
    <tag k="addr:housenumber" v="4801"/>
    <tag k="addr:street" v="Vermont Route 100"/>
    <tag k="addr:state" v="VT"/>
    <tag k="ref:vcgi:esiteid" v="771836"/>
  </node>
  <node id="-1650" visible="true" lat="44.64128298" lon="-72.48692263">
    <tag k="addr:city" v="Hyde Park"/>
    <tag k="addr:housenumber" v="325"/>
    <tag k="addr:street" v="Bornemann Road"/>
    <tag k="addr:state" v="VT"/>
    <tag k="ref:vcgi:esiteid" v="771920"/>
  </node>
</osm>
