<?xml version="1.0" encoding="UTF-8"?>
<osm version="0.6" generator="JOSM" upload="false">
  <node id="-1405" visible="true" lat="44.63742798" lon="-72.6791576">
    <tag k="addr:city" v="Johnson"/>
    <tag k="addr:housenumber" v="31"/>
    <tag k="addr:street" v="Clay Hill"/>
    <tag k="addr:state" v="VT"/>
    <tag k="ref:vcgi:esiteid" v="365684"/>
  </node>
  <node id="-1406" visible="true" lat="44.67267757" lon="-72.68750034">
    <tag k="addr:city" v="Johnson"/>
    <tag k="addr:housenumber" v="232"/>
    <tag k="addr:street" v="Woodmens Lane"/>
    <tag k="addr:state" v="VT"/>
    <tag k="ref:vcgi:esiteid" v="365686"/>
  </node>
  <node id="-1407" visible="true" lat="44.67323394" lon="-72.68793256">
    <tag k="addr:city" v="Johnson"/>
    <tag k="addr:housenumber" v="250"/>
    <tag k="addr:street" v="Woodmens Lane"/>
    <tag k="addr:state" v="VT"/>
    <tag k="ref:vcgi:esiteid" v="365687"/>
  </node>
  <node id="-1408" visible="true" lat="44.62883289" lon="-72.6966201">
    <tag k="addr:city" v="Johnson"/>
    <tag k="addr:housenumber" v="301"/>
    <tag k="addr:street" v="Lendway Lane"/>
    <tag k="addr:state" v="VT"/>
    <tag k="ref:vcgi:esiteid" v="365688"/>
  </node>
  <node id="-1542" visible="true" lat="44.63399803" lon="-72.70654876">
    <tag k="addr:city" v="Johnson"/>
    <tag k="addr:housenumber" v="951"/>
    <tag k="addr:street" v="Lendway Lane"/>
    <tag k="addr:state" v="VT"/>
    <tag k="ref:vcgi:esiteid" v="655826"/>
  </node>
  <node id="-1623" visible="true" lat="44.67287115" lon="-72.68838976">
    <tag k="addr:city" v="Johnson"/>
    <tag k="addr:housenumber" v="221"/>
    <tag k="addr:street" v="Woodmens Lane"/>
    <tag k="addr:state" v="VT"/>
    <tag k="ref:vcgi:esiteid" v="766427"/>
  </node>
  <node id="-1642" visible="true" lat="44.64384839" lon="-72.68518774">
    <tag k="addr:city" v="Johnson"/>
    <tag k="addr:housenumber" v="625"/>
    <tag k="addr:street" v="Gould Hill"/>
    <tag k="addr:state" v="VT"/>
    <tag k="ref:vcgi:esiteid" v="772075"/>
  </node>
  <node id="-1643" visible="true" lat="44.64408899" lon="-72.68581353">
    <tag k="addr:city" v="Johnson"/>
    <tag k="addr:housenumber" v="647"/>
    <tag k="addr:street" v="Gould Hill"/>
    <tag k="addr:state" v="VT"/>
    <tag k="ref:vcgi:esiteid" v="772076"/>
  </node>
  <node id="-1644" visible="true" lat="44.64472233" lon="-72.68560027">
    <tag k="addr:city" v="Johnson"/>
    <tag k="addr:housenumber" v="649"/>
    <tag k="addr:street" v="Gould Hill"/>
    <tag k="addr:state" v="VT"/>
    <tag k="ref:vcgi:esiteid" v="772077"/>
  </node>
  <node id="-1645" visible="true" lat="44.64635944" lon="-72.67956056">
    <tag k="addr:city" v="Johnson"/>
    <tag k="addr:housenumber" v="939"/>
    <tag k="addr:street" v="Gould Hill"/>
    <tag k="addr:state" v="VT"/>
    <tag k="ref:vcgi:esiteid" v="772164"/>
  </node>
  <node id="-1648" visible="true" lat="44.65508391" lon="-72.68551117">
    <tag k="addr:city" v="Johnson"/>
    <tag k="addr:housenumber" v="575"/>
    <tag k="addr:street" v="Plot Road"/>
    <tag k="addr:state" v="VT"/>
    <tag k="ref:vcgi:esiteid" v="1050121"/>
  </node>
</osm>
