<?xml version="1.0" encoding="UTF-8"?>
<osm version="0.6" generator="JOSM" upload="false">
  <node id="-1537" visible="true" lat="43.60926559" lon="-72.76387604">
    <tag k="addr:city" v="Killington"/>
    <tag k="addr:housenumber" v="3154"/>
    <tag k="addr:street" v="East Mountain Road"/>
    <tag k="addr:state" v="VT"/>
    <tag k="ref:vcgi:esiteid" v="646550"/>
  </node>
  <node id="-1538" visible="true" lat="43.69502184" lon="-72.81758243">
    <tag k="addr:city" v="Killington"/>
    <tag k="addr:housenumber" v="230"/>
    <tag k="addr:street" v="Barrows Towne Road"/>
    <tag k="addr:state" v="VT"/>
    <tag k="ref:vcgi:esiteid" v="646608"/>
  </node>
  <node id="-1540" visible="true" lat="43.62191358" lon="-72.76083657">
    <tag k="addr:city" v="Killington"/>
    <tag k="addr:housenumber" v="151"/>
    <tag k="addr:street" v="Skye Ridge Drive"/>
    <tag k="addr:state" v="VT"/>
    <tag k="ref:vcgi:esiteid" v="646610"/>
  </node>
  <node id="-1627" visible="true" lat="43.64849361" lon="-72.78990209">
    <tag k="addr:city" v="Killington"/>
    <tag k="addr:housenumber" v="1726"/>
    <tag k="addr:street" v="Killington Road"/>
    <tag k="addr:state" v="VT"/>
    <tag k="ref:vcgi:esiteid" v="770557"/>
  </node>
  <node id="-1628" visible="true" lat="43.68315376" lon="-72.81091581">
    <tag k="addr:city" v="Killington"/>
    <tag k="addr:housenumber" v="196"/>
    <tag k="addr:street" v="Alran Road"/>
    <tag k="addr:state" v="VT"/>
    <tag k="ref:vcgi:esiteid" v="770558"/>
  </node>
  <node id="-1629" visible="true" lat="43.61930477" lon="-72.77352582">
    <tag k="addr:city" v="Killington"/>
    <tag k="addr:housenumber" v="328"/>
    <tag k="addr:street" v="Roundabout Road"/>
    <tag k="addr:state" v="VT"/>
    <tag k="ref:vcgi:esiteid" v="771468"/>
  </node>
  <node id="-1630" visible="true" lat="43.62558278" lon="-72.76903695">
    <tag k="addr:city" v="Killington"/>
    <tag k="addr:housenumber" v="2037"/>
    <tag k="addr:street" v="East Mountain Road"/>
    <tag k="addr:state" v="VT"/>
    <tag k="ref:vcgi:esiteid" v="771469"/>
  </node>
  <node id="-1631" visible="true" lat="43.63879165" lon="-72.79130203">
    <tag k="addr:city" v="Killington"/>
    <tag k="addr:housenumber" v="9"/>
    <tag k="addr:street" v="Cliff Road"/>
    <tag k="addr:state" v="VT"/>
    <tag k="ref:vcgi:esiteid" v="771495"/>
  </node>
  <node id="-1634" visible="true" lat="43.61642502" lon="-72.77168517">
    <tag k="addr:city" v="Killington"/>
    <tag k="addr:housenumber" v="43"/>
    <tag k="addr:street" v="Downabout Road"/>
    <tag k="addr:state" v="VT"/>
    <tag k="ref:vcgi:esiteid" v="772309"/>
  </node>
  <node id="-1635" visible="true" lat="43.61540404" lon="-72.77158194">
    <tag k="addr:city" v="Killington"/>
    <tag k="addr:housenumber" v="75"/>
    <tag k="addr:street" v="Downabout Road"/>
    <tag k="addr:state" v="VT"/>
    <tag k="ref:vcgi:esiteid" v="772310"/>
  </node>
  <node id="-1636" visible="true" lat="43.6432399" lon="-72.77875559">
    <tag k="addr:city" v="Killington"/>
    <tag k="addr:housenumber" v="460"/>
    <tag k="addr:street" v="Lower Rebecca Lane"/>
    <tag k="addr:state" v="VT"/>
    <tag k="ref:vcgi:esiteid" v="772556"/>
  </node>
</osm>
