<?xml version="1.0" encoding="UTF-8"?>
<osm version="0.6" generator="JOSM" upload="false">
  <node id="-210" visible="true" lat="43.23807907" lon="-72.79711914">
    <!-- multiple: "6795 Vermont Route 100, , VT" Multiple exact matches in OSM. -->
    <tag k="addr:housenumber" v="6795"/>
    <tag k="addr:street" v="Vermont Route 100"/>
    <tag k="addr:state" v="VT"/>
    <tag k="ref:vcgi:esiteid" v="140751"/>
  </node>
  <node id="-225" visible="true" lat="43.23607638" lon="-72.8493526">
    <!-- multiple: "38 Vermont Route 11, , VT" Multiple exact matches in OSM. -->
    <tag k="addr:housenumber" v="38"/>
    <tag k="addr:street" v="Vermont Route 11"/>
    <tag k="addr:state" v="VT"/>
    <tag k="ref:vcgi:esiteid" v="140766"/>
  </node>
  <node id="-408" visible="true" lat="43.22823231" lon="-72.8153147">
    <!-- multiple: "5700 Vermont Route 100, , VT" Multiple exact matches in OSM. -->
    <tag k="addr:housenumber" v="5700"/>
    <tag k="addr:street" v="Vermont Route 100"/>
    <tag k="addr:state" v="VT"/>
    <tag k="ref:vcgi:esiteid" v="140950"/>
  </node>
  <node id="-706" visible="true" lat="43.21166956" lon="-72.78660196">
    <!-- multiple: "3928 Vermont Route 11, , VT" Multiple exact matches in OSM. -->
    <tag k="addr:housenumber" v="3928"/>
    <tag k="addr:street" v="Vermont Route 11"/>
    <tag k="addr:state" v="VT"/>
    <tag k="ref:vcgi:esiteid" v="141274"/>
  </node>
  <node id="-769" visible="true" lat="43.20812039" lon="-72.81395262">
    <!-- multiple: "1061 Middletown Road, , VT" Multiple exact matches in OSM. -->
    <tag k="addr:housenumber" v="1061"/>
    <tag k="addr:street" v="Middletown Road"/>
    <tag k="addr:state" v="VT"/>
    <tag k="ref:vcgi:esiteid" v="141337"/>
  </node>
  <node id="-841" visible="true" lat="43.20491087" lon="-72.82159428">
    <!-- multiple: "52 Hearthstone Lane, , VT" Multiple exact matches in OSM. -->
    <tag k="addr:housenumber" v="52"/>
    <tag k="addr:street" v="Hearthstone Lane"/>
    <tag k="addr:state" v="VT"/>
    <tag k="ref:vcgi:esiteid" v="141413"/>
  </node>
  <node id="-907" visible="true" lat="43.20178604" lon="-72.77270507">
    <!-- multiple: "495 Magic Mountain Access Road, , VT" Multiple exact matches in OSM. -->
    <tag k="addr:housenumber" v="495"/>
    <tag k="addr:street" v="Magic Mountain Access Road"/>
    <tag k="addr:state" v="VT"/>
    <tag k="ref:vcgi:esiteid" v="141482"/>
  </node>
  <node id="-985" visible="true" lat="43.19415963" lon="-72.81442931">
    <!-- multiple: "95 Middletown Road, , VT" Multiple exact matches in OSM. -->
    <tag k="addr:housenumber" v="95"/>
    <tag k="addr:street" v="Middletown Road"/>
    <tag k="addr:state" v="VT"/>
    <tag k="ref:vcgi:esiteid" v="141565"/>
  </node>
  <node id="-1482" visible="true" lat="43.16030376" lon="-72.84166868">
    <!-- multiple: "244 Bobcat Run, , VT" Multiple exact matches in OSM. -->
    <tag k="addr:housenumber" v="244"/>
    <tag k="addr:street" v="Bobcat Run"/>
    <tag k="addr:state" v="VT"/>
    <tag k="ref:vcgi:esiteid" v="341842"/>
  </node>
  <node id="-1519" visible="true" lat="43.20827734" lon="-72.85078778">
    <!-- multiple: "243 Beattie Road, , VT" Multiple exact matches in OSM. -->
    <tag k="addr:housenumber" v="243"/>
    <tag k="addr:street" v="Beattie Road"/>
    <tag k="addr:state" v="VT"/>
    <tag k="ref:vcgi:esiteid" v="453731"/>
  </node>
  <node id="-1521" visible="true" lat="43.22625887" lon="-72.72821427">
    <!-- multiple: "7452 Vermont Route 11, , VT" Multiple exact matches in OSM. -->
    <tag k="addr:housenumber" v="7452"/>
    <tag k="addr:street" v="Vermont Route 11"/>
    <tag k="addr:state" v="VT"/>
    <tag k="ref:vcgi:esiteid" v="454903"/>
  </node>
  <node id="-1531" visible="true" lat="43.25094943" lon="-72.80047849">
    <!-- multiple: "315 Hobart Road, , VT" Multiple exact matches in OSM. -->
    <tag k="addr:housenumber" v="315"/>
    <tag k="addr:street" v="Hobart Road"/>
    <tag k="addr:state" v="VT"/>
    <tag k="ref:vcgi:esiteid" v="617034"/>
  </node>
  <node id="-1585" visible="true" lat="43.15061068" lon="-72.80369547">
    <!-- multiple: "15 Hughes Lane, , VT" Multiple exact matches in OSM. -->
    <tag k="addr:housenumber" v="15"/>
    <tag k="addr:street" v="Hughes Lane"/>
    <tag k="addr:state" v="VT"/>
    <tag k="ref:vcgi:esiteid" v="760788"/>
  </node>
</osm>
