<?xml version="1.0" encoding="UTF-8"?>
<osm version="0.6" generator="JOSM" upload="false">
  <node id="-231" visible="true" lat="44.80538866" lon="-72.44881556">
    <!-- multiple: "52 Gelo Park Road, , VT" Multiple exact matches in OSM. -->
    <tag k="addr:housenumber" v="52"/>
    <tag k="addr:street" v="Gelo Park Road"/>
    <tag k="addr:state" v="VT"/>
    <tag k="ref:vcgi:esiteid" v="142201"/>
  </node>
  <node id="-703" visible="true" lat="44.83409055" lon="-72.50909703">
    <!-- multiple: "21 Route 58, , VT" Multiple exact matches in OSM. -->
    <tag k="addr:housenumber" v="21"/>
    <tag k="addr:street" v="Route 58"/>
    <tag k="addr:state" v="VT"/>
    <tag k="ref:vcgi:esiteid" v="455367"/>
  </node>
  <node id="-707" visible="true" lat="44.83267622" lon="-72.34869705">
    <!-- multiple: "349 McCoy Road, , VT" Multiple exact matches in OSM. -->
    <tag k="addr:housenumber" v="349"/>
    <tag k="addr:street" v="McCoy Road"/>
    <tag k="addr:state" v="VT"/>
    <tag k="ref:vcgi:esiteid" v="611601"/>
  </node>
  <node id="-779" visible="true" lat="44.83997974" lon="-72.3936401">
    <!-- multiple: "165 Robtoy Road, , VT" Multiple exact matches in OSM. -->
    <tag k="addr:housenumber" v="165"/>
    <tag k="addr:street" v="Robtoy Road"/>
    <tag k="addr:state" v="VT"/>
    <tag k="ref:vcgi:esiteid" v="764378"/>
  </node>
</osm>
