<?xml version="1.0" encoding="UTF-8"?>
<osm version="0.6" generator="JOSM" upload="false">
  <node id="-215" visible="true" lat="44.81018324" lon="-72.43442816">
    <tag k="addr:housenumber" v="668"/>
    <tag k="addr:street" v="Carter Road"/>
    <tag k="addr:state" v="VT"/>
    <tag k="ref:vcgi:esiteid" v="142185"/>
  </node>
  <node id="-225" visible="true" lat="44.80733555" lon="-72.44645301">
    <tag k="addr:housenumber" v="2069"/>
    <tag k="addr:street" v="Vermont Route 100"/>
    <tag k="addr:state" v="VT"/>
    <tag k="ref:vcgi:esiteid" v="142195"/>
  </node>
  <node id="-227" visible="true" lat="44.80709015" lon="-72.44728976">
    <tag k="addr:housenumber" v="2104"/>
    <tag k="addr:street" v="Vermont Route 100"/>
    <tag k="addr:state" v="VT"/>
    <tag k="ref:vcgi:esiteid" v="142197"/>
  </node>
  <node id="-284" visible="true" lat="44.79989294" lon="-72.45259124">
    <tag k="addr:housenumber" v="54"/>
    <tag k="addr:street" v="Sullivan Road"/>
    <tag k="addr:state" v="VT"/>
    <tag k="ref:vcgi:esiteid" v="142257"/>
  </node>
  <node id="-389" visible="true" lat="44.78061676" lon="-72.41025543">
    <tag k="addr:housenumber" v="2144"/>
    <tag k="addr:street" v="Irish Hill Road"/>
    <tag k="addr:state" v="VT"/>
    <tag k="ref:vcgi:esiteid" v="142367"/>
  </node>
  <node id="-477" visible="true" lat="44.80624733" lon="-72.44811097">
    <tag k="addr:housenumber" v="2170"/>
    <tag k="addr:street" v="Vermont Route 100"/>
    <tag k="addr:state" v="VT"/>
    <tag k="ref:vcgi:esiteid" v="142461"/>
  </node>
  <node id="-656" visible="true" lat="44.76321492" lon="-72.43809259">
    <tag k="addr:housenumber" v="1300"/>
    <tag k="addr:street" v="Edward Drive"/>
    <tag k="addr:state" v="VT"/>
    <tag k="ref:vcgi:esiteid" v="448505"/>
  </node>
  <node id="-673" visible="true" lat="44.78154401" lon="-72.41164331">
    <tag k="addr:housenumber" v="2142"/>
    <tag k="addr:street" v="Irish Hill Road"/>
    <tag k="addr:state" v="VT"/>
    <tag k="ref:vcgi:esiteid" v="453997"/>
  </node>
  <node id="-721" visible="true" lat="44.75880084" lon="-72.48595618">
    <tag k="addr:housenumber" v="980"/>
    <tag k="addr:street" v="Page Road"/>
    <tag k="addr:state" v="VT"/>
    <tag k="ref:vcgi:esiteid" v="618174"/>
  </node>
  <node id="-723" visible="true" lat="44.81772913" lon="-72.43791162">
    <tag k="addr:housenumber" v="1175"/>
    <tag k="addr:street" v="Vermont Route 100"/>
    <tag k="addr:state" v="VT"/>
    <tag k="ref:vcgi:esiteid" v="646474"/>
  </node>
  <node id="-724" visible="true" lat="44.836264" lon="-72.38516174">
    <tag k="addr:housenumber" v="649"/>
    <tag k="addr:street" v="Robtoy Road"/>
    <tag k="addr:state" v="VT"/>
    <tag k="ref:vcgi:esiteid" v="646504"/>
  </node>
  <node id="-725" visible="true" lat="44.73317159" lon="-72.42531964">
    <tag k="addr:housenumber" v="1218"/>
    <tag k="addr:street" v="Eden Road"/>
    <tag k="addr:state" v="VT"/>
    <tag k="ref:vcgi:esiteid" v="646505"/>
  </node>
  <node id="-726" visible="true" lat="44.78125523" lon="-72.48051009">
    <tag k="addr:housenumber" v="273"/>
    <tag k="addr:street" v="Guyette Road"/>
    <tag k="addr:state" v="VT"/>
    <tag k="ref:vcgi:esiteid" v="646621"/>
  </node>
  <node id="-737" visible="true" lat="44.82385885" lon="-72.50742894">
    <tag k="addr:housenumber" v="408"/>
    <tag k="addr:street" v="Brookside Drive"/>
    <tag k="addr:state" v="VT"/>
    <tag k="ref:vcgi:esiteid" v="754972"/>
  </node>
</osm>
