<?xml version="1.0" encoding="UTF-8"?>
<osm version="0.6" generator="JOSM" upload="false">
  <node id="-270" visible="true" lat="44.35029737" lon="-72.35348575">
    <!-- offset: "61 School Street, , VT" Significant offset - 9778.8m -->
    <tag k="addr:housenumber" v="61"/>
    <tag k="addr:street" v="School Street"/>
    <tag k="addr:state" v="VT"/>
    <tag k="ref:vcgi:esiteid" v="152684"/>
  </node>
  <node id="-468" visible="true" lat="44.32252502" lon="-72.38124084">
    <!-- offset: "4239 U.S. Route 2, , VT" Significant offset - 8619m -->
    <tag k="addr:housenumber" v="4239"/>
    <tag k="addr:street" v="U.S. Route 2"/>
    <tag k="addr:state" v="VT"/>
    <tag k="ref:vcgi:esiteid" v="152885"/>
  </node>
  <node id="-856" visible="true" lat="44.34216193" lon="-72.40723385">
    <!-- offset: "4869 Hollister Hill Road, , VT" Significant offset - 705.3m -->
    <tag k="addr:housenumber" v="4869"/>
    <tag k="addr:street" v="Hollister Hill Road"/>
    <tag k="addr:state" v="VT"/>
    <tag k="ref:vcgi:esiteid" v="340865"/>
  </node>
  <node id="-858" visible="true" lat="44.3470075" lon="-72.29823822">
    <!-- offset: "1917 Vermont Route 232, , VT" Significant offset - 1232.3m -->
    <tag k="addr:housenumber" v="1917"/>
    <tag k="addr:street" v="Vermont Route 232"/>
    <tag k="addr:state" v="VT"/>
    <tag k="ref:vcgi:esiteid" v="341671"/>
  </node>
  <node id="-868" visible="true" lat="44.3273369" lon="-72.28726526">
    <!-- offset: "3889 Vermont Route 232, , VT" Significant offset - 326.2m -->
    <tag k="addr:housenumber" v="3889"/>
    <tag k="addr:street" v="Vermont Route 232"/>
    <tag k="addr:state" v="VT"/>
    <tag k="ref:vcgi:esiteid" v="451416"/>
  </node>
</osm>
