<?xml version="1.0" encoding="UTF-8"?>
<osm version="0.6" generator="JOSM" upload="false">
  <node id="-802" visible="true" lat="43.61235994" lon="-72.89539126">
    <tag k="addr:city" v="Mendon"/>
    <tag k="addr:housenumber" v="5510"/>
    <tag k="addr:street" v="Wheelerville Road"/>
    <tag k="addr:state" v="VT"/>
    <tag k="ref:vcgi:esiteid" v="767200"/>
  </node>
  <node id="-817" visible="true" lat="43.64927131" lon="-72.92346104">
    <tag k="addr:city" v="Mendon"/>
    <tag k="addr:housenumber" v="416"/>
    <tag k="addr:street" v="Old Stockbridge Path"/>
    <tag k="addr:state" v="VT"/>
    <tag k="ref:vcgi:esiteid" v="771747"/>
  </node>
  <node id="-818" visible="true" lat="43.67102865" lon="-72.87120713">
    <tag k="addr:city" v="Mendon"/>
    <tag k="addr:housenumber" v="216"/>
    <tag k="addr:street" v="Heather Lane"/>
    <tag k="addr:state" v="VT"/>
    <tag k="ref:vcgi:esiteid" v="771761"/>
  </node>
  <node id="-819" visible="true" lat="43.65466126" lon="-72.93701752">
    <tag k="addr:city" v="Mendon"/>
    <tag k="addr:housenumber" v="569"/>
    <tag k="addr:street" v="Meadow Lake Drive"/>
    <tag k="addr:state" v="VT"/>
    <tag k="ref:vcgi:esiteid" v="771846"/>
  </node>
  <node id="-820" visible="true" lat="43.60980712" lon="-72.89127867">
    <tag k="addr:city" v="Mendon"/>
    <tag k="addr:housenumber" v="11"/>
    <tag k="addr:street" v="Falls Road"/>
    <tag k="addr:state" v="VT"/>
    <tag k="ref:vcgi:esiteid" v="772601"/>
  </node>
</osm>
