<?xml version="1.0" encoding="UTF-8"?>
<osm version="0.6" generator="JOSM" upload="false">
  <node id="-137" visible="true" lat="43.50679875" lon="-73.13138006">
    <tag k="addr:city" v="Middletown Springs"/>
    <tag k="addr:housenumber" v="299"/>
    <tag k="addr:street" v="Spruce Knob Road"/>
    <tag k="addr:state" v="VT"/>
    <tag k="ref:vcgi:esiteid" v="157684"/>
  </node>
  <node id="-687" visible="true" lat="43.44159456" lon="-73.11344625">
    <tag k="addr:city" v="Middletown Springs"/>
    <tag k="addr:housenumber" v="100"/>
    <tag k="addr:street" v="Hundred Acre Lane"/>
    <tag k="addr:state" v="VT"/>
    <tag k="ref:vcgi:esiteid" v="611012"/>
  </node>
  <node id="-691" visible="true" lat="43.43845426" lon="-73.11258588">
    <tag k="addr:city" v="Middletown Springs"/>
    <tag k="addr:housenumber" v="686"/>
    <tag k="addr:street" v="South Street"/>
    <tag k="addr:state" v="VT"/>
    <tag k="ref:vcgi:esiteid" v="646602"/>
  </node>
  <node id="-692" visible="true" lat="43.44177574" lon="-73.11566514">
    <tag k="addr:city" v="Middletown Springs"/>
    <tag k="addr:housenumber" v="214"/>
    <tag k="addr:street" v="Hundred Acre Lane"/>
    <tag k="addr:state" v="VT"/>
    <tag k="ref:vcgi:esiteid" v="646678"/>
  </node>
  <node id="-708" visible="true" lat="43.51337306" lon="-73.11459648">
    <tag k="addr:city" v="Middletown Springs"/>
    <tag k="addr:housenumber" v="395"/>
    <tag k="addr:street" v="North Street"/>
    <tag k="addr:state" v="VT"/>
    <tag k="ref:vcgi:esiteid" v="771524"/>
  </node>
  <node id="-709" visible="true" lat="43.48905495" lon="-73.11370764">
    <tag k="addr:city" v="Middletown Springs"/>
    <tag k="addr:housenumber" v="44"/>
    <tag k="addr:street" v="Many Springs Drive"/>
    <tag k="addr:state" v="VT"/>
    <tag k="ref:vcgi:esiteid" v="772520"/>
  </node>
</osm>
