<?xml version="1.0" encoding="UTF-8"?>
<osm version="0.6" generator="JOSM" upload="false">
  <node id="-490" visible="true" lat="44.31171035" lon="-72.59573364">
    <!-- offset: "239 Bolduc Road, , VT" Significant offset - 122.9m -->
    <tag k="addr:housenumber" v="239"/>
    <tag k="addr:street" v="Bolduc Road"/>
    <tag k="addr:state" v="VT"/>
    <tag k="ref:vcgi:esiteid" v="157232"/>
  </node>
  <node id="-842" visible="true" lat="44.36234476" lon="-72.60843102">
    <!-- offset: "631 West Hill Road, , VT" Significant offset - 110.6m -->
    <tag k="addr:housenumber" v="631"/>
    <tag k="addr:street" v="West Hill Road"/>
    <tag k="addr:state" v="VT"/>
    <tag k="ref:vcgi:esiteid" v="157611"/>
  </node>
  <node id="-948" visible="true" lat="44.30387593" lon="-72.58149062">
    <!-- offset: "3366 Elm Street, , VT" Significant offset - 150.4m -->
    <tag k="addr:housenumber" v="3366"/>
    <tag k="addr:street" v="Elm Street"/>
    <tag k="addr:state" v="VT"/>
    <tag k="ref:vcgi:esiteid" v="750893"/>
  </node>
  <node id="-964" visible="true" lat="44.33086195" lon="-72.65392496">
    <!-- offset: "150 Zdon Road, , VT" Significant offset - 150.6m -->
    <tag k="addr:housenumber" v="150"/>
    <tag k="addr:street" v="Zdon Road"/>
    <tag k="addr:state" v="VT"/>
    <tag k="ref:vcgi:esiteid" v="753738"/>
  </node>
</osm>
