<?xml version="1.0" encoding="UTF-8"?>
<osm version="0.6" generator="JOSM" upload="false">
  <node id="-145" visible="true" lat="44.29097037" lon="-72.57851488">
    <!-- conflict: "2421 Elm Street, Montpelier, VT" No match in OSM, but a different address exists <5m away: "2433 Elm Street, Montpelier, VT" -->
    <tag k="addr:city" v="Montpelier"/>
    <tag k="addr:housenumber" v="2421"/>
    <tag k="addr:street" v="Elm Street"/>
    <tag k="addr:state" v="VT"/>
    <tag k="ref:vcgi:esiteid" v="164192"/>
  </node>
  <node id="-2016" visible="true" lat="44.24985113" lon="-72.52743653">
    <!-- conflict: "180 Maplewood Road, Montpelier, VT" Fuzzy match to "180 Maplewood Road, East Montpelier, VT" -->
    <tag k="addr:city" v="Montpelier"/>
    <tag k="addr:housenumber" v="180"/>
    <tag k="addr:street" v="Maplewood Road"/>
    <tag k="addr:state" v="VT"/>
    <tag k="ref:vcgi:esiteid" v="166250"/>
  </node>
  <node id="-2017" visible="true" lat="44.24974365" lon="-72.52664192">
    <!-- conflict: "173 Maplewood Road, Montpelier, VT" Fuzzy match to "173 Maplewood Road, East Montpelier, VT" -->
    <tag k="addr:city" v="Montpelier"/>
    <tag k="addr:housenumber" v="173"/>
    <tag k="addr:street" v="Maplewood Road"/>
    <tag k="addr:state" v="VT"/>
    <tag k="ref:vcgi:esiteid" v="166255"/>
  </node>
  <node id="-2056" visible="true" lat="44.24922466" lon="-72.52693618">
    <!-- conflict: "215 Maplewood Road, Montpelier, VT" Fuzzy match to "215 Maplewood Road, East Montpelier, VT" -->
    <tag k="addr:city" v="Montpelier"/>
    <tag k="addr:housenumber" v="215"/>
    <tag k="addr:street" v="Maplewood Road"/>
    <tag k="addr:state" v="VT"/>
    <tag k="ref:vcgi:esiteid" v="166299"/>
  </node>
  <node id="-2576" visible="true" lat="44.2481014" lon="-72.52756729">
    <!-- conflict: "228 Maplewood Road, Montpelier, VT" Fuzzy match to "228 Maplewood Road, East Montpelier, VT" -->
    <tag k="addr:city" v="Montpelier"/>
    <tag k="addr:housenumber" v="228"/>
    <tag k="addr:street" v="Maplewood Road"/>
    <tag k="addr:state" v="VT"/>
    <tag k="ref:vcgi:esiteid" v="166882"/>
  </node>
  <node id="-2798" visible="true" lat="44.26803086" lon="-72.58108911">
    <!-- conflict: "47 Lyra Lane, Montpelier, VT" No match in OSM, but a different address exists <5m away: "6 Parkside Drive, Montpelier, VT" -->
    <tag k="addr:city" v="Montpelier"/>
    <tag k="addr:housenumber" v="47"/>
    <tag k="addr:street" v="Lyra Lane"/>
    <tag k="addr:state" v="VT"/>
    <tag k="ref:vcgi:esiteid" v="167112"/>
  </node>
  <node id="-2881" visible="true" lat="44.25207731" lon="-72.56979142">
    <!-- conflict: "4 Granite Street, Montpelier, VT" No match in OSM, but a different address exists <5m away: " Granite Street, Montpelier, VT" -->
    <tag k="addr:city" v="Montpelier"/>
    <tag k="addr:housenumber" v="4"/>
    <tag k="addr:street" v="Granite Street"/>
    <tag k="addr:state" v="VT"/>
    <tag k="ref:vcgi:esiteid" v="341883"/>
  </node>
  <node id="-2989" visible="true" lat="44.2600501" lon="-72.5793266">
    <!-- conflict: "61 Taylor Street, Montpelier, VT" No match in OSM, but a different address exists <5m away: "1;61 Taylor Street, Montpelier, VT" -->
    <tag k="addr:city" v="Montpelier"/>
    <tag k="addr:housenumber" v="61"/>
    <tag k="addr:street" v="Taylor Street"/>
    <tag k="addr:state" v="VT"/>
    <tag k="ref:vcgi:esiteid" v="754277"/>
  </node>
  <node id="-3022" visible="true" lat="44.25643027" lon="-72.57296466">
    <!-- conflict: "98 Barre Street, Montpelier, VT" No match in OSM, but a different address exists <5m away: " , Montpelier, VT" -->
    <tag k="addr:city" v="Montpelier"/>
    <tag k="addr:housenumber" v="98"/>
    <tag k="addr:street" v="Barre Street"/>
    <tag k="addr:state" v="VT"/>
    <tag k="ref:vcgi:esiteid" v="771229"/>
  </node>
</osm>
