<?xml version="1.0" encoding="UTF-8"?>
<osm version="0.6" generator="JOSM" upload="false">
  <node id="-276" visible="true" lat="44.57752609" lon="-72.59458932">
    <!-- multiple: "160 Vermont Route 15 West, Morrisville, VT" Multiple exact matches in OSM. -->
    <tag k="addr:city" v="Morrisville"/>
    <tag k="addr:housenumber" v="160"/>
    <tag k="addr:street" v="Vermont Route 15 West"/>
    <tag k="addr:state" v="VT"/>
    <tag k="ref:vcgi:esiteid" v="168787"/>
  </node>
  <node id="-352" visible="true" lat="44.5735842" lon="-72.59220118">
    <!-- multiple: "66 Morrisville Plaza, Morrisville, VT" Multiple exact matches in OSM. -->
    <tag k="addr:city" v="Morrisville"/>
    <tag k="addr:housenumber" v="66"/>
    <tag k="addr:street" v="Morrisville Plaza"/>
    <tag k="addr:state" v="VT"/>
    <tag k="ref:vcgi:esiteid" v="168873"/>
  </node>
  <node id="-516" visible="true" lat="44.56822686" lon="-72.59596195">
    <!-- multiple: "72 Harrel Street, Morrisville, VT" Multiple exact matches in OSM. -->
    <tag k="addr:city" v="Morrisville"/>
    <tag k="addr:housenumber" v="72"/>
    <tag k="addr:street" v="Harrel Street"/>
    <tag k="addr:state" v="VT"/>
    <tag k="ref:vcgi:esiteid" v="169080"/>
  </node>
  <node id="-734" visible="true" lat="44.56246235" lon="-72.59384295">
    <!-- multiple: "122 Park Street, Morrisville, VT" Multiple exact matches in OSM. -->
    <tag k="addr:city" v="Morrisville"/>
    <tag k="addr:housenumber" v="122"/>
    <tag k="addr:street" v="Park Street"/>
    <tag k="addr:state" v="VT"/>
    <tag k="ref:vcgi:esiteid" v="169334"/>
  </node>
  <node id="-738" visible="true" lat="44.56240529" lon="-72.59031458">
    <!-- multiple: "202 Copley Avenue, Morrisville, VT" Multiple exact matches in OSM. -->
    <tag k="addr:city" v="Morrisville"/>
    <tag k="addr:housenumber" v="202"/>
    <tag k="addr:street" v="Copley Avenue"/>
    <tag k="addr:state" v="VT"/>
    <tag k="ref:vcgi:esiteid" v="169339"/>
  </node>
  <node id="-752" visible="true" lat="44.56207297" lon="-72.59825508">
    <!-- multiple: "16 Portland Street, Morrisville, VT" Multiple exact matches in OSM. -->
    <tag k="addr:city" v="Morrisville"/>
    <tag k="addr:housenumber" v="16"/>
    <tag k="addr:street" v="Portland Street"/>
    <tag k="addr:state" v="VT"/>
    <tag k="ref:vcgi:esiteid" v="169354"/>
  </node>
  <node id="-1518" visible="true" lat="44.53679477" lon="-72.61571879">
    <!-- multiple: "2305 Laporte Road, Morrisville, VT" Multiple exact matches in OSM. -->
    <tag k="addr:city" v="Morrisville"/>
    <tag k="addr:housenumber" v="2305"/>
    <tag k="addr:street" v="Laporte Road"/>
    <tag k="addr:state" v="VT"/>
    <tag k="ref:vcgi:esiteid" v="170215"/>
  </node>
  <node id="-2260" visible="true" lat="44.55504977" lon="-72.5892002">
    <!-- multiple: "90 Doctor Tinker Street, Morrisville, VT" Multiple exact matches in OSM. -->
    <tag k="addr:city" v="Morrisville"/>
    <tag k="addr:housenumber" v="90"/>
    <tag k="addr:street" v="Doctor Tinker Street"/>
    <tag k="addr:state" v="VT"/>
    <tag k="ref:vcgi:esiteid" v="307378"/>
  </node>
  <node id="-2365" visible="true" lat="44.55938124" lon="-72.61174228">
    <!-- multiple: "680 Laporte Road, Morrisville, VT" Multiple exact matches in OSM. -->
    <tag k="addr:city" v="Morrisville"/>
    <tag k="addr:housenumber" v="680"/>
    <tag k="addr:street" v="Laporte Road"/>
    <tag k="addr:state" v="VT"/>
    <tag k="ref:vcgi:esiteid" v="336136"/>
  </node>
  <node id="-2397" visible="true" lat="44.57122755" lon="-72.58600207">
    <!-- multiple: "28 James Road, Morrisville, VT" Multiple exact matches in OSM. -->
    <tag k="addr:city" v="Morrisville"/>
    <tag k="addr:housenumber" v="28"/>
    <tag k="addr:street" v="James Road"/>
    <tag k="addr:state" v="VT"/>
    <tag k="ref:vcgi:esiteid" v="342920"/>
  </node>
</osm>
