<?xml version="1.0" encoding="UTF-8"?>
<osm version="0.6" generator="JOSM" upload="false">
  <node id="-230" visible="true" lat="44.15273352" lon="-72.1366329">
    <!-- offset: "8276 Scotch Hollow Road, , VT" Significant offset - 319m -->
    <tag k="addr:housenumber" v="8276"/>
    <tag k="addr:street" v="Scotch Hollow Road"/>
    <tag k="addr:state" v="VT"/>
    <tag k="ref:vcgi:esiteid" v="173567"/>
  </node>
  <node id="-249" visible="true" lat="44.15272307" lon="-72.17743607">
    <!-- offset: "405 Grapes Road, , VT" Significant offset - 248.4m -->
    <tag k="addr:housenumber" v="405"/>
    <tag k="addr:street" v="Grapes Road"/>
    <tag k="addr:state" v="VT"/>
    <tag k="ref:vcgi:esiteid" v="173588"/>
  </node>
  <node id="-467" visible="true" lat="44.12517892" lon="-72.16782311">
    <!-- offset: "285 Hood Trail, , VT" Significant offset - 224.3m -->
    <tag k="addr:housenumber" v="285"/>
    <tag k="addr:street" v="Hood Trail"/>
    <tag k="addr:state" v="VT"/>
    <tag k="ref:vcgi:esiteid" v="173822"/>
  </node>
  <node id="-477" visible="true" lat="44.12417073" lon="-72.17032094">
    <!-- offset: "280 Hood Trail, , VT" Significant offset - 103.6m -->
    <tag k="addr:housenumber" v="280"/>
    <tag k="addr:street" v="Hood Trail"/>
    <tag k="addr:state" v="VT"/>
    <tag k="ref:vcgi:esiteid" v="173832"/>
  </node>
  <node id="-1182" visible="true" lat="44.16515592" lon="-72.15060501">
    <!-- offset: "85 Old Schoolhouse Road, , VT" Significant offset - 137.5m -->
    <tag k="addr:housenumber" v="85"/>
    <tag k="addr:street" v="Old Schoolhouse Road"/>
    <tag k="addr:state" v="VT"/>
    <tag k="ref:vcgi:esiteid" v="174580"/>
  </node>
  <node id="-1193" visible="true" lat="44.15343204" lon="-72.14012137">
    <!-- offset: "8095 Scotch Hollow Road, , VT" Significant offset - 192.4m -->
    <tag k="addr:housenumber" v="8095"/>
    <tag k="addr:street" v="Scotch Hollow Road"/>
    <tag k="addr:state" v="VT"/>
    <tag k="ref:vcgi:esiteid" v="174591"/>
  </node>
  <node id="-1201" visible="true" lat="44.08204102" lon="-72.12061198">
    <!-- offset: "361 Sanderlin Drive, , VT" Significant offset - 207.8m -->
    <tag k="addr:housenumber" v="361"/>
    <tag k="addr:street" v="Sanderlin Drive"/>
    <tag k="addr:state" v="VT"/>
    <tag k="ref:vcgi:esiteid" v="174599"/>
  </node>
  <node id="-1203" visible="true" lat="44.08357701" lon="-72.12071835">
    <!-- offset: "427 Sanderlin Drive, , VT" Significant offset - 274.6m -->
    <tag k="addr:housenumber" v="427"/>
    <tag k="addr:street" v="Sanderlin Drive"/>
    <tag k="addr:state" v="VT"/>
    <tag k="ref:vcgi:esiteid" v="174601"/>
  </node>
  <node id="-1209" visible="true" lat="44.08968559" lon="-72.08215941">
    <!-- offset: "1469 Scotch Hollow Road, , VT" Significant offset - 284.5m -->
    <tag k="addr:housenumber" v="1469"/>
    <tag k="addr:street" v="Scotch Hollow Road"/>
    <tag k="addr:state" v="VT"/>
    <tag k="ref:vcgi:esiteid" v="174607"/>
  </node>
  <node id="-1210" visible="true" lat="44.13524246" lon="-72.15412139">
    <!-- offset: "822 Corey Hill Road, , VT" Significant offset - 182.6m -->
    <tag k="addr:housenumber" v="822"/>
    <tag k="addr:street" v="Corey Hill Road"/>
    <tag k="addr:state" v="VT"/>
    <tag k="ref:vcgi:esiteid" v="174608"/>
  </node>
  <node id="-1279" visible="true" lat="44.14578491" lon="-72.15922363">
    <!-- offset: "675 Johns Way, , VT" Significant offset - 265.9m -->
    <tag k="addr:housenumber" v="675"/>
    <tag k="addr:street" v="Johns Way"/>
    <tag k="addr:state" v="VT"/>
    <tag k="ref:vcgi:esiteid" v="174677"/>
  </node>
  <node id="-1283" visible="true" lat="44.14486655" lon="-72.06436148">
    <!-- offset: "1023 Royston Ridge, , VT" Significant offset - 211.1m -->
    <tag k="addr:housenumber" v="1023"/>
    <tag k="addr:street" v="Royston Ridge"/>
    <tag k="addr:state" v="VT"/>
    <tag k="ref:vcgi:esiteid" v="174681"/>
  </node>
  <node id="-1326" visible="true" lat="44.150311" lon="-72.16973185">
    <!-- offset: "3259 Swamp Road, , VT" Significant offset - 259.5m -->
    <tag k="addr:housenumber" v="3259"/>
    <tag k="addr:street" v="Swamp Road"/>
    <tag k="addr:state" v="VT"/>
    <tag k="ref:vcgi:esiteid" v="174726"/>
  </node>
  <node id="-1327" visible="true" lat="44.14461211" lon="-72.1595149">
    <!-- offset: "617 Johns Way, , VT" Significant offset - 290.8m -->
    <tag k="addr:housenumber" v="617"/>
    <tag k="addr:street" v="Johns Way"/>
    <tag k="addr:state" v="VT"/>
    <tag k="ref:vcgi:esiteid" v="174727"/>
  </node>
  <node id="-1341" visible="true" lat="44.08166828" lon="-72.12301521">
    <!-- offset: "1693 Halls Lake Road, , VT" Significant offset - 180.9m -->
    <tag k="addr:housenumber" v="1693"/>
    <tag k="addr:street" v="Halls Lake Road"/>
    <tag k="addr:state" v="VT"/>
    <tag k="ref:vcgi:esiteid" v="174741"/>
  </node>
  <node id="-1415" visible="true" lat="44.07382398" lon="-72.17622369">
    <!-- offset: "890 Dickey Road, , VT" Significant offset - 330.5m -->
    <tag k="addr:housenumber" v="890"/>
    <tag k="addr:street" v="Dickey Road"/>
    <tag k="addr:state" v="VT"/>
    <tag k="ref:vcgi:esiteid" v="311917"/>
  </node>
  <node id="-1513" visible="true" lat="44.16292608" lon="-72.06850962">
    <!-- offset: "1386 Bible Hill Road, , VT" Significant offset - 169m -->
    <tag k="addr:housenumber" v="1386"/>
    <tag k="addr:street" v="Bible Hill Road"/>
    <tag k="addr:state" v="VT"/>
    <tag k="ref:vcgi:esiteid" v="750014"/>
  </node>
  <node id="-1570" visible="true" lat="44.05492811" lon="-72.1683427">
    <!-- offset: "2279 Wrights Mountain Road, , VT" Significant offset - 174.9m -->
    <tag k="addr:housenumber" v="2279"/>
    <tag k="addr:street" v="Wrights Mountain Road"/>
    <tag k="addr:state" v="VT"/>
    <tag k="ref:vcgi:esiteid" v="767242"/>
  </node>
  <node id="-1583" visible="true" lat="44.05625345" lon="-72.17211791">
    <!-- offset: "170 Fulton Road, , VT" Significant offset - 257.8m -->
    <tag k="addr:housenumber" v="170"/>
    <tag k="addr:street" v="Fulton Road"/>
    <tag k="addr:state" v="VT"/>
    <tag k="ref:vcgi:esiteid" v="771322"/>
  </node>
</osm>
