<?xml version="1.0" encoding="UTF-8"?>
<osm version="0.6" generator="JOSM" upload="false">
  <node id="-1270" visible="true" lat="42.94599733" lon="-72.66859519">
    <tag k="addr:city" v="Newfane"/>
    <tag k="addr:housenumber" v="296"/>
    <tag k="addr:street" v="Depot Road"/>
    <tag k="addr:state" v="VT"/>
    <tag k="ref:vcgi:esiteid" v="757744"/>
  </node>
  <node id="-1271" visible="true" lat="42.94554653" lon="-72.66741709">
    <tag k="addr:city" v="Newfane"/>
    <tag k="addr:housenumber" v="285"/>
    <tag k="addr:street" v="Depot Road"/>
    <tag k="addr:state" v="VT"/>
    <tag k="ref:vcgi:esiteid" v="757745"/>
  </node>
  <node id="-1523" visible="true" lat="42.9451907" lon="-72.6696781">
    <tag k="addr:city" v="Newfane"/>
    <tag k="addr:housenumber" v="14"/>
    <tag k="addr:street" v="Howe Road"/>
    <tag k="addr:state" v="VT"/>
    <tag k="ref:vcgi:esiteid" v="771177"/>
  </node>
  <node id="-1524" visible="true" lat="42.94142488" lon="-72.75558605">
    <tag k="addr:city" v="Newfane"/>
    <tag k="addr:housenumber" v="57"/>
    <tag k="addr:street" v="Hunter Brook Road"/>
    <tag k="addr:state" v="VT"/>
    <tag k="ref:vcgi:esiteid" v="771489"/>
  </node>
  <node id="-1525" visible="true" lat="42.99076801" lon="-72.69556107">
    <tag k="addr:city" v="Newfane"/>
    <tag k="addr:housenumber" v="143"/>
    <tag k="addr:street" v="Grout Road"/>
    <tag k="addr:state" v="VT"/>
    <tag k="ref:vcgi:esiteid" v="771496"/>
  </node>
  <node id="-1526" visible="true" lat="42.94625547" lon="-72.67051996">
    <tag k="addr:city" v="Newfane"/>
    <tag k="addr:housenumber" v="16"/>
    <tag k="addr:street" v="Duke Road"/>
    <tag k="addr:state" v="VT"/>
    <tag k="ref:vcgi:esiteid" v="771497"/>
  </node>
  <node id="-1527" visible="true" lat="42.93800445" lon="-72.75822016">
    <tag k="addr:city" v="Newfane"/>
    <tag k="addr:housenumber" v="101"/>
    <tag k="addr:street" v="Hunter Brook Road"/>
    <tag k="addr:state" v="VT"/>
    <tag k="ref:vcgi:esiteid" v="771500"/>
  </node>
  <node id="-1528" visible="true" lat="42.945599" lon="-72.67106751">
    <tag k="addr:city" v="Newfane"/>
    <tag k="addr:housenumber" v="12"/>
    <tag k="addr:street" v="Howe Road"/>
    <tag k="addr:state" v="VT"/>
    <tag k="ref:vcgi:esiteid" v="771537"/>
  </node>
  <node id="-1529" visible="true" lat="43.00362302" lon="-72.69219787">
    <tag k="addr:city" v="Newfane"/>
    <tag k="addr:housenumber" v="495"/>
    <tag k="addr:street" v="South Wardsboro Road"/>
    <tag k="addr:state" v="VT"/>
    <tag k="ref:vcgi:esiteid" v="772123"/>
  </node>
  <node id="-1530" visible="true" lat="43.00531886" lon="-72.69348282">
    <tag k="addr:city" v="Newfane"/>
    <tag k="addr:housenumber" v="521"/>
    <tag k="addr:street" v="South Wardsboro Road"/>
    <tag k="addr:state" v="VT"/>
    <tag k="ref:vcgi:esiteid" v="772124"/>
  </node>
  <node id="-1531" visible="true" lat="42.97876818" lon="-72.69205061">
    <tag k="addr:city" v="Newfane"/>
    <tag k="addr:housenumber" v="19"/>
    <tag k="addr:street" v="Otis Lane"/>
    <tag k="addr:state" v="VT"/>
    <tag k="ref:vcgi:esiteid" v="772619"/>
  </node>
</osm>
