<?xml version="1.0" encoding="UTF-8"?>
<osm version="0.6" generator="JOSM" upload="false">
  <node id="-1064" visible="true" lat="44.80046056" lon="-73.28838286">
    <!-- conflict: "140 Russell Lane, North Hero, VT" No match in OSM, but a different address exists <5m away: "47 Four Winds Lane, North Hero, VT" -->
    <tag k="addr:city" v="North Hero"/>
    <tag k="addr:housenumber" v="140"/>
    <tag k="addr:street" v="Russell Lane"/>
    <tag k="addr:state" v="VT"/>
    <tag k="ref:vcgi:esiteid" v="326193"/>
  </node>
  <node id="-1065" visible="true" lat="44.7999461" lon="-73.2886897">
    <!-- conflict: "100 Russell Lane, North Hero, VT" No match in OSM, but a different address exists <5m away: "43 Four Winds Lane, North Hero, VT" -->
    <tag k="addr:city" v="North Hero"/>
    <tag k="addr:housenumber" v="100"/>
    <tag k="addr:street" v="Russell Lane"/>
    <tag k="addr:state" v="VT"/>
    <tag k="ref:vcgi:esiteid" v="326194"/>
  </node>
  <node id="-1094" visible="true" lat="44.81035919" lon="-73.25741433">
    <!-- conflict: "1 Knight Island, North Hero, VT" No match in OSM, but a different address exists <5m away: "1 Knight Island, North Hero, VT" -->
    <tag k="addr:city" v="North Hero"/>
    <tag k="addr:housenumber" v="1"/>
    <tag k="addr:street" v=""/>
    <tag k="addr:place" v="Knight Island"/>
    <tag k="addr:state" v="VT"/>
    <tag k="ref:vcgi:esiteid" v="338774"/>
  </node>
  <node id="-1117" visible="true" lat="44.82505768" lon="-73.23116722">
    <!-- conflict: "387 Butler Island, North Hero, VT" No match in OSM, but a different address exists <5m away: "387 Butler Island, North Hero, VT" -->
    <tag k="addr:city" v="North Hero"/>
    <tag k="addr:housenumber" v="387"/>
    <tag k="addr:street" v=""/>
    <tag k="addr:place" v="Butler Island"/>
    <tag k="addr:state" v="VT"/>
    <tag k="ref:vcgi:esiteid" v="365392"/>
  </node>
  <node id="-1118" visible="true" lat="44.83785691" lon="-73.21322861">
    <!-- conflict: "2467 Butler Island, North Hero, VT" No match in OSM, but a different address exists <5m away: "2467 Butler Island, North Hero, VT" -->
    <tag k="addr:city" v="North Hero"/>
    <tag k="addr:housenumber" v="2467"/>
    <tag k="addr:street" v=""/>
    <tag k="addr:place" v="Butler Island"/>
    <tag k="addr:state" v="VT"/>
    <tag k="ref:vcgi:esiteid" v="365393"/>
  </node>
  <node id="-1119" visible="true" lat="44.83460363" lon="-73.2141321">
    <!-- conflict: "2005 Butler Island, North Hero, VT" No match in OSM, but a different address exists <5m away: "2005 Butler Island, North Hero, VT" -->
    <tag k="addr:city" v="North Hero"/>
    <tag k="addr:housenumber" v="2005"/>
    <tag k="addr:street" v=""/>
    <tag k="addr:place" v="Butler Island"/>
    <tag k="addr:state" v="VT"/>
    <tag k="ref:vcgi:esiteid" v="365394"/>
  </node>
  <node id="-1120" visible="true" lat="44.83481334" lon="-73.21486415">
    <!-- conflict: "1969 Butler Island, North Hero, VT" No match in OSM, but a different address exists <5m away: "1969 Butler Island, North Hero, VT" -->
    <tag k="addr:city" v="North Hero"/>
    <tag k="addr:housenumber" v="1969"/>
    <tag k="addr:street" v=""/>
    <tag k="addr:place" v="Butler Island"/>
    <tag k="addr:state" v="VT"/>
    <tag k="ref:vcgi:esiteid" v="365395"/>
  </node>
  <node id="-1121" visible="true" lat="44.83625843" lon="-73.21805646">
    <!-- conflict: "1665 Butler Island, North Hero, VT" No match in OSM, but a different address exists <5m away: "1665 Butler Island, North Hero, VT" -->
    <tag k="addr:city" v="North Hero"/>
    <tag k="addr:housenumber" v="1665"/>
    <tag k="addr:street" v=""/>
    <tag k="addr:place" v="Butler Island"/>
    <tag k="addr:state" v="VT"/>
    <tag k="ref:vcgi:esiteid" v="365396"/>
  </node>
  <node id="-1122" visible="true" lat="44.84147058" lon="-73.21365353">
    <!-- conflict: "2729 Butler Island, North Hero, VT" No match in OSM, but a different address exists <5m away: "2729 Butler Island, North Hero, VT" -->
    <tag k="addr:city" v="North Hero"/>
    <tag k="addr:housenumber" v="2729"/>
    <tag k="addr:street" v=""/>
    <tag k="addr:place" v="Butler Island"/>
    <tag k="addr:state" v="VT"/>
    <tag k="ref:vcgi:esiteid" v="365397"/>
  </node>
  <node id="-1123" visible="true" lat="44.82925597" lon="-73.23669213">
    <!-- conflict: "4839 Butler Island, North Hero, VT" No match in OSM, but a different address exists <5m away: "4839 Butler Island, North Hero, VT" -->
    <tag k="addr:city" v="North Hero"/>
    <tag k="addr:housenumber" v="4839"/>
    <tag k="addr:street" v=""/>
    <tag k="addr:place" v="Butler Island"/>
    <tag k="addr:state" v="VT"/>
    <tag k="ref:vcgi:esiteid" v="365398"/>
  </node>
  <node id="-1124" visible="true" lat="44.82991559" lon="-73.23630906">
    <!-- conflict: "4791 Butler Island, North Hero, VT" No match in OSM, but a different address exists <5m away: "4791 Butler Island, North Hero, VT" -->
    <tag k="addr:city" v="North Hero"/>
    <tag k="addr:housenumber" v="4791"/>
    <tag k="addr:street" v=""/>
    <tag k="addr:place" v="Butler Island"/>
    <tag k="addr:state" v="VT"/>
    <tag k="ref:vcgi:esiteid" v="365399"/>
  </node>
  <node id="-1130" visible="true" lat="44.82195262" lon="-73.25187602">
    <!-- conflict: "637 Dameas Island, North Hero, VT" No match in OSM, but a different address exists <5m away: "637 Dameas Island, North Hero, VT" -->
    <tag k="addr:city" v="North Hero"/>
    <tag k="addr:housenumber" v="637"/>
    <tag k="addr:street" v=""/>
    <tag k="addr:place" v="Dameas Island"/>
    <tag k="addr:state" v="VT"/>
    <tag k="ref:vcgi:esiteid" v="451860"/>
  </node>
  <node id="-1131" visible="true" lat="44.82367616" lon="-73.23849528">
    <!-- conflict: "5265 Butler Island, North Hero, VT" No match in OSM, but a different address exists <5m away: "5265 Butler Island, North Hero, VT" -->
    <tag k="addr:city" v="North Hero"/>
    <tag k="addr:housenumber" v="5265"/>
    <tag k="addr:street" v=""/>
    <tag k="addr:place" v="Butler Island"/>
    <tag k="addr:state" v="VT"/>
    <tag k="ref:vcgi:esiteid" v="451861"/>
  </node>
  <node id="-1132" visible="true" lat="44.82282967" lon="-73.2349968">
    <!-- conflict: "5461 Butler Island, North Hero, VT" No match in OSM, but a different address exists <5m away: "5461 Butler Island, North Hero, VT" -->
    <tag k="addr:city" v="North Hero"/>
    <tag k="addr:housenumber" v="5461"/>
    <tag k="addr:street" v=""/>
    <tag k="addr:place" v="Butler Island"/>
    <tag k="addr:state" v="VT"/>
    <tag k="ref:vcgi:esiteid" v="451862"/>
  </node>
  <node id="-1133" visible="true" lat="44.82291785" lon="-73.23609357">
    <!-- conflict: "5431 Butler Island, North Hero, VT" No match in OSM, but a different address exists <5m away: "5431 Butler Island, North Hero, VT" -->
    <tag k="addr:city" v="North Hero"/>
    <tag k="addr:housenumber" v="5431"/>
    <tag k="addr:street" v=""/>
    <tag k="addr:place" v="Butler Island"/>
    <tag k="addr:state" v="VT"/>
    <tag k="ref:vcgi:esiteid" v="451863"/>
  </node>
  <node id="-1135" visible="true" lat="44.82340586" lon="-73.23333136">
    <!-- conflict: "236 Butler Island, North Hero, VT" No match in OSM, but a different address exists <5m away: "236 Butler Island, North Hero, VT" -->
    <tag k="addr:city" v="North Hero"/>
    <tag k="addr:housenumber" v="236"/>
    <tag k="addr:street" v=""/>
    <tag k="addr:place" v="Butler Island"/>
    <tag k="addr:state" v="VT"/>
    <tag k="ref:vcgi:esiteid" v="451865"/>
  </node>
  <node id="-1136" visible="true" lat="44.82332443" lon="-73.23673439">
    <!-- conflict: "5387 Butler Island, North Hero, VT" No match in OSM, but a different address exists <5m away: "5387 Butler Island, North Hero, VT" -->
    <tag k="addr:city" v="North Hero"/>
    <tag k="addr:housenumber" v="5387"/>
    <tag k="addr:street" v=""/>
    <tag k="addr:place" v="Butler Island"/>
    <tag k="addr:state" v="VT"/>
    <tag k="ref:vcgi:esiteid" v="451866"/>
  </node>
  <node id="-1137" visible="true" lat="44.82135561" lon="-73.2355886">
    <!-- conflict: "5541 Butler Island, North Hero, VT" No match in OSM, but a different address exists <5m away: "5541 Butler Island, North Hero, VT" -->
    <tag k="addr:city" v="North Hero"/>
    <tag k="addr:housenumber" v="5541"/>
    <tag k="addr:street" v=""/>
    <tag k="addr:place" v="Butler Island"/>
    <tag k="addr:state" v="VT"/>
    <tag k="ref:vcgi:esiteid" v="451867"/>
  </node>
  <node id="-1138" visible="true" lat="44.82092392" lon="-73.23514821">
    <!-- conflict: "5583 Butler Island, North Hero, VT" No match in OSM, but a different address exists <5m away: "5583 Butler Island, North Hero, VT" -->
    <tag k="addr:city" v="North Hero"/>
    <tag k="addr:housenumber" v="5583"/>
    <tag k="addr:street" v=""/>
    <tag k="addr:place" v="Butler Island"/>
    <tag k="addr:state" v="VT"/>
    <tag k="ref:vcgi:esiteid" v="451868"/>
  </node>
  <node id="-1139" visible="true" lat="44.82348076" lon="-73.23741385">
    <!-- conflict: "5357 Butler Island, North Hero, VT" No match in OSM, but a different address exists <5m away: "5357 Butler Island, North Hero, VT" -->
    <tag k="addr:city" v="North Hero"/>
    <tag k="addr:housenumber" v="5357"/>
    <tag k="addr:street" v=""/>
    <tag k="addr:place" v="Butler Island"/>
    <tag k="addr:state" v="VT"/>
    <tag k="ref:vcgi:esiteid" v="451869"/>
  </node>
  <node id="-1140" visible="true" lat="44.82352642" lon="-73.23679551">
    <!-- conflict: "5381 Butler Island, North Hero, VT" No match in OSM, but a different address exists <5m away: "5381 Butler Island, North Hero, VT" -->
    <tag k="addr:city" v="North Hero"/>
    <tag k="addr:housenumber" v="5381"/>
    <tag k="addr:street" v=""/>
    <tag k="addr:place" v="Butler Island"/>
    <tag k="addr:state" v="VT"/>
    <tag k="ref:vcgi:esiteid" v="451870"/>
  </node>
  <node id="-1142" visible="true" lat="44.82373585" lon="-73.23292571">
    <!-- conflict: "270 Butler Island, North Hero, VT" No match in OSM, but a different address exists <5m away: "270 Butler Island, North Hero, VT" -->
    <tag k="addr:city" v="North Hero"/>
    <tag k="addr:housenumber" v="270"/>
    <tag k="addr:street" v=""/>
    <tag k="addr:place" v="Butler Island"/>
    <tag k="addr:state" v="VT"/>
    <tag k="ref:vcgi:esiteid" v="451872"/>
  </node>
  <node id="-1143" visible="true" lat="44.82413731" lon="-73.2325126">
    <!-- conflict: "296 Butler Island, North Hero, VT" No match in OSM, but a different address exists <5m away: "296 Butler Island, North Hero, VT" -->
    <tag k="addr:city" v="North Hero"/>
    <tag k="addr:housenumber" v="296"/>
    <tag k="addr:street" v=""/>
    <tag k="addr:place" v="Butler Island"/>
    <tag k="addr:state" v="VT"/>
    <tag k="ref:vcgi:esiteid" v="451873"/>
  </node>
  <node id="-1144" visible="true" lat="44.82449775" lon="-73.2319986">
    <!-- conflict: "342 Butler Island, North Hero, VT" No match in OSM, but a different address exists <5m away: "342 Butler Island, North Hero, VT" -->
    <tag k="addr:city" v="North Hero"/>
    <tag k="addr:housenumber" v="342"/>
    <tag k="addr:street" v=""/>
    <tag k="addr:place" v="Butler Island"/>
    <tag k="addr:state" v="VT"/>
    <tag k="ref:vcgi:esiteid" v="451874"/>
  </node>
  <node id="-1145" visible="true" lat="44.82539118" lon="-73.23098112">
    <!-- conflict: "418 Butler Island, North Hero, VT" No match in OSM, but a different address exists <5m away: "418 Butler Island, North Hero, VT" -->
    <tag k="addr:city" v="North Hero"/>
    <tag k="addr:housenumber" v="418"/>
    <tag k="addr:street" v=""/>
    <tag k="addr:place" v="Butler Island"/>
    <tag k="addr:state" v="VT"/>
    <tag k="ref:vcgi:esiteid" v="451875"/>
  </node>
  <node id="-1146" visible="true" lat="44.82508411" lon="-73.23800305">
    <!-- conflict: "5147 Butler Island, North Hero, VT" No match in OSM, but a different address exists <5m away: "5147 Butler Island, North Hero, VT" -->
    <tag k="addr:city" v="North Hero"/>
    <tag k="addr:housenumber" v="5147"/>
    <tag k="addr:street" v=""/>
    <tag k="addr:place" v="Butler Island"/>
    <tag k="addr:state" v="VT"/>
    <tag k="ref:vcgi:esiteid" v="451876"/>
  </node>
  <node id="-1147" visible="true" lat="44.82591895" lon="-73.23777114">
    <!-- conflict: "5093 Butler Island, North Hero, VT" No match in OSM, but a different address exists <5m away: "5093 Butler Island, North Hero, VT" -->
    <tag k="addr:city" v="North Hero"/>
    <tag k="addr:housenumber" v="5093"/>
    <tag k="addr:street" v=""/>
    <tag k="addr:place" v="Butler Island"/>
    <tag k="addr:state" v="VT"/>
    <tag k="ref:vcgi:esiteid" v="451877"/>
  </node>
  <node id="-1149" visible="true" lat="44.82725607" lon="-73.23718596">
    <!-- conflict: "4989 Butler Island, North Hero, VT" No match in OSM, but a different address exists <5m away: "4989 Butler Island, North Hero, VT" -->
    <tag k="addr:city" v="North Hero"/>
    <tag k="addr:housenumber" v="4989"/>
    <tag k="addr:street" v=""/>
    <tag k="addr:place" v="Butler Island"/>
    <tag k="addr:state" v="VT"/>
    <tag k="ref:vcgi:esiteid" v="451879"/>
  </node>
  <node id="-1150" visible="true" lat="44.82874486" lon="-73.23707947">
    <!-- conflict: "4881 Butler Island, North Hero, VT" No match in OSM, but a different address exists <5m away: "4881 Butler Island, North Hero, VT" -->
    <tag k="addr:city" v="North Hero"/>
    <tag k="addr:housenumber" v="4881"/>
    <tag k="addr:street" v=""/>
    <tag k="addr:place" v="Butler Island"/>
    <tag k="addr:state" v="VT"/>
    <tag k="ref:vcgi:esiteid" v="451880"/>
  </node>
  <node id="-1151" visible="true" lat="44.82849369" lon="-73.23726029">
    <!-- conflict: "4903 Butler Island, North Hero, VT" No match in OSM, but a different address exists <5m away: "4903 Butler Island, North Hero, VT" -->
    <tag k="addr:city" v="North Hero"/>
    <tag k="addr:housenumber" v="4903"/>
    <tag k="addr:street" v=""/>
    <tag k="addr:place" v="Butler Island"/>
    <tag k="addr:state" v="VT"/>
    <tag k="ref:vcgi:esiteid" v="451881"/>
  </node>
  <node id="-1152" visible="true" lat="44.82681592" lon="-73.22971939">
    <!-- conflict: "530 Butler Island, North Hero, VT" No match in OSM, but a different address exists <5m away: "530 Butler Island, North Hero, VT" -->
    <tag k="addr:city" v="North Hero"/>
    <tag k="addr:housenumber" v="530"/>
    <tag k="addr:street" v=""/>
    <tag k="addr:place" v="Butler Island"/>
    <tag k="addr:state" v="VT"/>
    <tag k="ref:vcgi:esiteid" v="451882"/>
  </node>
  <node id="-1153" visible="true" lat="44.82686643" lon="-73.22926835">
    <!-- conflict: "552 Butler Island, North Hero, VT" No match in OSM, but a different address exists <5m away: "552 Butler Island, North Hero, VT" -->
    <tag k="addr:city" v="North Hero"/>
    <tag k="addr:housenumber" v="552"/>
    <tag k="addr:street" v=""/>
    <tag k="addr:place" v="Butler Island"/>
    <tag k="addr:state" v="VT"/>
    <tag k="ref:vcgi:esiteid" v="451883"/>
  </node>
  <node id="-1154" visible="true" lat="44.82799542" lon="-73.22771007">
    <!-- conflict: "662 Butler Island, North Hero, VT" No match in OSM, but a different address exists <5m away: "662 Butler Island, North Hero, VT" -->
    <tag k="addr:city" v="North Hero"/>
    <tag k="addr:housenumber" v="662"/>
    <tag k="addr:street" v=""/>
    <tag k="addr:place" v="Butler Island"/>
    <tag k="addr:state" v="VT"/>
    <tag k="ref:vcgi:esiteid" v="451884"/>
  </node>
  <node id="-1155" visible="true" lat="44.83043285" lon="-73.22725558">
    <!-- conflict: "942 Butler Island, North Hero, VT" No match in OSM, but a different address exists <5m away: "942 Butler Island, North Hero, VT" -->
    <tag k="addr:city" v="North Hero"/>
    <tag k="addr:housenumber" v="942"/>
    <tag k="addr:street" v=""/>
    <tag k="addr:place" v="Butler Island"/>
    <tag k="addr:state" v="VT"/>
    <tag k="ref:vcgi:esiteid" v="451885"/>
  </node>
  <node id="-1156" visible="true" lat="44.83219612" lon="-73.22704353">
    <!-- conflict: "1072 Butler Island, North Hero, VT" No match in OSM, but a different address exists <5m away: "1072 Butler Island, North Hero, VT" -->
    <tag k="addr:city" v="North Hero"/>
    <tag k="addr:housenumber" v="1072"/>
    <tag k="addr:street" v=""/>
    <tag k="addr:place" v="Butler Island"/>
    <tag k="addr:state" v="VT"/>
    <tag k="ref:vcgi:esiteid" v="451886"/>
  </node>
  <node id="-1157" visible="true" lat="44.83308621" lon="-73.22654445">
    <!-- conflict: "1134 Butler Island, North Hero, VT" No match in OSM, but a different address exists <5m away: "1134 Butler Island, North Hero, VT" -->
    <tag k="addr:city" v="North Hero"/>
    <tag k="addr:housenumber" v="1134"/>
    <tag k="addr:street" v=""/>
    <tag k="addr:place" v="Butler Island"/>
    <tag k="addr:state" v="VT"/>
    <tag k="ref:vcgi:esiteid" v="451887"/>
  </node>
  <node id="-1158" visible="true" lat="44.83401827" lon="-73.22599568">
    <!-- conflict: "1210 Butler Island, North Hero, VT" No match in OSM, but a different address exists <5m away: "1210 Butler Island, North Hero, VT" -->
    <tag k="addr:city" v="North Hero"/>
    <tag k="addr:housenumber" v="1210"/>
    <tag k="addr:street" v=""/>
    <tag k="addr:place" v="Butler Island"/>
    <tag k="addr:state" v="VT"/>
    <tag k="ref:vcgi:esiteid" v="451888"/>
  </node>
  <node id="-1159" visible="true" lat="44.83802716" lon="-73.22927527">
    <!-- conflict: "4077 Butler Island, North Hero, VT" No match in OSM, but a different address exists <5m away: "4077 Butler Island, North Hero, VT" -->
    <tag k="addr:city" v="North Hero"/>
    <tag k="addr:housenumber" v="4077"/>
    <tag k="addr:street" v=""/>
    <tag k="addr:place" v="Butler Island"/>
    <tag k="addr:state" v="VT"/>
    <tag k="ref:vcgi:esiteid" v="451889"/>
  </node>
  <node id="-1160" visible="true" lat="44.83343453" lon="-73.23443727">
    <!-- conflict: "4523 Butler Island, North Hero, VT" No match in OSM, but a different address exists <5m away: "4523 Butler Island, North Hero, VT" -->
    <tag k="addr:city" v="North Hero"/>
    <tag k="addr:housenumber" v="4523"/>
    <tag k="addr:street" v=""/>
    <tag k="addr:place" v="Butler Island"/>
    <tag k="addr:state" v="VT"/>
    <tag k="ref:vcgi:esiteid" v="451890"/>
  </node>
  <node id="-1161" visible="true" lat="44.83144982" lon="-73.23575882">
    <!-- conflict: "4671 Butler Island, North Hero, VT" No match in OSM, but a different address exists <5m away: "4671 Butler Island, North Hero, VT" -->
    <tag k="addr:city" v="North Hero"/>
    <tag k="addr:housenumber" v="4671"/>
    <tag k="addr:street" v=""/>
    <tag k="addr:place" v="Butler Island"/>
    <tag k="addr:state" v="VT"/>
    <tag k="ref:vcgi:esiteid" v="451891"/>
  </node>
  <node id="-1162" visible="true" lat="44.83031096" lon="-73.2360622">
    <!-- conflict: "4761 Butler Island, North Hero, VT" No match in OSM, but a different address exists <5m away: "4761 Butler Island, North Hero, VT" -->
    <tag k="addr:city" v="North Hero"/>
    <tag k="addr:housenumber" v="4761"/>
    <tag k="addr:street" v=""/>
    <tag k="addr:place" v="Butler Island"/>
    <tag k="addr:state" v="VT"/>
    <tag k="ref:vcgi:esiteid" v="451892"/>
  </node>
  <node id="-1163" visible="true" lat="44.83630157" lon="-73.22356484">
    <!-- conflict: "1402 Butler Island, North Hero, VT" No match in OSM, but a different address exists <5m away: "1402 Butler Island, North Hero, VT" -->
    <tag k="addr:city" v="North Hero"/>
    <tag k="addr:housenumber" v="1402"/>
    <tag k="addr:street" v=""/>
    <tag k="addr:place" v="Butler Island"/>
    <tag k="addr:state" v="VT"/>
    <tag k="ref:vcgi:esiteid" v="451893"/>
  </node>
  <node id="-1164" visible="true" lat="44.83643028" lon="-73.21920792">
    <!-- conflict: "1613 Butler Island, North Hero, VT" No match in OSM, but a different address exists <5m away: "1613 Butler Island, North Hero, VT" -->
    <tag k="addr:city" v="North Hero"/>
    <tag k="addr:housenumber" v="1613"/>
    <tag k="addr:street" v=""/>
    <tag k="addr:place" v="Butler Island"/>
    <tag k="addr:state" v="VT"/>
    <tag k="ref:vcgi:esiteid" v="451894"/>
  </node>
  <node id="-1165" visible="true" lat="44.83554012" lon="-73.21783326">
    <!-- conflict: "1711 Butler Island, North Hero, VT" No match in OSM, but a different address exists <5m away: "1711 Butler Island, North Hero, VT" -->
    <tag k="addr:city" v="North Hero"/>
    <tag k="addr:housenumber" v="1711"/>
    <tag k="addr:street" v=""/>
    <tag k="addr:place" v="Butler Island"/>
    <tag k="addr:state" v="VT"/>
    <tag k="ref:vcgi:esiteid" v="451895"/>
  </node>
  <node id="-1167" visible="true" lat="44.83486439" lon="-73.21548254">
    <!-- conflict: "1941 Butler Island, North Hero, VT" No match in OSM, but a different address exists <5m away: "1941 Butler Island, North Hero, VT" -->
    <tag k="addr:city" v="North Hero"/>
    <tag k="addr:housenumber" v="1941"/>
    <tag k="addr:street" v=""/>
    <tag k="addr:place" v="Butler Island"/>
    <tag k="addr:state" v="VT"/>
    <tag k="ref:vcgi:esiteid" v="451897"/>
  </node>
  <node id="-1168" visible="true" lat="44.83485788" lon="-73.21462082">
    <!-- conflict: "1981 Butler Island, North Hero, VT" No match in OSM, but a different address exists <5m away: "1981 Butler Island, North Hero, VT" -->
    <tag k="addr:city" v="North Hero"/>
    <tag k="addr:housenumber" v="1981"/>
    <tag k="addr:street" v=""/>
    <tag k="addr:place" v="Butler Island"/>
    <tag k="addr:state" v="VT"/>
    <tag k="ref:vcgi:esiteid" v="451898"/>
  </node>
  <node id="-1169" visible="true" lat="44.83590726" lon="-73.21243363">
    <!-- conflict: "2241 Butler Island, North Hero, VT" No match in OSM, but a different address exists <5m away: "2241 Butler Island, North Hero, VT" -->
    <tag k="addr:city" v="North Hero"/>
    <tag k="addr:housenumber" v="2241"/>
    <tag k="addr:street" v=""/>
    <tag k="addr:place" v="Butler Island"/>
    <tag k="addr:state" v="VT"/>
    <tag k="ref:vcgi:esiteid" v="451899"/>
  </node>
  <node id="-1170" visible="true" lat="44.83624037" lon="-73.2124712">
    <!-- conflict: "2263 Butler Island, North Hero, VT" No match in OSM, but a different address exists <5m away: "2263 Butler Island, North Hero, VT" -->
    <tag k="addr:city" v="North Hero"/>
    <tag k="addr:housenumber" v="2263"/>
    <tag k="addr:street" v=""/>
    <tag k="addr:place" v="Butler Island"/>
    <tag k="addr:state" v="VT"/>
    <tag k="ref:vcgi:esiteid" v="451900"/>
  </node>
  <node id="-1171" visible="true" lat="44.8368131" lon="-73.21190831">
    <!-- conflict: "2297 Butler Island, North Hero, VT" No match in OSM, but a different address exists <5m away: "2297 Butler Island, North Hero, VT" -->
    <tag k="addr:city" v="North Hero"/>
    <tag k="addr:housenumber" v="2297"/>
    <tag k="addr:street" v=""/>
    <tag k="addr:place" v="Butler Island"/>
    <tag k="addr:state" v="VT"/>
    <tag k="ref:vcgi:esiteid" v="451901"/>
  </node>
  <node id="-1172" visible="true" lat="44.83714564" lon="-73.21239033">
    <!-- conflict: "2391 Butler Island, North Hero, VT" No match in OSM, but a different address exists <5m away: "2391 Butler Island, North Hero, VT" -->
    <tag k="addr:city" v="North Hero"/>
    <tag k="addr:housenumber" v="2391"/>
    <tag k="addr:street" v=""/>
    <tag k="addr:place" v="Butler Island"/>
    <tag k="addr:state" v="VT"/>
    <tag k="ref:vcgi:esiteid" v="451902"/>
  </node>
  <node id="-1173" visible="true" lat="44.83832803" lon="-73.21368489">
    <!-- conflict: "2489 Butler Island, North Hero, VT" No match in OSM, but a different address exists <5m away: "2489 Butler Island, North Hero, VT" -->
    <tag k="addr:city" v="North Hero"/>
    <tag k="addr:housenumber" v="2489"/>
    <tag k="addr:street" v=""/>
    <tag k="addr:place" v="Butler Island"/>
    <tag k="addr:state" v="VT"/>
    <tag k="ref:vcgi:esiteid" v="451903"/>
  </node>
  <node id="-1174" visible="true" lat="44.83907297" lon="-73.2135435">
    <!-- conflict: "2553 Butler Island, North Hero, VT" No match in OSM, but a different address exists <5m away: "2553 Butler Island, North Hero, VT" -->
    <tag k="addr:city" v="North Hero"/>
    <tag k="addr:housenumber" v="2553"/>
    <tag k="addr:street" v=""/>
    <tag k="addr:place" v="Butler Island"/>
    <tag k="addr:state" v="VT"/>
    <tag k="ref:vcgi:esiteid" v="451904"/>
  </node>
  <node id="-1175" visible="true" lat="44.83955936" lon="-73.21381722">
    <!-- conflict: "2585 Butler Island, North Hero, VT" No match in OSM, but a different address exists <5m away: "2585 Butler Island, North Hero, VT" -->
    <tag k="addr:city" v="North Hero"/>
    <tag k="addr:housenumber" v="2585"/>
    <tag k="addr:street" v=""/>
    <tag k="addr:place" v="Butler Island"/>
    <tag k="addr:state" v="VT"/>
    <tag k="ref:vcgi:esiteid" v="451905"/>
  </node>
  <node id="-1176" visible="true" lat="44.83996351" lon="-73.21391424">
    <!-- conflict: "2613 Butler Island, North Hero, VT" No match in OSM, but a different address exists <5m away: "2613 Butler Island, North Hero, VT" -->
    <tag k="addr:city" v="North Hero"/>
    <tag k="addr:housenumber" v="2613"/>
    <tag k="addr:street" v=""/>
    <tag k="addr:place" v="Butler Island"/>
    <tag k="addr:state" v="VT"/>
    <tag k="ref:vcgi:esiteid" v="451906"/>
  </node>
  <node id="-1177" visible="true" lat="44.84043518" lon="-73.21368581">
    <!-- conflict: "2643 Butler Island, North Hero, VT" No match in OSM, but a different address exists <5m away: "2643 Butler Island, North Hero, VT" -->
    <tag k="addr:city" v="North Hero"/>
    <tag k="addr:housenumber" v="2643"/>
    <tag k="addr:street" v=""/>
    <tag k="addr:place" v="Butler Island"/>
    <tag k="addr:state" v="VT"/>
    <tag k="ref:vcgi:esiteid" v="451907"/>
  </node>
  <node id="-1178" visible="true" lat="44.84089379" lon="-73.21364127">
    <!-- conflict: "2677 Butler Island, North Hero, VT" No match in OSM, but a different address exists <5m away: "2677 Butler Island, North Hero, VT" -->
    <tag k="addr:city" v="North Hero"/>
    <tag k="addr:housenumber" v="2677"/>
    <tag k="addr:street" v=""/>
    <tag k="addr:place" v="Butler Island"/>
    <tag k="addr:state" v="VT"/>
    <tag k="ref:vcgi:esiteid" v="451908"/>
  </node>
  <node id="-1179" visible="true" lat="44.84198404" lon="-73.21444118">
    <!-- conflict: "2771 Butler Island, North Hero, VT" No match in OSM, but a different address exists <5m away: "2771 Butler Island, North Hero, VT" -->
    <tag k="addr:city" v="North Hero"/>
    <tag k="addr:housenumber" v="2771"/>
    <tag k="addr:street" v=""/>
    <tag k="addr:place" v="Butler Island"/>
    <tag k="addr:state" v="VT"/>
    <tag k="ref:vcgi:esiteid" v="451909"/>
  </node>
  <node id="-1180" visible="true" lat="44.84249887" lon="-73.21492444">
    <!-- conflict: "2807 Butler Island, North Hero, VT" No match in OSM, but a different address exists <5m away: "2807 Butler Island, North Hero, VT" -->
    <tag k="addr:city" v="North Hero"/>
    <tag k="addr:housenumber" v="2807"/>
    <tag k="addr:street" v=""/>
    <tag k="addr:place" v="Butler Island"/>
    <tag k="addr:state" v="VT"/>
    <tag k="ref:vcgi:esiteid" v="451910"/>
  </node>
  <node id="-1181" visible="true" lat="44.84427819" lon="-73.21499665">
    <!-- conflict: "2933 Butler Island, North Hero, VT" No match in OSM, but a different address exists <5m away: "2933 Butler Island, North Hero, VT" -->
    <tag k="addr:city" v="North Hero"/>
    <tag k="addr:housenumber" v="2933"/>
    <tag k="addr:street" v=""/>
    <tag k="addr:place" v="Butler Island"/>
    <tag k="addr:state" v="VT"/>
    <tag k="ref:vcgi:esiteid" v="451911"/>
  </node>
  <node id="-1182" visible="true" lat="44.84479145" lon="-73.21573092">
    <!-- conflict: "2987 Butler Island, North Hero, VT" No match in OSM, but a different address exists <5m away: "2987 Butler Island, North Hero, VT" -->
    <tag k="addr:city" v="North Hero"/>
    <tag k="addr:housenumber" v="2987"/>
    <tag k="addr:street" v=""/>
    <tag k="addr:place" v="Butler Island"/>
    <tag k="addr:state" v="VT"/>
    <tag k="ref:vcgi:esiteid" v="451912"/>
  </node>
  <node id="-1183" visible="true" lat="44.84555696" lon="-73.21705402">
    <!-- conflict: "3081 Butler Island, North Hero, VT" No match in OSM, but a different address exists <5m away: "3081 Butler Island, North Hero, VT" -->
    <tag k="addr:city" v="North Hero"/>
    <tag k="addr:housenumber" v="3081"/>
    <tag k="addr:street" v=""/>
    <tag k="addr:place" v="Butler Island"/>
    <tag k="addr:state" v="VT"/>
    <tag k="ref:vcgi:esiteid" v="451913"/>
  </node>
  <node id="-1184" visible="true" lat="44.84640168" lon="-73.21903078">
    <!-- conflict: "3209 Butler Island, North Hero, VT" No match in OSM, but a different address exists <5m away: "3209 Butler Island, North Hero, VT" -->
    <tag k="addr:city" v="North Hero"/>
    <tag k="addr:housenumber" v="3209"/>
    <tag k="addr:street" v=""/>
    <tag k="addr:place" v="Butler Island"/>
    <tag k="addr:state" v="VT"/>
    <tag k="ref:vcgi:esiteid" v="451914"/>
  </node>
  <node id="-1185" visible="true" lat="44.84624466" lon="-73.21938861">
    <!-- conflict: "3227 Butler Island, North Hero, VT" No match in OSM, but a different address exists <5m away: "3227 Butler Island, North Hero, VT" -->
    <tag k="addr:city" v="North Hero"/>
    <tag k="addr:housenumber" v="3227"/>
    <tag k="addr:street" v=""/>
    <tag k="addr:place" v="Butler Island"/>
    <tag k="addr:state" v="VT"/>
    <tag k="ref:vcgi:esiteid" v="451915"/>
  </node>
  <node id="-1186" visible="true" lat="44.84652466" lon="-73.22029575">
    <!-- conflict: "3275 Butler Island, North Hero, VT" No match in OSM, but a different address exists <5m away: "3275 Butler Island, North Hero, VT" -->
    <tag k="addr:city" v="North Hero"/>
    <tag k="addr:housenumber" v="3275"/>
    <tag k="addr:street" v=""/>
    <tag k="addr:place" v="Butler Island"/>
    <tag k="addr:state" v="VT"/>
    <tag k="ref:vcgi:esiteid" v="451916"/>
  </node>
  <node id="-1187" visible="true" lat="44.84599946" lon="-73.22051512">
    <!-- conflict: "3339 Butler Island, North Hero, VT" No match in OSM, but a different address exists <5m away: "3339 Butler Island, North Hero, VT" -->
    <tag k="addr:city" v="North Hero"/>
    <tag k="addr:housenumber" v="3339"/>
    <tag k="addr:street" v=""/>
    <tag k="addr:place" v="Butler Island"/>
    <tag k="addr:state" v="VT"/>
    <tag k="ref:vcgi:esiteid" v="451917"/>
  </node>
  <node id="-1189" visible="true" lat="44.84372425" lon="-73.22262028">
    <!-- conflict: "3517 Butler Island, North Hero, VT" No match in OSM, but a different address exists <5m away: "3517 Butler Island, North Hero, VT" -->
    <tag k="addr:city" v="North Hero"/>
    <tag k="addr:housenumber" v="3517"/>
    <tag k="addr:street" v=""/>
    <tag k="addr:place" v="Butler Island"/>
    <tag k="addr:state" v="VT"/>
    <tag k="ref:vcgi:esiteid" v="451919"/>
  </node>
  <node id="-1190" visible="true" lat="44.8423446" lon="-73.22523013">
    <!-- conflict: "3707 Butler Island, North Hero, VT" No match in OSM, but a different address exists <5m away: "3707 Butler Island, North Hero, VT" -->
    <tag k="addr:city" v="North Hero"/>
    <tag k="addr:housenumber" v="3707"/>
    <tag k="addr:street" v=""/>
    <tag k="addr:place" v="Butler Island"/>
    <tag k="addr:state" v="VT"/>
    <tag k="ref:vcgi:esiteid" v="451920"/>
  </node>
  <node id="-1191" visible="true" lat="44.84163212" lon="-73.22588214">
    <!-- conflict: "3763 Butler Island, North Hero, VT" No match in OSM, but a different address exists <5m away: "3763 Butler Island, North Hero, VT" -->
    <tag k="addr:city" v="North Hero"/>
    <tag k="addr:housenumber" v="3763"/>
    <tag k="addr:street" v=""/>
    <tag k="addr:place" v="Butler Island"/>
    <tag k="addr:state" v="VT"/>
    <tag k="ref:vcgi:esiteid" v="451921"/>
  </node>
  <node id="-1192" visible="true" lat="44.84119025" lon="-73.22610248">
    <!-- conflict: "3791 Butler Island, North Hero, VT" No match in OSM, but a different address exists <5m away: "3791 Butler Island, North Hero, VT" -->
    <tag k="addr:city" v="North Hero"/>
    <tag k="addr:housenumber" v="3791"/>
    <tag k="addr:street" v=""/>
    <tag k="addr:place" v="Butler Island"/>
    <tag k="addr:state" v="VT"/>
    <tag k="ref:vcgi:esiteid" v="451922"/>
  </node>
  <node id="-1193" visible="true" lat="44.84070372" lon="-73.22679078">
    <!-- conflict: "3839 Butler Island, North Hero, VT" No match in OSM, but a different address exists <5m away: "3839 Butler Island, North Hero, VT" -->
    <tag k="addr:city" v="North Hero"/>
    <tag k="addr:housenumber" v="3839"/>
    <tag k="addr:street" v=""/>
    <tag k="addr:place" v="Butler Island"/>
    <tag k="addr:state" v="VT"/>
    <tag k="ref:vcgi:esiteid" v="451923"/>
  </node>
  <node id="-1194" visible="true" lat="44.84047377" lon="-73.22738189">
    <!-- conflict: "3865 Butler Island, North Hero, VT" No match in OSM, but a different address exists <5m away: "3865 Butler Island, North Hero, VT" -->
    <tag k="addr:city" v="North Hero"/>
    <tag k="addr:housenumber" v="3865"/>
    <tag k="addr:street" v=""/>
    <tag k="addr:place" v="Butler Island"/>
    <tag k="addr:state" v="VT"/>
    <tag k="ref:vcgi:esiteid" v="451924"/>
  </node>
  <node id="-1195" visible="true" lat="44.84020279" lon="-73.22787209">
    <!-- conflict: "3915 Butler Island, North Hero, VT" No match in OSM, but a different address exists <5m away: "3915 Butler Island, North Hero, VT" -->
    <tag k="addr:city" v="North Hero"/>
    <tag k="addr:housenumber" v="3915"/>
    <tag k="addr:street" v=""/>
    <tag k="addr:place" v="Butler Island"/>
    <tag k="addr:state" v="VT"/>
    <tag k="ref:vcgi:esiteid" v="451925"/>
  </node>
  <node id="-1196" visible="true" lat="44.8390439" lon="-73.22851842">
    <!-- conflict: "3995 Butler Island, North Hero, VT" No match in OSM, but a different address exists <5m away: "3995 Butler Island, North Hero, VT" -->
    <tag k="addr:city" v="North Hero"/>
    <tag k="addr:housenumber" v="3995"/>
    <tag k="addr:street" v=""/>
    <tag k="addr:place" v="Butler Island"/>
    <tag k="addr:state" v="VT"/>
    <tag k="ref:vcgi:esiteid" v="451926"/>
  </node>
  <node id="-1197" visible="true" lat="44.8386196" lon="-73.22878078">
    <!-- conflict: "4029 Butler Island, North Hero, VT" No match in OSM, but a different address exists <5m away: "4029 Butler Island, North Hero, VT" -->
    <tag k="addr:city" v="North Hero"/>
    <tag k="addr:housenumber" v="4029"/>
    <tag k="addr:street" v=""/>
    <tag k="addr:place" v="Butler Island"/>
    <tag k="addr:state" v="VT"/>
    <tag k="ref:vcgi:esiteid" v="451927"/>
  </node>
  <node id="-1199" visible="true" lat="44.82227541" lon="-73.23342824">
    <!-- conflict: "166 Butler Island, North Hero, VT" No match in OSM, but a different address exists <5m away: "166 Butler Island, North Hero, VT" -->
    <tag k="addr:city" v="North Hero"/>
    <tag k="addr:housenumber" v="166"/>
    <tag k="addr:street" v=""/>
    <tag k="addr:place" v="Butler Island"/>
    <tag k="addr:state" v="VT"/>
    <tag k="ref:vcgi:esiteid" v="452420"/>
  </node>
  <node id="-1200" visible="true" lat="44.82374105" lon="-73.2321376">
    <!-- conflict: "292 Butler Island, North Hero, VT" No match in OSM, but a different address exists <5m away: "292 Butler Island, North Hero, VT" -->
    <tag k="addr:city" v="North Hero"/>
    <tag k="addr:housenumber" v="292"/>
    <tag k="addr:street" v=""/>
    <tag k="addr:place" v="Butler Island"/>
    <tag k="addr:state" v="VT"/>
    <tag k="ref:vcgi:esiteid" v="452421"/>
  </node>
  <node id="-1201" visible="true" lat="44.82428288" lon="-73.2315233">
    <!-- conflict: "336 Butler Island, North Hero, VT" No match in OSM, but a different address exists <5m away: "336 Butler Island, North Hero, VT" -->
    <tag k="addr:city" v="North Hero"/>
    <tag k="addr:housenumber" v="336"/>
    <tag k="addr:street" v=""/>
    <tag k="addr:place" v="Butler Island"/>
    <tag k="addr:state" v="VT"/>
    <tag k="ref:vcgi:esiteid" v="452422"/>
  </node>
  <node id="-1202" visible="true" lat="44.82471687" lon="-73.23157938">
    <!-- conflict: "369 Butler Island, North Hero, VT" No match in OSM, but a different address exists <5m away: "369 Butler Island, North Hero, VT" -->
    <tag k="addr:city" v="North Hero"/>
    <tag k="addr:housenumber" v="369"/>
    <tag k="addr:street" v=""/>
    <tag k="addr:place" v="Butler Island"/>
    <tag k="addr:state" v="VT"/>
    <tag k="ref:vcgi:esiteid" v="452423"/>
  </node>
  <node id="-1203" visible="true" lat="44.8255138" lon="-73.23022738">
    <!-- conflict: "446 Butler Island, North Hero, VT" No match in OSM, but a different address exists <5m away: "446 Butler Island, North Hero, VT" -->
    <tag k="addr:city" v="North Hero"/>
    <tag k="addr:housenumber" v="446"/>
    <tag k="addr:street" v=""/>
    <tag k="addr:place" v="Butler Island"/>
    <tag k="addr:state" v="VT"/>
    <tag k="ref:vcgi:esiteid" v="452424"/>
  </node>
  <node id="-1204" visible="true" lat="44.82621681" lon="-73.22919742">
    <!-- conflict: "518 Butler Island, North Hero, VT" No match in OSM, but a different address exists <5m away: "518 Butler Island, North Hero, VT" -->
    <tag k="addr:city" v="North Hero"/>
    <tag k="addr:housenumber" v="518"/>
    <tag k="addr:street" v=""/>
    <tag k="addr:place" v="Butler Island"/>
    <tag k="addr:state" v="VT"/>
    <tag k="ref:vcgi:esiteid" v="452426"/>
  </node>
  <node id="-1205" visible="true" lat="44.83001248" lon="-73.22670573">
    <!-- conflict: "922 Butler Island, North Hero, VT" No match in OSM, but a different address exists <5m away: "922 Butler Island, North Hero, VT" -->
    <tag k="addr:city" v="North Hero"/>
    <tag k="addr:housenumber" v="922"/>
    <tag k="addr:street" v=""/>
    <tag k="addr:place" v="Butler Island"/>
    <tag k="addr:state" v="VT"/>
    <tag k="ref:vcgi:esiteid" v="452427"/>
  </node>
  <node id="-1206" visible="true" lat="44.83107209" lon="-73.22741458">
    <!-- conflict: "991 Butler Island, North Hero, VT" No match in OSM, but a different address exists <5m away: "991 Butler Island, North Hero, VT" -->
    <tag k="addr:city" v="North Hero"/>
    <tag k="addr:housenumber" v="991"/>
    <tag k="addr:street" v=""/>
    <tag k="addr:place" v="Butler Island"/>
    <tag k="addr:state" v="VT"/>
    <tag k="ref:vcgi:esiteid" v="452428"/>
  </node>
  <node id="-1207" visible="true" lat="44.83194827" lon="-73.22635502">
    <!-- conflict: "1068 Butler Island, North Hero, VT" No match in OSM, but a different address exists <5m away: "1068 Butler Island, North Hero, VT" -->
    <tag k="addr:city" v="North Hero"/>
    <tag k="addr:housenumber" v="1068"/>
    <tag k="addr:street" v=""/>
    <tag k="addr:place" v="Butler Island"/>
    <tag k="addr:state" v="VT"/>
    <tag k="ref:vcgi:esiteid" v="452429"/>
  </node>
  <node id="-1208" visible="true" lat="44.83280902" lon="-73.22597476">
    <!-- conflict: "1130 Butler Island, North Hero, VT" No match in OSM, but a different address exists <5m away: "1130 Butler Island, North Hero, VT" -->
    <tag k="addr:city" v="North Hero"/>
    <tag k="addr:housenumber" v="1130"/>
    <tag k="addr:street" v=""/>
    <tag k="addr:place" v="Butler Island"/>
    <tag k="addr:state" v="VT"/>
    <tag k="ref:vcgi:esiteid" v="452430"/>
  </node>
  <node id="-1209" visible="true" lat="44.83401021" lon="-73.22538197">
    <!-- conflict: "1218 Butler Island, North Hero, VT" No match in OSM, but a different address exists <5m away: "1218 Butler Island, North Hero, VT" -->
    <tag k="addr:city" v="North Hero"/>
    <tag k="addr:housenumber" v="1218"/>
    <tag k="addr:street" v=""/>
    <tag k="addr:place" v="Butler Island"/>
    <tag k="addr:state" v="VT"/>
    <tag k="ref:vcgi:esiteid" v="452431"/>
  </node>
  <node id="-1210" visible="true" lat="44.83665253" lon="-73.21885121">
    <!-- conflict: "1627 Butler Island, North Hero, VT" No match in OSM, but a different address exists <5m away: "1627 Butler Island, North Hero, VT" -->
    <tag k="addr:city" v="North Hero"/>
    <tag k="addr:housenumber" v="1627"/>
    <tag k="addr:street" v=""/>
    <tag k="addr:place" v="Butler Island"/>
    <tag k="addr:state" v="VT"/>
    <tag k="ref:vcgi:esiteid" v="452432"/>
  </node>
  <node id="-1211" visible="true" lat="44.8342635" lon="-73.21621667">
    <!-- conflict: "1884 Butler Island, North Hero, VT" No match in OSM, but a different address exists <5m away: "1884 Butler Island, North Hero, VT" -->
    <tag k="addr:city" v="North Hero"/>
    <tag k="addr:housenumber" v="1884"/>
    <tag k="addr:street" v=""/>
    <tag k="addr:place" v="Butler Island"/>
    <tag k="addr:state" v="VT"/>
    <tag k="ref:vcgi:esiteid" v="452433"/>
  </node>
  <node id="-1212" visible="true" lat="44.83444019" lon="-73.21477444">
    <!-- conflict: "1978 Butler Island, North Hero, VT" No match in OSM, but a different address exists <5m away: "1978 Butler Island, North Hero, VT" -->
    <tag k="addr:city" v="North Hero"/>
    <tag k="addr:housenumber" v="1978"/>
    <tag k="addr:street" v=""/>
    <tag k="addr:place" v="Butler Island"/>
    <tag k="addr:state" v="VT"/>
    <tag k="ref:vcgi:esiteid" v="452434"/>
  </node>
  <node id="-1213" visible="true" lat="44.83631461" lon="-73.21198045">
    <!-- conflict: "2270 Butler Island, North Hero, VT" No match in OSM, but a different address exists <5m away: "2270 Butler Island, North Hero, VT" -->
    <tag k="addr:city" v="North Hero"/>
    <tag k="addr:housenumber" v="2270"/>
    <tag k="addr:street" v=""/>
    <tag k="addr:place" v="Butler Island"/>
    <tag k="addr:state" v="VT"/>
    <tag k="ref:vcgi:esiteid" v="452435"/>
  </node>
  <node id="-1214" visible="true" lat="44.83736884" lon="-73.21187631">
    <!-- conflict: "2394 Butler Island, North Hero, VT" No match in OSM, but a different address exists <5m away: "2394 Butler Island, North Hero, VT" -->
    <tag k="addr:city" v="North Hero"/>
    <tag k="addr:housenumber" v="2394"/>
    <tag k="addr:street" v=""/>
    <tag k="addr:place" v="Butler Island"/>
    <tag k="addr:state" v="VT"/>
    <tag k="ref:vcgi:esiteid" v="452436"/>
  </node>
  <node id="-1215" visible="true" lat="44.83816442" lon="-73.21315773">
    <!-- conflict: "2486 Butler Island, North Hero, VT" No match in OSM, but a different address exists <5m away: "2486 Butler Island, North Hero, VT" -->
    <tag k="addr:city" v="North Hero"/>
    <tag k="addr:housenumber" v="2486"/>
    <tag k="addr:street" v=""/>
    <tag k="addr:place" v="Butler Island"/>
    <tag k="addr:state" v="VT"/>
    <tag k="ref:vcgi:esiteid" v="452437"/>
  </node>
  <node id="-1216" visible="true" lat="44.83853042" lon="-73.21345674">
    <!-- conflict: "2515 Butler Island, North Hero, VT" No match in OSM, but a different address exists <5m away: "2515 Butler Island, North Hero, VT" -->
    <tag k="addr:city" v="North Hero"/>
    <tag k="addr:housenumber" v="2515"/>
    <tag k="addr:street" v=""/>
    <tag k="addr:place" v="Butler Island"/>
    <tag k="addr:state" v="VT"/>
    <tag k="ref:vcgi:esiteid" v="452438"/>
  </node>
  <node id="-1217" visible="true" lat="44.83914639" lon="-73.21318658">
    <!-- conflict: "2554 Butler Island, North Hero, VT" No match in OSM, but a different address exists <5m away: "2554 Butler Island, North Hero, VT" -->
    <tag k="addr:city" v="North Hero"/>
    <tag k="addr:housenumber" v="2554"/>
    <tag k="addr:street" v=""/>
    <tag k="addr:place" v="Butler Island"/>
    <tag k="addr:state" v="VT"/>
    <tag k="ref:vcgi:esiteid" v="452439"/>
  </node>
  <node id="-1218" visible="true" lat="44.83963371" lon="-73.21330972">
    <!-- conflict: "2590 Butler Island, North Hero, VT" No match in OSM, but a different address exists <5m away: "2590 Butler Island, North Hero, VT" -->
    <tag k="addr:city" v="North Hero"/>
    <tag k="addr:housenumber" v="2590"/>
    <tag k="addr:street" v=""/>
    <tag k="addr:place" v="Butler Island"/>
    <tag k="addr:state" v="VT"/>
    <tag k="ref:vcgi:esiteid" v="452440"/>
  </node>
  <node id="-1219" visible="true" lat="44.84199392" lon="-73.2137739">
    <!-- conflict: "2760 Butler Island, North Hero, VT" No match in OSM, but a different address exists <5m away: "2760 Butler Island, North Hero, VT" -->
    <tag k="addr:city" v="North Hero"/>
    <tag k="addr:housenumber" v="2760"/>
    <tag k="addr:street" v=""/>
    <tag k="addr:place" v="Butler Island"/>
    <tag k="addr:state" v="VT"/>
    <tag k="ref:vcgi:esiteid" v="452441"/>
  </node>
  <node id="-1220" visible="true" lat="44.8458209" lon="-73.21669106">
    <!-- conflict: "3078 Butler Island, North Hero, VT" No match in OSM, but a different address exists <5m away: "3078 Butler Island, North Hero, VT" -->
    <tag k="addr:city" v="North Hero"/>
    <tag k="addr:housenumber" v="3078"/>
    <tag k="addr:street" v=""/>
    <tag k="addr:place" v="Butler Island"/>
    <tag k="addr:state" v="VT"/>
    <tag k="ref:vcgi:esiteid" v="452442"/>
  </node>
  <node id="-1221" visible="true" lat="44.84664532" lon="-73.21972805">
    <!-- conflict: "3244 Butler Island, North Hero, VT" No match in OSM, but a different address exists <5m away: "3244 Butler Island, North Hero, VT" -->
    <tag k="addr:city" v="North Hero"/>
    <tag k="addr:housenumber" v="3244"/>
    <tag k="addr:street" v=""/>
    <tag k="addr:place" v="Butler Island"/>
    <tag k="addr:state" v="VT"/>
    <tag k="ref:vcgi:esiteid" v="452443"/>
  </node>
  <node id="-1222" visible="true" lat="44.84143001" lon="-73.22676628">
    <!-- conflict: "3800 Butler Island, North Hero, VT" No match in OSM, but a different address exists <5m away: "3800 Butler Island, North Hero, VT" -->
    <tag k="addr:city" v="North Hero"/>
    <tag k="addr:housenumber" v="3800"/>
    <tag k="addr:street" v=""/>
    <tag k="addr:place" v="Butler Island"/>
    <tag k="addr:state" v="VT"/>
    <tag k="ref:vcgi:esiteid" v="452444"/>
  </node>
  <node id="-1223" visible="true" lat="44.84078094" lon="-73.22771396">
    <!-- conflict: "3868 Butler Island, North Hero, VT" No match in OSM, but a different address exists <5m away: "3868 Butler Island, North Hero, VT" -->
    <tag k="addr:city" v="North Hero"/>
    <tag k="addr:housenumber" v="3868"/>
    <tag k="addr:street" v=""/>
    <tag k="addr:place" v="Butler Island"/>
    <tag k="addr:state" v="VT"/>
    <tag k="ref:vcgi:esiteid" v="452445"/>
  </node>
  <node id="-1224" visible="true" lat="44.84040704" lon="-73.22834859">
    <!-- conflict: "3904 Butler Island, North Hero, VT" No match in OSM, but a different address exists <5m away: "3904 Butler Island, North Hero, VT" -->
    <tag k="addr:city" v="North Hero"/>
    <tag k="addr:housenumber" v="3904"/>
    <tag k="addr:street" v=""/>
    <tag k="addr:place" v="Butler Island"/>
    <tag k="addr:state" v="VT"/>
    <tag k="ref:vcgi:esiteid" v="452446"/>
  </node>
  <node id="-1225" visible="true" lat="44.83852473" lon="-73.22934824">
    <!-- conflict: "4046 Butler Island, North Hero, VT" No match in OSM, but a different address exists <5m away: "4046 Butler Island, North Hero, VT" -->
    <tag k="addr:city" v="North Hero"/>
    <tag k="addr:housenumber" v="4046"/>
    <tag k="addr:street" v=""/>
    <tag k="addr:place" v="Butler Island"/>
    <tag k="addr:state" v="VT"/>
    <tag k="ref:vcgi:esiteid" v="452447"/>
  </node>
  <node id="-1226" visible="true" lat="44.83806979" lon="-73.22962207">
    <!-- conflict: "4080 Butler Island, North Hero, VT" No match in OSM, but a different address exists <5m away: "4080 Butler Island, North Hero, VT" -->
    <tag k="addr:city" v="North Hero"/>
    <tag k="addr:housenumber" v="4080"/>
    <tag k="addr:street" v=""/>
    <tag k="addr:place" v="Butler Island"/>
    <tag k="addr:state" v="VT"/>
    <tag k="ref:vcgi:esiteid" v="452448"/>
  </node>
  <node id="-1227" visible="true" lat="44.83387452" lon="-73.2347815">
    <!-- conflict: "4506 Butler Island, North Hero, VT" No match in OSM, but a different address exists <5m away: "4506 Butler Island, North Hero, VT" -->
    <tag k="addr:city" v="North Hero"/>
    <tag k="addr:housenumber" v="4506"/>
    <tag k="addr:street" v=""/>
    <tag k="addr:place" v="Butler Island"/>
    <tag k="addr:state" v="VT"/>
    <tag k="ref:vcgi:esiteid" v="452449"/>
  </node>
  <node id="-1228" visible="true" lat="44.83241549" lon="-73.23578557">
    <!-- conflict: "4618 Butler Island, North Hero, VT" No match in OSM, but a different address exists <5m away: "4618 Butler Island, North Hero, VT" -->
    <tag k="addr:city" v="North Hero"/>
    <tag k="addr:housenumber" v="4618"/>
    <tag k="addr:street" v=""/>
    <tag k="addr:place" v="Butler Island"/>
    <tag k="addr:state" v="VT"/>
    <tag k="ref:vcgi:esiteid" v="452450"/>
  </node>
  <node id="-1229" visible="true" lat="44.8289643" lon="-73.23747107">
    <!-- conflict: "4876 Butler Island, North Hero, VT" No match in OSM, but a different address exists <5m away: "4876 Butler Island, North Hero, VT" -->
    <tag k="addr:city" v="North Hero"/>
    <tag k="addr:housenumber" v="4876"/>
    <tag k="addr:street" v=""/>
    <tag k="addr:place" v="Butler Island"/>
    <tag k="addr:state" v="VT"/>
    <tag k="ref:vcgi:esiteid" v="452451"/>
  </node>
  <node id="-1230" visible="true" lat="44.82315414" lon="-73.23741092">
    <!-- conflict: "5362 Butler Island, North Hero, VT" No match in OSM, but a different address exists <5m away: "5362 Butler Island, North Hero, VT" -->
    <tag k="addr:city" v="North Hero"/>
    <tag k="addr:housenumber" v="5362"/>
    <tag k="addr:street" v=""/>
    <tag k="addr:place" v="Butler Island"/>
    <tag k="addr:state" v="VT"/>
    <tag k="ref:vcgi:esiteid" v="452452"/>
  </node>
  <node id="-1231" visible="true" lat="44.82255519" lon="-73.23614037">
    <!-- conflict: "5440 Butler Island, North Hero, VT" No match in OSM, but a different address exists <5m away: "5440 Butler Island, North Hero, VT" -->
    <tag k="addr:city" v="North Hero"/>
    <tag k="addr:housenumber" v="5440"/>
    <tag k="addr:street" v=""/>
    <tag k="addr:place" v="Butler Island"/>
    <tag k="addr:state" v="VT"/>
    <tag k="ref:vcgi:esiteid" v="452453"/>
  </node>
  <node id="-1232" visible="true" lat="44.82314052" lon="-73.23848195">
    <!-- conflict: "5302 Butler Island, North Hero, VT" No match in OSM, but a different address exists <5m away: "5302 Butler Island, North Hero, VT" -->
    <tag k="addr:city" v="North Hero"/>
    <tag k="addr:housenumber" v="5302"/>
    <tag k="addr:street" v=""/>
    <tag k="addr:place" v="Butler Island"/>
    <tag k="addr:state" v="VT"/>
    <tag k="ref:vcgi:esiteid" v="452454"/>
  </node>
  <node id="-1233" visible="true" lat="44.82143866" lon="-73.25192375">
    <!-- conflict: "664 Dameas Island, North Hero, VT" No match in OSM, but a different address exists <5m away: "664 Dameas Island, North Hero, VT" -->
    <tag k="addr:city" v="North Hero"/>
    <tag k="addr:housenumber" v="664"/>
    <tag k="addr:street" v=""/>
    <tag k="addr:place" v="Dameas Island"/>
    <tag k="addr:state" v="VT"/>
    <tag k="ref:vcgi:esiteid" v="452455"/>
  </node>
  <node id="-1301" visible="true" lat="44.82411879" lon="-73.23289503">
    <!-- conflict: "300 Butler Island, North Hero, VT" No match in OSM, but a different address exists <5m away: "300 Butler Island, North Hero, VT" -->
    <tag k="addr:city" v="North Hero"/>
    <tag k="addr:housenumber" v="300"/>
    <tag k="addr:street" v=""/>
    <tag k="addr:place" v="Butler Island"/>
    <tag k="addr:state" v="VT"/>
    <tag k="ref:vcgi:esiteid" v="764889"/>
  </node>
</osm>
