<?xml version="1.0" encoding="UTF-8"?>
<osm version="0.6" generator="JOSM" upload="false">
  <node id="-543" visible="true" lat="43.75239818" lon="-72.3863358">
    <!-- offset: "49 Tigertown Road, , VT" Significant offset - 4625.9m -->
    <tag k="addr:housenumber" v="49"/>
    <tag k="addr:street" v="Tigertown Road"/>
    <tag k="addr:state" v="VT"/>
    <tag k="ref:vcgi:esiteid" v="182557"/>
  </node>
  <node id="-774" visible="true" lat="43.73375754" lon="-72.33389497">
    <!-- offset: "674 Beaver Meadow Road, , VT" Significant offset - 9444.9m -->
    <tag k="addr:housenumber" v="674"/>
    <tag k="addr:street" v="Beaver Meadow Road"/>
    <tag k="addr:state" v="VT"/>
    <tag k="ref:vcgi:esiteid" v="182793"/>
  </node>
  <node id="-903" visible="true" lat="43.72461319" lon="-72.31488037">
    <!-- offset: "111 Turnpike Road, , VT" Significant offset - 115.8m -->
    <tag k="addr:housenumber" v="111"/>
    <tag k="addr:street" v="Turnpike Road"/>
    <tag k="addr:state" v="VT"/>
    <tag k="ref:vcgi:esiteid" v="182933"/>
  </node>
  <node id="-1117" visible="true" lat="43.71749156" lon="-72.30812849">
    <!-- offset: "23 Hazen Street, , VT" Significant offset - 7116.9m -->
    <tag k="addr:housenumber" v="23"/>
    <tag k="addr:street" v="Hazen Street"/>
    <tag k="addr:state" v="VT"/>
    <tag k="ref:vcgi:esiteid" v="183164"/>
  </node>
  <node id="-1266" visible="true" lat="43.7139698" lon="-72.30741626">
    <!-- offset: "15 Church Street, , VT" Significant offset - 7258.5m -->
    <tag k="addr:housenumber" v="15"/>
    <tag k="addr:street" v="Church Street"/>
    <tag k="addr:state" v="VT"/>
    <tag k="ref:vcgi:esiteid" v="183333"/>
  </node>
  <node id="-1277" visible="true" lat="43.71332471" lon="-72.30649485">
    <!-- offset: "22 Church Street, , VT" Significant offset - 7222.4m -->
    <tag k="addr:housenumber" v="22"/>
    <tag k="addr:street" v="Church Street"/>
    <tag k="addr:state" v="VT"/>
    <tag k="ref:vcgi:esiteid" v="183345"/>
  </node>
  <node id="-1325" visible="true" lat="43.71131234" lon="-72.30879999">
    <!-- offset: "237 Main Street, , VT" Significant offset - 9386.2m -->
    <tag k="addr:housenumber" v="237"/>
    <tag k="addr:street" v="Main Street"/>
    <tag k="addr:state" v="VT"/>
    <tag k="ref:vcgi:esiteid" v="183397"/>
  </node>
  <node id="-1579" visible="true" lat="43.76458778" lon="-72.2393651">
    <!-- offset: "35 Campbell Flats Road, , VT" Significant offset - 2867.8m -->
    <tag k="addr:housenumber" v="35"/>
    <tag k="addr:street" v="Campbell Flats Road"/>
    <tag k="addr:state" v="VT"/>
    <tag k="ref:vcgi:esiteid" v="335080"/>
  </node>
  <node id="-1625" visible="true" lat="43.72648943" lon="-72.36667104">
    <!-- offset: "561 Burton Woods Road, , VT" Significant offset - 1218.9m -->
    <tag k="addr:housenumber" v="561"/>
    <tag k="addr:street" v="Burton Woods Road"/>
    <tag k="addr:state" v="VT"/>
    <tag k="ref:vcgi:esiteid" v="450357"/>
  </node>
  <node id="-1662" visible="true" lat="43.71983191" lon="-72.38366056">
    <!-- offset: "1147 Wallace Road, , VT" Significant offset - 800.4m -->
    <tag k="addr:housenumber" v="1147"/>
    <tag k="addr:street" v="Wallace Road"/>
    <tag k="addr:state" v="VT"/>
    <tag k="ref:vcgi:esiteid" v="750125"/>
  </node>
  <node id="-1708" visible="true" lat="43.76865769" lon="-72.29827347">
    <!-- offset: "119 Barbara Lee Lane, , VT" Significant offset - 119.1m -->
    <tag k="addr:housenumber" v="119"/>
    <tag k="addr:street" v="Barbara Lee Lane"/>
    <tag k="addr:state" v="VT"/>
    <tag k="ref:vcgi:esiteid" v="766416"/>
  </node>
  <node id="-1716" visible="true" lat="43.78145442" lon="-72.36501362">
    <!-- offset: "687 Chapel Hill Road, , VT" Significant offset - 237.2m -->
    <tag k="addr:housenumber" v="687"/>
    <tag k="addr:street" v="Chapel Hill Road"/>
    <tag k="addr:state" v="VT"/>
    <tag k="ref:vcgi:esiteid" v="769833"/>
  </node>
</osm>
