<?xml version="1.0" encoding="UTF-8"?>
<osm version="0.6" generator="JOSM" upload="false">
  <node id="-571" visible="true" lat="43.34228913" lon="-73.18221579">
    <tag k="addr:city" v="Pawlet"/>
    <tag k="addr:housenumber" v="41"/>
    <tag k="addr:street" v="Hickory Hollow Road"/>
    <tag k="addr:state" v="VT"/>
    <tag k="ref:vcgi:esiteid" v="769099"/>
  </node>
  <node id="-577" visible="true" lat="43.37024912" lon="-73.14273551">
    <tag k="addr:city" v="Pawlet"/>
    <tag k="addr:housenumber" v="116"/>
    <tag k="addr:street" v="Kelley Hill Road"/>
    <tag k="addr:state" v="VT"/>
    <tag k="ref:vcgi:esiteid" v="771368"/>
  </node>
  <node id="-578" visible="true" lat="43.33822666" lon="-73.18344839">
    <tag k="addr:city" v="Pawlet"/>
    <tag k="addr:housenumber" v="81"/>
    <tag k="addr:street" v="Little Hawk Lane"/>
    <tag k="addr:state" v="VT"/>
    <tag k="ref:vcgi:esiteid" v="771370"/>
  </node>
  <node id="-579" visible="true" lat="43.37499624" lon="-73.13988599">
    <tag k="addr:city" v="Pawlet"/>
    <tag k="addr:housenumber" v="238"/>
    <tag k="addr:street" v="Milaura Road"/>
    <tag k="addr:state" v="VT"/>
    <tag k="ref:vcgi:esiteid" v="771600"/>
  </node>
  <node id="-580" visible="true" lat="43.31636021" lon="-73.14754778">
    <tag k="addr:city" v="Pawlet"/>
    <tag k="addr:housenumber" v="117"/>
    <tag k="addr:street" v="Sugar Lane"/>
    <tag k="addr:state" v="VT"/>
    <tag k="ref:vcgi:esiteid" v="771855"/>
  </node>
  <node id="-581" visible="true" lat="43.32040429" lon="-73.15196308">
    <tag k="addr:city" v="Pawlet"/>
    <tag k="addr:housenumber" v="2170"/>
    <tag k="addr:street" v="Herrick Brook Road"/>
    <tag k="addr:state" v="VT"/>
    <tag k="ref:vcgi:esiteid" v="771869"/>
  </node>
  <node id="-582" visible="true" lat="43.36458082" lon="-73.15725136">
    <tag k="addr:city" v="Pawlet"/>
    <tag k="addr:housenumber" v="517"/>
    <tag k="addr:street" v="Beaver Brook Road"/>
    <tag k="addr:state" v="VT"/>
    <tag k="ref:vcgi:esiteid" v="771957"/>
  </node>
  <node id="-583" visible="true" lat="43.34046663" lon="-73.19188462">
    <tag k="addr:city" v="Pawlet"/>
    <tag k="addr:housenumber" v="699"/>
    <tag k="addr:street" v="Rupert Hill Road"/>
    <tag k="addr:state" v="VT"/>
    <tag k="ref:vcgi:esiteid" v="772134"/>
  </node>
  <node id="-584" visible="true" lat="43.35345112" lon="-73.14169373">
    <tag k="addr:city" v="Pawlet"/>
    <tag k="addr:housenumber" v="156"/>
    <tag k="addr:street" v="Forrest Farm Road"/>
    <tag k="addr:state" v="VT"/>
    <tag k="ref:vcgi:esiteid" v="772153"/>
  </node>
</osm>
