<?xml version="1.0" encoding="UTF-8"?>
<osm version="0.6" generator="JOSM" upload="false">
  <node id="-719" visible="true" lat="43.2729815" lon="-72.90860964">
    <tag k="addr:city" v="Peru"/>
    <tag k="addr:housenumber" v="2263"/>
    <tag k="addr:street" v="North Road"/>
    <tag k="addr:state" v="VT"/>
    <tag k="ref:vcgi:esiteid" v="771520"/>
  </node>
  <node id="-720" visible="true" lat="43.27113629" lon="-72.9070388">
    <tag k="addr:city" v="Peru"/>
    <tag k="addr:housenumber" v="2171"/>
    <tag k="addr:street" v="North Road"/>
    <tag k="addr:state" v="VT"/>
    <tag k="ref:vcgi:esiteid" v="771521"/>
  </node>
  <node id="-721" visible="true" lat="43.25512283" lon="-72.91686188">
    <tag k="addr:city" v="Peru"/>
    <tag k="addr:housenumber" v="950"/>
    <tag k="addr:street" v="Mad Tom Notch Road"/>
    <tag k="addr:state" v="VT"/>
    <tag k="ref:vcgi:esiteid" v="772489"/>
  </node>
  <node id="-722" visible="true" lat="43.27417148" lon="-72.90916689">
    <tag k="addr:city" v="Peru"/>
    <tag k="addr:housenumber" v="2283"/>
    <tag k="addr:street" v="North Road"/>
    <tag k="addr:state" v="VT"/>
    <tag k="ref:vcgi:esiteid" v="772565"/>
  </node>
</osm>
