<?xml version="1.0" encoding="UTF-8"?>
<osm version="0.6" generator="JOSM" upload="false">
  <node id="-125" visible="true" lat="44.2795923" lon="-72.42296408">
    <!-- offset: "171 School Street, , VT" Significant offset - 9447.5m -->
    <tag k="addr:housenumber" v="171"/>
    <tag k="addr:street" v="School Street"/>
    <tag k="addr:state" v="VT"/>
    <tag k="ref:vcgi:esiteid" v="188878"/>
  </node>
  <node id="-132" visible="true" lat="44.2793274" lon="-72.42337797">
    <!-- offset: "143 School Street, , VT" Significant offset - 9541.2m -->
    <tag k="addr:housenumber" v="143"/>
    <tag k="addr:street" v="School Street"/>
    <tag k="addr:state" v="VT"/>
    <tag k="ref:vcgi:esiteid" v="188885"/>
  </node>
  <node id="-150" visible="true" lat="44.27845764" lon="-72.42435455">
    <!-- offset: "72 School Street, , VT" Significant offset - 9747.2m -->
    <tag k="addr:housenumber" v="72"/>
    <tag k="addr:street" v="School Street"/>
    <tag k="addr:state" v="VT"/>
    <tag k="ref:vcgi:esiteid" v="188909"/>
  </node>
  <node id="-198" visible="true" lat="44.27723312" lon="-72.42253112">
    <!-- offset: "30 Creamery Street, , VT" Significant offset - 9882.4m -->
    <tag k="addr:housenumber" v="30"/>
    <tag k="addr:street" v="Creamery Street"/>
    <tag k="addr:state" v="VT"/>
    <tag k="ref:vcgi:esiteid" v="188966"/>
  </node>
  <node id="-663" visible="true" lat="44.24177677" lon="-72.39822789">
    <!-- offset: "593 Gray Road, , VT" Significant offset - 9066.4m -->
    <tag k="addr:housenumber" v="593"/>
    <tag k="addr:street" v="Gray Road"/>
    <tag k="addr:state" v="VT"/>
    <tag k="ref:vcgi:esiteid" v="336652"/>
  </node>
  <node id="-699" visible="true" lat="44.26783494" lon="-72.40166328">
    <!-- offset: "965 East Hill Road, , VT" Significant offset - 9787.6m -->
    <tag k="addr:housenumber" v="965"/>
    <tag k="addr:street" v="East Hill Road"/>
    <tag k="addr:state" v="VT"/>
    <tag k="ref:vcgi:esiteid" v="655786"/>
  </node>
  <node id="-700" visible="true" lat="44.2389815" lon="-72.47426993">
    <!-- offset: "1102 Clark Road, , VT" Significant offset - 155.6m -->
    <tag k="addr:housenumber" v="1102"/>
    <tag k="addr:street" v="Clark Road"/>
    <tag k="addr:state" v="VT"/>
    <tag k="ref:vcgi:esiteid" v="656351"/>
  </node>
</osm>
