<?xml version="1.0" encoding="UTF-8"?>
<osm version="0.6" generator="JOSM" upload="false">
  <node id="-694" visible="true" lat="43.46539503" lon="-72.70512798">
    <tag k="addr:housenumber" v="75"/>
    <tag k="addr:street" v="Dublin Road"/>
    <tag k="addr:state" v="VT"/>
    <tag k="ref:vcgi:esiteid" v="190042"/>
  </node>
  <node id="-1026" visible="true" lat="43.46944802" lon="-72.6833898">
    <tag k="addr:housenumber" v="76"/>
    <tag k="addr:street" v="Gilmore Road"/>
    <tag k="addr:state" v="VT"/>
    <tag k="ref:vcgi:esiteid" v="771363"/>
  </node>
  <node id="-1027" visible="true" lat="43.46398048" lon="-72.70515425">
    <tag k="addr:housenumber" v="32"/>
    <tag k="addr:street" v="Vermont Route 100"/>
    <tag k="addr:state" v="VT"/>
    <tag k="ref:vcgi:esiteid" v="771446"/>
  </node>
  <node id="-1028" visible="true" lat="43.46791395" lon="-72.69697749">
    <tag k="addr:housenumber" v="140"/>
    <tag k="addr:street" v="Echo View Drive"/>
    <tag k="addr:state" v="VT"/>
    <tag k="ref:vcgi:esiteid" v="771862"/>
  </node>
  <node id="-1029" visible="true" lat="43.56380022" lon="-72.6897364">
    <tag k="addr:housenumber" v="800"/>
    <tag k="addr:street" v="Vermont Route 100A"/>
    <tag k="addr:state" v="VT"/>
    <tag k="ref:vcgi:esiteid" v="771877"/>
  </node>
  <node id="-1030" visible="true" lat="43.55179946" lon="-72.70775065">
    <tag k="addr:housenumber" v="2187"/>
    <tag k="addr:street" v="Vermont Route 100A"/>
    <tag k="addr:state" v="VT"/>
    <tag k="ref:vcgi:esiteid" v="772268"/>
  </node>
  <node id="-1031" visible="true" lat="43.530088" lon="-72.75642814">
    <tag k="addr:housenumber" v="89"/>
    <tag k="addr:street" v="Upper Round Top Road Extension"/>
    <tag k="addr:state" v="VT"/>
    <tag k="ref:vcgi:esiteid" v="772638"/>
  </node>
</osm>
