<?xml version="1.0" encoding="UTF-8"?>
<osm version="0.6" generator="JOSM" upload="false">
  <node id="-235" visible="true" lat="42.82172067" lon="-73.20910248">
    <tag k="addr:housenumber" v="16"/>
    <tag k="addr:street" v="Tired Iron Way"/>
    <tag k="addr:state" v="VT"/>
    <tag k="ref:vcgi:esiteid" v="192629"/>
  </node>
  <node id="-1964" visible="true" lat="42.82706175" lon="-73.16707245">
    <tag k="addr:housenumber" v="93"/>
    <tag k="addr:street" v="Rowdy Creek Way"/>
    <tag k="addr:state" v="VT"/>
    <tag k="ref:vcgi:esiteid" v="771125"/>
  </node>
  <node id="-1965" visible="true" lat="42.79604215" lon="-73.26534332">
    <tag k="addr:housenumber" v="123"/>
    <tag k="addr:street" v="Dean Road"/>
    <tag k="addr:state" v="VT"/>
    <tag k="ref:vcgi:esiteid" v="771494"/>
  </node>
  <node id="-1967" visible="true" lat="42.83564448" lon="-73.2421945">
    <tag k="addr:housenumber" v="1414"/>
    <tag k="addr:street" v="Carpenter Hill Road West"/>
    <tag k="addr:state" v="VT"/>
    <tag k="ref:vcgi:esiteid" v="771759"/>
  </node>
</osm>
