<?xml version="1.0" encoding="UTF-8"?>
<osm version="0.6" generator="JOSM" upload="false">
  <node id="-224" visible="true" lat="43.22143173" lon="-72.44741058">
    <!-- multiple: "823 Missing Link Road, , VT" Multiple exact matches in OSM. -->
    <tag k="addr:housenumber" v="823"/>
    <tag k="addr:street" v="Missing Link Road"/>
    <tag k="addr:state" v="VT"/>
    <tag k="ref:vcgi:esiteid" v="203117"/>
  </node>
  <node id="-384" visible="true" lat="43.19726562" lon="-72.50498199">
    <!-- multiple: "1292 Rockingham Road, , VT" Multiple exact matches in OSM. -->
    <tag k="addr:housenumber" v="1292"/>
    <tag k="addr:street" v="Rockingham Road"/>
    <tag k="addr:state" v="VT"/>
    <tag k="ref:vcgi:esiteid" v="203280"/>
  </node>
  <node id="-452" visible="true" lat="43.18302961" lon="-72.45488451">
    <!-- multiple: "127 Missing Link Road, , VT" Multiple exact matches in OSM. -->
    <tag k="addr:housenumber" v="127"/>
    <tag k="addr:street" v="Missing Link Road"/>
    <tag k="addr:state" v="VT"/>
    <tag k="ref:vcgi:esiteid" v="203348"/>
  </node>
  <node id="-453" visible="true" lat="43.18303386" lon="-72.45465329">
    <!-- multiple: "127 Missing Link Road, , VT" Multiple exact matches in OSM. -->
    <tag k="addr:housenumber" v="127"/>
    <tag k="addr:street" v="Missing Link Road"/>
    <tag k="addr:state" v="VT"/>
    <tag k="ref:vcgi:esiteid" v="203349"/>
  </node>
  <node id="-456" visible="true" lat="43.18290281" lon="-72.45445285">
    <!-- multiple: "127 Missing Link Road, , VT" Multiple exact matches in OSM. -->
    <tag k="addr:housenumber" v="127"/>
    <tag k="addr:street" v="Missing Link Road"/>
    <tag k="addr:state" v="VT"/>
    <tag k="ref:vcgi:esiteid" v="203352"/>
  </node>
  <node id="-458" visible="true" lat="43.18281841" lon="-72.45489732">
    <!-- multiple: "127 Missing Link Road, , VT" Multiple exact matches in OSM. -->
    <tag k="addr:housenumber" v="127"/>
    <tag k="addr:street" v="Missing Link Road"/>
    <tag k="addr:state" v="VT"/>
    <tag k="ref:vcgi:esiteid" v="203354"/>
  </node>
  <node id="-459" visible="true" lat="43.18276213" lon="-72.45442641">
    <!-- multiple: "127 Missing Link Road, , VT" Multiple exact matches in OSM. -->
    <tag k="addr:housenumber" v="127"/>
    <tag k="addr:street" v="Missing Link Road"/>
    <tag k="addr:state" v="VT"/>
    <tag k="ref:vcgi:esiteid" v="203355"/>
  </node>
  <node id="-460" visible="true" lat="43.18269345" lon="-72.45485934">
    <!-- multiple: "127 Missing Link Road, , VT" Multiple exact matches in OSM. -->
    <tag k="addr:housenumber" v="127"/>
    <tag k="addr:street" v="Missing Link Road"/>
    <tag k="addr:state" v="VT"/>
    <tag k="ref:vcgi:esiteid" v="203356"/>
  </node>
  <node id="-461" visible="true" lat="43.18265527" lon="-72.45566021">
    <!-- multiple: "127 Missing Link Road, , VT" Multiple exact matches in OSM. -->
    <tag k="addr:housenumber" v="127"/>
    <tag k="addr:street" v="Missing Link Road"/>
    <tag k="addr:state" v="VT"/>
    <tag k="ref:vcgi:esiteid" v="203357"/>
  </node>
  <node id="-463" visible="true" lat="43.18261669" lon="-72.4544115">
    <!-- multiple: "127 Missing Link Road, , VT" Multiple exact matches in OSM. -->
    <tag k="addr:housenumber" v="127"/>
    <tag k="addr:street" v="Missing Link Road"/>
    <tag k="addr:state" v="VT"/>
    <tag k="ref:vcgi:esiteid" v="203359"/>
  </node>
  <node id="-464" visible="true" lat="43.1825351" lon="-72.4556052">
    <!-- multiple: "127 Missing Link Road, , VT" Multiple exact matches in OSM. -->
    <tag k="addr:housenumber" v="127"/>
    <tag k="addr:street" v="Missing Link Road"/>
    <tag k="addr:state" v="VT"/>
    <tag k="ref:vcgi:esiteid" v="203360"/>
  </node>
  <node id="-465" visible="true" lat="43.18246459" lon="-72.45440673">
    <!-- multiple: "127 Missing Link Road, , VT" Multiple exact matches in OSM. -->
    <tag k="addr:housenumber" v="127"/>
    <tag k="addr:street" v="Missing Link Road"/>
    <tag k="addr:state" v="VT"/>
    <tag k="ref:vcgi:esiteid" v="203361"/>
  </node>
  <node id="-466" visible="true" lat="43.18248416" lon="-72.45612392">
    <!-- multiple: "127 Missing Link Road, , VT" Multiple exact matches in OSM. -->
    <tag k="addr:housenumber" v="127"/>
    <tag k="addr:street" v="Missing Link Road"/>
    <tag k="addr:state" v="VT"/>
    <tag k="ref:vcgi:esiteid" v="203362"/>
  </node>
  <node id="-470" visible="true" lat="43.18235637" lon="-72.45474884">
    <!-- multiple: "127 Missing Link Road, , VT" Multiple exact matches in OSM. -->
    <tag k="addr:housenumber" v="127"/>
    <tag k="addr:street" v="Missing Link Road"/>
    <tag k="addr:state" v="VT"/>
    <tag k="ref:vcgi:esiteid" v="203366"/>
  </node>
  <node id="-471" visible="true" lat="43.18235015" lon="-72.45600891">
    <!-- multiple: "127 Missing Link Road, , VT" Multiple exact matches in OSM. -->
    <tag k="addr:housenumber" v="127"/>
    <tag k="addr:street" v="Missing Link Road"/>
    <tag k="addr:state" v="VT"/>
    <tag k="ref:vcgi:esiteid" v="203367"/>
  </node>
  <node id="-473" visible="true" lat="43.18233344" lon="-72.45496793">
    <!-- multiple: "127 Missing Link Road, , VT" Multiple exact matches in OSM. -->
    <tag k="addr:housenumber" v="127"/>
    <tag k="addr:street" v="Missing Link Road"/>
    <tag k="addr:state" v="VT"/>
    <tag k="ref:vcgi:esiteid" v="203369"/>
  </node>
  <node id="-474" visible="true" lat="43.18234153" lon="-72.45485915">
    <!-- multiple: "127 Missing Link Road, , VT" Multiple exact matches in OSM. -->
    <tag k="addr:housenumber" v="127"/>
    <tag k="addr:street" v="Missing Link Road"/>
    <tag k="addr:state" v="VT"/>
    <tag k="ref:vcgi:esiteid" v="203370"/>
  </node>
  <node id="-475" visible="true" lat="43.18229147" lon="-72.45508981">
    <!-- multiple: "127 Missing Link Road, , VT" Multiple exact matches in OSM. -->
    <tag k="addr:housenumber" v="127"/>
    <tag k="addr:street" v="Missing Link Road"/>
    <tag k="addr:state" v="VT"/>
    <tag k="ref:vcgi:esiteid" v="203371"/>
  </node>
  <node id="-476" visible="true" lat="43.18223427" lon="-72.45585346">
    <!-- multiple: "127 Missing Link Road, , VT" Multiple exact matches in OSM. -->
    <tag k="addr:housenumber" v="127"/>
    <tag k="addr:street" v="Missing Link Road"/>
    <tag k="addr:state" v="VT"/>
    <tag k="ref:vcgi:esiteid" v="203372"/>
  </node>
  <node id="-477" visible="true" lat="43.18229287" lon="-72.45520033">
    <!-- multiple: "127 Missing Link Road, , VT" Multiple exact matches in OSM. -->
    <tag k="addr:housenumber" v="127"/>
    <tag k="addr:street" v="Missing Link Road"/>
    <tag k="addr:state" v="VT"/>
    <tag k="ref:vcgi:esiteid" v="203373"/>
  </node>
  <node id="-478" visible="true" lat="43.18222045" lon="-72.4556961">
    <!-- multiple: "127 Missing Link Road, , VT" Multiple exact matches in OSM. -->
    <tag k="addr:housenumber" v="127"/>
    <tag k="addr:street" v="Missing Link Road"/>
    <tag k="addr:state" v="VT"/>
    <tag k="ref:vcgi:esiteid" v="203374"/>
  </node>
  <node id="-479" visible="true" lat="43.18224952" lon="-72.45533023">
    <!-- multiple: "127 Missing Link Road, , VT" Multiple exact matches in OSM. -->
    <tag k="addr:housenumber" v="127"/>
    <tag k="addr:street" v="Missing Link Road"/>
    <tag k="addr:state" v="VT"/>
    <tag k="ref:vcgi:esiteid" v="203375"/>
  </node>
  <node id="-480" visible="true" lat="43.18224283" lon="-72.45554277">
    <!-- multiple: "127 Missing Link Road, , VT" Multiple exact matches in OSM. -->
    <tag k="addr:housenumber" v="127"/>
    <tag k="addr:street" v="Missing Link Road"/>
    <tag k="addr:state" v="VT"/>
    <tag k="ref:vcgi:esiteid" v="203376"/>
  </node>
  <node id="-481" visible="true" lat="43.18226139" lon="-72.45540755">
    <!-- multiple: "127 Missing Link Road, , VT" Multiple exact matches in OSM. -->
    <tag k="addr:housenumber" v="127"/>
    <tag k="addr:street" v="Missing Link Road"/>
    <tag k="addr:state" v="VT"/>
    <tag k="ref:vcgi:esiteid" v="203377"/>
  </node>
  <node id="-504" visible="true" lat="43.17980366" lon="-72.46737545">
    <!-- multiple: "809 Rockingham Road, , VT" Multiple exact matches in OSM. -->
    <tag k="addr:housenumber" v="809"/>
    <tag k="addr:street" v="Rockingham Road"/>
    <tag k="addr:state" v="VT"/>
    <tag k="ref:vcgi:esiteid" v="203401"/>
  </node>
  <node id="-739" visible="true" lat="43.14116143" lon="-72.5004905">
    <!-- multiple: "8 Oak Street, , VT" Multiple exact matches in OSM. -->
    <tag k="addr:housenumber" v="8"/>
    <tag k="addr:street" v="Oak Street"/>
    <tag k="addr:state" v="VT"/>
    <tag k="ref:vcgi:esiteid" v="203670"/>
  </node>
  <node id="-905" visible="true" lat="43.1466586" lon="-72.46054273">
    <!-- multiple: "17 Pond Road, , VT" Multiple exact matches in OSM. -->
    <tag k="addr:housenumber" v="17"/>
    <tag k="addr:street" v="Pond Road"/>
    <tag k="addr:state" v="VT"/>
    <tag k="ref:vcgi:esiteid" v="204914"/>
  </node>
  <node id="-967" visible="true" lat="43.14125922" lon="-72.50102503">
    <!-- multiple: "4 Acorn Street, , VT" Multiple exact matches in OSM. -->
    <tag k="addr:housenumber" v="4"/>
    <tag k="addr:street" v="Acorn Street"/>
    <tag k="addr:state" v="VT"/>
    <tag k="ref:vcgi:esiteid" v="342346"/>
  </node>
  <node id="-973" visible="true" lat="43.14741667" lon="-72.46955556">
    <!-- multiple: "116 Pond Road, , VT" Multiple exact matches in OSM. -->
    <tag k="addr:housenumber" v="116"/>
    <tag k="addr:street" v="Pond Road"/>
    <tag k="addr:state" v="VT"/>
    <tag k="ref:vcgi:esiteid" v="345970"/>
  </node>
  <node id="-978" visible="true" lat="43.18266188" lon="-72.45542316">
    <!-- multiple: "127 Missing Link Road, , VT" Multiple exact matches in OSM. -->
    <tag k="addr:housenumber" v="127"/>
    <tag k="addr:street" v="Missing Link Road"/>
    <tag k="addr:state" v="VT"/>
    <tag k="ref:vcgi:esiteid" v="365602"/>
  </node>
  <node id="-1007" visible="true" lat="43.12739984" lon="-72.51761907">
    <!-- multiple: "1619 Hartley Hill Road, , VT" Multiple exact matches in OSM. -->
    <tag k="addr:housenumber" v="1619"/>
    <tag k="addr:street" v="Hartley Hill Road"/>
    <tag k="addr:state" v="VT"/>
    <tag k="ref:vcgi:esiteid" v="753737"/>
  </node>
  <node id="-1012" visible="true" lat="43.21161875" lon="-72.48410877">
    <!-- multiple: "316 Parker Hill Road, , VT" Multiple exact matches in OSM. -->
    <tag k="addr:housenumber" v="316"/>
    <tag k="addr:street" v="Parker Hill Road"/>
    <tag k="addr:state" v="VT"/>
    <tag k="ref:vcgi:esiteid" v="758213"/>
  </node>
  <node id="-1013" visible="true" lat="43.20996744" lon="-72.4771102">
    <!-- multiple: "315 Parker Hill Road, , VT" Multiple exact matches in OSM. -->
    <tag k="addr:housenumber" v="315"/>
    <tag k="addr:street" v="Parker Hill Road"/>
    <tag k="addr:state" v="VT"/>
    <tag k="ref:vcgi:esiteid" v="758214"/>
  </node>
  <node id="-1031" visible="true" lat="43.13181141" lon="-72.5172668">
    <!-- multiple: "72 Westminster West Road, , VT" Multiple exact matches in OSM. -->
    <tag k="addr:housenumber" v="72"/>
    <tag k="addr:street" v="Westminster West Road"/>
    <tag k="addr:state" v="VT"/>
    <tag k="ref:vcgi:esiteid" v="763801"/>
  </node>
</osm>
