<?xml version="1.0" encoding="UTF-8"?>
<osm version="0.6" generator="JOSM" upload="false">
  <node id="-547" visible="true" lat="43.16848373" lon="-72.45516204">
    <tag k="addr:housenumber" v="9"/>
    <tag k="addr:street" v="Spencer Drive"/>
    <tag k="addr:state" v="VT"/>
    <tag k="ref:vcgi:esiteid" v="203452"/>
  </node>
  <node id="-913" visible="true" lat="43.15928135" lon="-72.50078109">
    <tag k="addr:housenumber" v="450"/>
    <tag k="addr:street" v="Rockingham Hill Road"/>
    <tag k="addr:state" v="VT"/>
    <tag k="ref:vcgi:esiteid" v="205219"/>
  </node>
  <node id="-1047" visible="true" lat="43.15331542" lon="-72.49036443">
    <tag k="addr:housenumber" v="121"/>
    <tag k="addr:street" v="Paradise Hill Road"/>
    <tag k="addr:state" v="VT"/>
    <tag k="ref:vcgi:esiteid" v="771554"/>
  </node>
  <node id="-1048" visible="true" lat="43.14989934" lon="-72.55510589">
    <tag k="addr:housenumber" v="9"/>
    <tag k="addr:street" v="Schoolhouse Road"/>
    <tag k="addr:state" v="VT"/>
    <tag k="ref:vcgi:esiteid" v="771984"/>
  </node>
</osm>
