<?xml version="1.0" encoding="UTF-8"?>
<osm version="0.6" generator="JOSM" upload="false">
  <node id="-103" visible="true" lat="43.31121293" lon="-73.175735">
    <!-- offset: "8252 Vermont Route 30, , VT" Significant offset - 145.7m -->
    <tag k="addr:housenumber" v="8252"/>
    <tag k="addr:street" v="Vermont Route 30"/>
    <tag k="addr:state" v="VT"/>
    <tag k="ref:vcgi:esiteid" v="185884"/>
  </node>
  <node id="-119" visible="true" lat="43.30984255" lon="-73.15081644">
    <!-- offset: "484 Herrick Brook Road, , VT" Significant offset - 136.2m -->
    <tag k="addr:housenumber" v="484"/>
    <tag k="addr:street" v="Herrick Brook Road"/>
    <tag k="addr:state" v="VT"/>
    <tag k="ref:vcgi:esiteid" v="207031"/>
  </node>
  <node id="-120" visible="true" lat="43.30893628" lon="-73.17132491">
    <!-- offset: "8218 Vermont Route 30, , VT" Significant offset - 310.1m -->
    <tag k="addr:housenumber" v="8218"/>
    <tag k="addr:street" v="Vermont Route 30"/>
    <tag k="addr:state" v="VT"/>
    <tag k="ref:vcgi:esiteid" v="207032"/>
  </node>
  <node id="-146" visible="true" lat="43.30210113" lon="-73.14967346">
    <!-- offset: "2630 Vermont Route 30, , VT" Significant offset - 9698.4m -->
    <tag k="addr:housenumber" v="2630"/>
    <tag k="addr:street" v="Vermont Route 30"/>
    <tag k="addr:state" v="VT"/>
    <tag k="ref:vcgi:esiteid" v="207058"/>
  </node>
  <node id="-598" visible="true" lat="43.26534437" lon="-73.12348064">
    <!-- offset: "62 Foote Road, , VT" Significant offset - 151.6m -->
    <tag k="addr:housenumber" v="62"/>
    <tag k="addr:street" v="Foote Road"/>
    <tag k="addr:state" v="VT"/>
    <tag k="ref:vcgi:esiteid" v="336507"/>
  </node>
  <node id="-600" visible="true" lat="43.30874825" lon="-73.13143366">
    <!-- offset: "369 Neilson Road, , VT" Significant offset - 600.6m -->
    <tag k="addr:housenumber" v="369"/>
    <tag k="addr:street" v="Neilson Road"/>
    <tag k="addr:state" v="VT"/>
    <tag k="ref:vcgi:esiteid" v="340409"/>
  </node>
  <node id="-642" visible="true" lat="43.31350572" lon="-73.25273309">
    <!-- offset: "639 Edwards Lane West, , VT" Significant offset - 176.7m -->
    <tag k="addr:housenumber" v="639"/>
    <tag k="addr:street" v="Edwards Lane West"/>
    <tag k="addr:state" v="VT"/>
    <tag k="ref:vcgi:esiteid" v="765843"/>
  </node>
</osm>
