<?xml version="1.0" encoding="UTF-8"?>
<osm version="0.6" generator="JOSM" upload="false">
  <node id="-178" visible="true" lat="43.62767444" lon="-72.97610043">
    <!-- multiple: "269 North Main Street, Rutland, VT" Multiple exact matches in OSM. -->
    <tag k="addr:city" v="Rutland"/>
    <tag k="addr:housenumber" v="269"/>
    <tag k="addr:street" v="North Main Street"/>
    <tag k="addr:state" v="VT"/>
    <tag k="ref:vcgi:esiteid" v="207568"/>
  </node>
  <node id="-180" visible="true" lat="43.62767601" lon="-72.97658927">
    <!-- multiple: "269 North Main Street, Rutland, VT" Multiple exact matches in OSM. -->
    <tag k="addr:city" v="Rutland"/>
    <tag k="addr:housenumber" v="269"/>
    <tag k="addr:street" v="North Main Street"/>
    <tag k="addr:state" v="VT"/>
    <tag k="ref:vcgi:esiteid" v="207570"/>
  </node>
  <node id="-196" visible="true" lat="43.62716153" lon="-72.97629213">
    <!-- multiple: "261 North Main Street, Rutland, VT" Multiple exact matches in OSM. -->
    <tag k="addr:city" v="Rutland"/>
    <tag k="addr:housenumber" v="261"/>
    <tag k="addr:street" v="North Main Street"/>
    <tag k="addr:state" v="VT"/>
    <tag k="ref:vcgi:esiteid" v="207586"/>
  </node>
  <node id="-431" visible="true" lat="43.62288794" lon="-72.97379244">
    <!-- multiple: "198 North Main Street, Rutland, VT" Multiple exact matches in OSM. -->
    <tag k="addr:city" v="Rutland"/>
    <tag k="addr:housenumber" v="198"/>
    <tag k="addr:street" v="North Main Street"/>
    <tag k="addr:state" v="VT"/>
    <tag k="ref:vcgi:esiteid" v="207824"/>
  </node>
  <node id="-457" visible="true" lat="43.62261774" lon="-72.98363479">
    <!-- multiple: "89 Vernon Street, Rutland, VT" Multiple exact matches in OSM. -->
    <tag k="addr:city" v="Rutland"/>
    <tag k="addr:housenumber" v="89"/>
    <tag k="addr:street" v="Vernon Street"/>
    <tag k="addr:state" v="VT"/>
    <tag k="ref:vcgi:esiteid" v="207850"/>
  </node>
  <node id="-461" visible="true" lat="43.62238785" lon="-72.97428033">
    <!-- multiple: "198 North Main Street, Rutland, VT" Multiple exact matches in OSM. -->
    <tag k="addr:city" v="Rutland"/>
    <tag k="addr:housenumber" v="198"/>
    <tag k="addr:street" v="North Main Street"/>
    <tag k="addr:state" v="VT"/>
    <tag k="ref:vcgi:esiteid" v="207854"/>
  </node>
  <node id="-522" visible="true" lat="43.6221056" lon="-72.98364676">
    <!-- multiple: "89 Vernon Street, Rutland, VT" Multiple exact matches in OSM. -->
    <tag k="addr:city" v="Rutland"/>
    <tag k="addr:housenumber" v="89"/>
    <tag k="addr:street" v="Vernon Street"/>
    <tag k="addr:state" v="VT"/>
    <tag k="ref:vcgi:esiteid" v="207915"/>
  </node>
  <node id="-567" visible="true" lat="43.62133829" lon="-72.97922136">
    <!-- multiple: "178 Church Street, Rutland, VT" Multiple exact matches in OSM. -->
    <tag k="addr:city" v="Rutland"/>
    <tag k="addr:housenumber" v="178"/>
    <tag k="addr:street" v="Church Street"/>
    <tag k="addr:state" v="VT"/>
    <tag k="ref:vcgi:esiteid" v="207960"/>
  </node>
  <node id="-773" visible="true" lat="43.61957276" lon="-72.96898636">
    <!-- multiple: "43 North Street Extension, Rutland, VT" Multiple exact matches in OSM. -->
    <tag k="addr:city" v="Rutland"/>
    <tag k="addr:housenumber" v="43"/>
    <tag k="addr:street" v="North Street Extension"/>
    <tag k="addr:state" v="VT"/>
    <tag k="ref:vcgi:esiteid" v="208167"/>
  </node>
  <node id="-800" visible="true" lat="43.61934501" lon="-72.95579664">
    <!-- multiple: "217 Woodstock Avenue, Rutland, VT" Multiple exact matches in OSM. -->
    <tag k="addr:city" v="Rutland"/>
    <tag k="addr:housenumber" v="217"/>
    <tag k="addr:street" v="Woodstock Avenue"/>
    <tag k="addr:state" v="VT"/>
    <tag k="ref:vcgi:esiteid" v="208194"/>
  </node>
  <node id="-858" visible="true" lat="43.61862338" lon="-72.97456564">
    <!-- multiple: "145 North Main Street, Rutland, VT" Multiple exact matches in OSM. -->
    <tag k="addr:city" v="Rutland"/>
    <tag k="addr:housenumber" v="145"/>
    <tag k="addr:street" v="North Main Street"/>
    <tag k="addr:state" v="VT"/>
    <tag k="ref:vcgi:esiteid" v="208252"/>
  </node>
  <node id="-959" visible="true" lat="43.61777931" lon="-72.98329475">
    <!-- multiple: "89 North Street, Rutland, VT" Multiple exact matches in OSM. -->
    <tag k="addr:city" v="Rutland"/>
    <tag k="addr:housenumber" v="89"/>
    <tag k="addr:street" v="North Street"/>
    <tag k="addr:state" v="VT"/>
    <tag k="ref:vcgi:esiteid" v="208353"/>
  </node>
  <node id="-971" visible="true" lat="43.61796129" lon="-72.96191269">
    <!-- multiple: "117 Temple Street, Rutland, VT" Multiple exact matches in OSM. -->
    <tag k="addr:city" v="Rutland"/>
    <tag k="addr:housenumber" v="117"/>
    <tag k="addr:street" v="Temple Street"/>
    <tag k="addr:state" v="VT"/>
    <tag k="ref:vcgi:esiteid" v="208365"/>
  </node>
  <node id="-987" visible="true" lat="43.61762566" lon="-72.98323957">
    <!-- multiple: "89 North Street, Rutland, VT" Multiple exact matches in OSM. -->
    <tag k="addr:city" v="Rutland"/>
    <tag k="addr:housenumber" v="89"/>
    <tag k="addr:street" v="North Street"/>
    <tag k="addr:state" v="VT"/>
    <tag k="ref:vcgi:esiteid" v="208382"/>
  </node>
  <node id="-998" visible="true" lat="43.6174119" lon="-72.95756011">
    <!-- multiple: "194 Woodstock Avenue, Rutland, VT" Multiple exact matches in OSM. -->
    <tag k="addr:city" v="Rutland"/>
    <tag k="addr:housenumber" v="194"/>
    <tag k="addr:street" v="Woodstock Avenue"/>
    <tag k="addr:state" v="VT"/>
    <tag k="ref:vcgi:esiteid" v="208393"/>
  </node>
  <node id="-1011" visible="true" lat="43.61746048" lon="-72.95923895">
    <!-- multiple: "165 Woodstock Avenue, Rutland, VT" Multiple exact matches in OSM. -->
    <tag k="addr:city" v="Rutland"/>
    <tag k="addr:housenumber" v="165"/>
    <tag k="addr:street" v="Woodstock Avenue"/>
    <tag k="addr:state" v="VT"/>
    <tag k="ref:vcgi:esiteid" v="208406"/>
  </node>
  <node id="-1013" visible="true" lat="43.61762656" lon="-72.95461565">
    <!-- multiple: "22 Stratton Road, Rutland, VT" Multiple exact matches in OSM. -->
    <tag k="addr:city" v="Rutland"/>
    <tag k="addr:housenumber" v="22"/>
    <tag k="addr:street" v="Stratton Road"/>
    <tag k="addr:state" v="VT"/>
    <tag k="ref:vcgi:esiteid" v="208408"/>
  </node>
  <node id="-1069" visible="true" lat="43.61720195" lon="-72.95906844">
    <!-- multiple: "165 Woodstock Avenue, Rutland, VT" Multiple exact matches in OSM. -->
    <tag k="addr:city" v="Rutland"/>
    <tag k="addr:housenumber" v="165"/>
    <tag k="addr:street" v="Woodstock Avenue"/>
    <tag k="addr:state" v="VT"/>
    <tag k="ref:vcgi:esiteid" v="208466"/>
  </node>
  <node id="-1101" visible="true" lat="43.61689473" lon="-72.97668973">
    <!-- multiple: "112 Lincoln Avenue, Rutland, VT" Multiple exact matches in OSM. -->
    <tag k="addr:city" v="Rutland"/>
    <tag k="addr:housenumber" v="112"/>
    <tag k="addr:street" v="Lincoln Avenue"/>
    <tag k="addr:state" v="VT"/>
    <tag k="ref:vcgi:esiteid" v="208498"/>
  </node>
  <node id="-1123" visible="true" lat="43.61691549" lon="-72.99125449">
    <!-- multiple: "2 Oak Street Extension, Rutland, VT" Multiple exact matches in OSM. -->
    <tag k="addr:city" v="Rutland"/>
    <tag k="addr:housenumber" v="2"/>
    <tag k="addr:street" v="Oak Street Extension"/>
    <tag k="addr:state" v="VT"/>
    <tag k="ref:vcgi:esiteid" v="208520"/>
  </node>
  <node id="-1236" visible="true" lat="43.61607815" lon="-72.95657922">
    <!-- multiple: "24 Stratton Road, Rutland, VT" Multiple exact matches in OSM. -->
    <tag k="addr:city" v="Rutland"/>
    <tag k="addr:housenumber" v="24"/>
    <tag k="addr:street" v="Stratton Road"/>
    <tag k="addr:state" v="VT"/>
    <tag k="ref:vcgi:esiteid" v="208634"/>
  </node>
  <node id="-1268" visible="true" lat="43.61602894" lon="-72.95629285">
    <!-- multiple: "24 Stratton Road, Rutland, VT" Multiple exact matches in OSM. -->
    <tag k="addr:city" v="Rutland"/>
    <tag k="addr:housenumber" v="24"/>
    <tag k="addr:street" v="Stratton Road"/>
    <tag k="addr:state" v="VT"/>
    <tag k="ref:vcgi:esiteid" v="208666"/>
  </node>
  <node id="-1298" visible="true" lat="43.61584091" lon="-72.97808074">
    <!-- multiple: "46 Crescent Street, Rutland, VT" Multiple exact matches in OSM. -->
    <tag k="addr:city" v="Rutland"/>
    <tag k="addr:housenumber" v="46"/>
    <tag k="addr:street" v="Crescent Street"/>
    <tag k="addr:state" v="VT"/>
    <tag k="ref:vcgi:esiteid" v="208696"/>
  </node>
  <node id="-1354" visible="true" lat="43.61558711" lon="-72.98332812">
    <!-- multiple: "97 Crescent Street, Rutland, VT" Multiple exact matches in OSM. -->
    <tag k="addr:city" v="Rutland"/>
    <tag k="addr:housenumber" v="97"/>
    <tag k="addr:street" v="Crescent Street"/>
    <tag k="addr:state" v="VT"/>
    <tag k="ref:vcgi:esiteid" v="208754"/>
  </node>
  <node id="-1361" visible="true" lat="43.61555099" lon="-72.97786712">
    <!-- multiple: "46 Crescent Street, Rutland, VT" Multiple exact matches in OSM. -->
    <tag k="addr:city" v="Rutland"/>
    <tag k="addr:housenumber" v="46"/>
    <tag k="addr:street" v="Crescent Street"/>
    <tag k="addr:state" v="VT"/>
    <tag k="ref:vcgi:esiteid" v="208761"/>
  </node>
  <node id="-1580" visible="true" lat="43.61438763" lon="-72.9821226">
    <!-- multiple: "8 Seabury Street, Rutland, VT" Multiple exact matches in OSM. -->
    <tag k="addr:city" v="Rutland"/>
    <tag k="addr:housenumber" v="8"/>
    <tag k="addr:street" v="Seabury Street"/>
    <tag k="addr:state" v="VT"/>
    <tag k="ref:vcgi:esiteid" v="208980"/>
  </node>
  <node id="-1585" visible="true" lat="43.614408" lon="-72.98196379">
    <!-- multiple: "8 Seabury Street, Rutland, VT" Multiple exact matches in OSM. -->
    <tag k="addr:city" v="Rutland"/>
    <tag k="addr:housenumber" v="8"/>
    <tag k="addr:street" v="Seabury Street"/>
    <tag k="addr:state" v="VT"/>
    <tag k="ref:vcgi:esiteid" v="208985"/>
  </node>
  <node id="-1615" visible="true" lat="43.61432209" lon="-72.96421622">
    <!-- multiple: "99 Woodstock Avenue, Rutland, VT" Multiple exact matches in OSM. -->
    <tag k="addr:city" v="Rutland"/>
    <tag k="addr:housenumber" v="99"/>
    <tag k="addr:street" v="Woodstock Avenue"/>
    <tag k="addr:state" v="VT"/>
    <tag k="ref:vcgi:esiteid" v="209016"/>
  </node>
  <node id="-1890" visible="true" lat="43.6130173" lon="-72.96508635">
    <!-- multiple: "86 Woodstock Avenue, Rutland, VT" Multiple exact matches in OSM. -->
    <tag k="addr:city" v="Rutland"/>
    <tag k="addr:housenumber" v="86"/>
    <tag k="addr:street" v="Woodstock Avenue"/>
    <tag k="addr:state" v="VT"/>
    <tag k="ref:vcgi:esiteid" v="209293"/>
  </node>
  <node id="-2030" visible="true" lat="43.61248552" lon="-72.98474382">
    <!-- multiple: "109 Library Avenue, Rutland, VT" Multiple exact matches in OSM. -->
    <tag k="addr:city" v="Rutland"/>
    <tag k="addr:housenumber" v="109"/>
    <tag k="addr:street" v="Library Avenue"/>
    <tag k="addr:state" v="VT"/>
    <tag k="ref:vcgi:esiteid" v="209436"/>
  </node>
  <node id="-2070" visible="true" lat="43.61227416" lon="-72.98114776">
    <!-- multiple: "94 Grove Street, Rutland, VT" Multiple exact matches in OSM. -->
    <tag k="addr:city" v="Rutland"/>
    <tag k="addr:housenumber" v="94"/>
    <tag k="addr:street" v="Grove Street"/>
    <tag k="addr:state" v="VT"/>
    <tag k="ref:vcgi:esiteid" v="209477"/>
  </node>
  <node id="-2078" visible="true" lat="43.61227035" lon="-72.9845937">
    <!-- multiple: "109 Library Avenue, Rutland, VT" Multiple exact matches in OSM. -->
    <tag k="addr:city" v="Rutland"/>
    <tag k="addr:housenumber" v="109"/>
    <tag k="addr:street" v="Library Avenue"/>
    <tag k="addr:state" v="VT"/>
    <tag k="ref:vcgi:esiteid" v="209486"/>
  </node>
  <node id="-2087" visible="true" lat="43.61232276" lon="-72.98072794">
    <!-- multiple: "94 Grove Street, Rutland, VT" Multiple exact matches in OSM. -->
    <tag k="addr:city" v="Rutland"/>
    <tag k="addr:housenumber" v="94"/>
    <tag k="addr:street" v="Grove Street"/>
    <tag k="addr:state" v="VT"/>
    <tag k="ref:vcgi:esiteid" v="209495"/>
  </node>
  <node id="-2383" visible="true" lat="43.61120986" lon="-72.98427581">
    <!-- multiple: "114 Maple Street, Rutland, VT" Multiple exact matches in OSM. -->
    <tag k="addr:city" v="Rutland"/>
    <tag k="addr:housenumber" v="114"/>
    <tag k="addr:street" v="Maple Street"/>
    <tag k="addr:state" v="VT"/>
    <tag k="ref:vcgi:esiteid" v="209794"/>
  </node>
  <node id="-2434" visible="true" lat="43.61105728" lon="-72.98435211">
    <!-- multiple: "114 Maple Street, Rutland, VT" Multiple exact matches in OSM. -->
    <tag k="addr:city" v="Rutland"/>
    <tag k="addr:housenumber" v="114"/>
    <tag k="addr:street" v="Maple Street"/>
    <tag k="addr:state" v="VT"/>
    <tag k="ref:vcgi:esiteid" v="209845"/>
  </node>
  <node id="-2599" visible="true" lat="43.6106137" lon="-72.95580146">
    <!-- multiple: "7 Victor Place, Rutland, VT" Multiple exact matches in OSM. -->
    <tag k="addr:city" v="Rutland"/>
    <tag k="addr:housenumber" v="7"/>
    <tag k="addr:street" v="Victor Place"/>
    <tag k="addr:state" v="VT"/>
    <tag k="ref:vcgi:esiteid" v="210012"/>
  </node>
  <node id="-2702" visible="true" lat="43.6103161" lon="-72.95583853">
    <!-- multiple: "7 Victor Place, Rutland, VT" Multiple exact matches in OSM. -->
    <tag k="addr:city" v="Rutland"/>
    <tag k="addr:housenumber" v="7"/>
    <tag k="addr:street" v="Victor Place"/>
    <tag k="addr:state" v="VT"/>
    <tag k="ref:vcgi:esiteid" v="210116"/>
  </node>
  <node id="-2714" visible="true" lat="43.61019897" lon="-72.97459411">
    <!-- multiple: "32 Nichols Street, Rutland, VT" Multiple exact matches in OSM. -->
    <tag k="addr:city" v="Rutland"/>
    <tag k="addr:housenumber" v="32"/>
    <tag k="addr:street" v="Nichols Street"/>
    <tag k="addr:state" v="VT"/>
    <tag k="ref:vcgi:esiteid" v="210129"/>
  </node>
  <node id="-2734" visible="true" lat="43.61028626" lon="-72.97401996">
    <!-- multiple: "32 Nichols Street, Rutland, VT" Multiple exact matches in OSM. -->
    <tag k="addr:city" v="Rutland"/>
    <tag k="addr:housenumber" v="32"/>
    <tag k="addr:street" v="Nichols Street"/>
    <tag k="addr:state" v="VT"/>
    <tag k="ref:vcgi:esiteid" v="210152"/>
  </node>
  <node id="-2812" visible="true" lat="43.60979843" lon="-72.98767089">
    <!-- multiple: "40 Cleveland Avenue, Rutland, VT" Multiple exact matches in OSM. -->
    <tag k="addr:city" v="Rutland"/>
    <tag k="addr:housenumber" v="40"/>
    <tag k="addr:street" v="Cleveland Avenue"/>
    <tag k="addr:state" v="VT"/>
    <tag k="ref:vcgi:esiteid" v="210236"/>
  </node>
  <node id="-2816" visible="true" lat="43.60979859" lon="-72.98788005">
    <!-- multiple: "40 Cleveland Avenue, Rutland, VT" Multiple exact matches in OSM. -->
    <tag k="addr:city" v="Rutland"/>
    <tag k="addr:housenumber" v="40"/>
    <tag k="addr:street" v="Cleveland Avenue"/>
    <tag k="addr:state" v="VT"/>
    <tag k="ref:vcgi:esiteid" v="210240"/>
  </node>
  <node id="-2898" visible="true" lat="43.60961545" lon="-72.97535848">
    <!-- multiple: "18 Lincoln Avenue, Rutland, VT" Multiple exact matches in OSM. -->
    <tag k="addr:city" v="Rutland"/>
    <tag k="addr:housenumber" v="18"/>
    <tag k="addr:street" v="Lincoln Avenue"/>
    <tag k="addr:state" v="VT"/>
    <tag k="ref:vcgi:esiteid" v="210323"/>
  </node>
  <node id="-3051" visible="true" lat="43.60895154" lon="-72.98261677">
    <!-- multiple: "100 State Street, Rutland, VT" Multiple exact matches in OSM. -->
    <tag k="addr:city" v="Rutland"/>
    <tag k="addr:housenumber" v="100"/>
    <tag k="addr:street" v="State Street"/>
    <tag k="addr:state" v="VT"/>
    <tag k="ref:vcgi:esiteid" v="210483"/>
  </node>
  <node id="-3145" visible="true" lat="43.60855653" lon="-72.98814196">
    <!-- multiple: "162 State Street, Rutland, VT" Multiple exact matches in OSM. -->
    <tag k="addr:city" v="Rutland"/>
    <tag k="addr:housenumber" v="162"/>
    <tag k="addr:street" v="State Street"/>
    <tag k="addr:state" v="VT"/>
    <tag k="ref:vcgi:esiteid" v="210581"/>
  </node>
  <node id="-3202" visible="true" lat="43.60836791" lon="-72.98804473">
    <!-- multiple: "162 State Street, Rutland, VT" Multiple exact matches in OSM. -->
    <tag k="addr:city" v="Rutland"/>
    <tag k="addr:housenumber" v="162"/>
    <tag k="addr:street" v="State Street"/>
    <tag k="addr:state" v="VT"/>
    <tag k="ref:vcgi:esiteid" v="210638"/>
  </node>
  <node id="-3248" visible="true" lat="43.60809898" lon="-72.99218078">
    <!-- multiple: "202 State Street, Rutland, VT" Multiple exact matches in OSM. -->
    <tag k="addr:city" v="Rutland"/>
    <tag k="addr:housenumber" v="202"/>
    <tag k="addr:street" v="State Street"/>
    <tag k="addr:state" v="VT"/>
    <tag k="ref:vcgi:esiteid" v="210685"/>
  </node>
  <node id="-3283" visible="true" lat="43.60815216" lon="-72.97916469">
    <!-- multiple: "87 West Street, Rutland, VT" Multiple exact matches in OSM. -->
    <tag k="addr:city" v="Rutland"/>
    <tag k="addr:housenumber" v="87"/>
    <tag k="addr:street" v="West Street"/>
    <tag k="addr:state" v="VT"/>
    <tag k="ref:vcgi:esiteid" v="210724"/>
  </node>
  <node id="-3288" visible="true" lat="43.60790824" lon="-72.99218841">
    <!-- multiple: "202 State Street, Rutland, VT" Multiple exact matches in OSM. -->
    <tag k="addr:city" v="Rutland"/>
    <tag k="addr:housenumber" v="202"/>
    <tag k="addr:street" v="State Street"/>
    <tag k="addr:state" v="VT"/>
    <tag k="ref:vcgi:esiteid" v="210729"/>
  </node>
  <node id="-3313" visible="true" lat="43.60791176" lon="-72.98238017">
    <!-- multiple: "173 West Street, Rutland, VT" Multiple exact matches in OSM. -->
    <tag k="addr:city" v="Rutland"/>
    <tag k="addr:housenumber" v="173"/>
    <tag k="addr:street" v="West Street"/>
    <tag k="addr:state" v="VT"/>
    <tag k="ref:vcgi:esiteid" v="210756"/>
  </node>
  <node id="-3405" visible="true" lat="43.60732346" lon="-72.99751424">
    <!-- multiple: "27 Cramton Avenue, Rutland, VT" Multiple exact matches in OSM. -->
    <tag k="addr:city" v="Rutland"/>
    <tag k="addr:housenumber" v="27"/>
    <tag k="addr:street" v="Cramton Avenue"/>
    <tag k="addr:state" v="VT"/>
    <tag k="ref:vcgi:esiteid" v="210849"/>
  </node>
  <node id="-3410" visible="true" lat="43.60730182" lon="-72.99703203">
    <!-- multiple: "27 Cramton Avenue, Rutland, VT" Multiple exact matches in OSM. -->
    <tag k="addr:city" v="Rutland"/>
    <tag k="addr:housenumber" v="27"/>
    <tag k="addr:street" v="Cramton Avenue"/>
    <tag k="addr:state" v="VT"/>
    <tag k="ref:vcgi:esiteid" v="210854"/>
  </node>
  <node id="-3431" visible="true" lat="43.60728836" lon="-72.97745513">
    <!-- multiple: "24 Wales Street, Rutland, VT" Multiple exact matches in OSM. -->
    <tag k="addr:city" v="Rutland"/>
    <tag k="addr:housenumber" v="24"/>
    <tag k="addr:street" v="Wales Street"/>
    <tag k="addr:state" v="VT"/>
    <tag k="ref:vcgi:esiteid" v="210875"/>
  </node>
  <node id="-3525" visible="true" lat="43.60676429" lon="-72.97478924">
    <!-- multiple: "88 Center Street, Rutland, VT" Multiple exact matches in OSM. -->
    <tag k="addr:city" v="Rutland"/>
    <tag k="addr:housenumber" v="88"/>
    <tag k="addr:street" v="Center Street"/>
    <tag k="addr:state" v="VT"/>
    <tag k="ref:vcgi:esiteid" v="210972"/>
  </node>
  <node id="-3530" visible="true" lat="43.60665738" lon="-73.00429746">
    <!-- multiple: "25 Shedd Place, Rutland, VT" Multiple exact matches in OSM. -->
    <tag k="addr:city" v="Rutland"/>
    <tag k="addr:housenumber" v="25"/>
    <tag k="addr:street" v="Shedd Place"/>
    <tag k="addr:state" v="VT"/>
    <tag k="ref:vcgi:esiteid" v="210977"/>
  </node>
  <node id="-3549" visible="true" lat="43.60674428" lon="-72.9733873">
    <!-- multiple: "1 Nickwackett Street, Rutland, VT" Multiple exact matches in OSM. -->
    <tag k="addr:city" v="Rutland"/>
    <tag k="addr:housenumber" v="1"/>
    <tag k="addr:street" v="Nickwackett Street"/>
    <tag k="addr:state" v="VT"/>
    <tag k="ref:vcgi:esiteid" v="210996"/>
  </node>
  <node id="-3556" visible="true" lat="43.60671812" lon="-72.97356926">
    <!-- multiple: "1 Nickwackett Street, Rutland, VT" Multiple exact matches in OSM. -->
    <tag k="addr:city" v="Rutland"/>
    <tag k="addr:housenumber" v="1"/>
    <tag k="addr:street" v="Nickwackett Street"/>
    <tag k="addr:state" v="VT"/>
    <tag k="ref:vcgi:esiteid" v="211003"/>
  </node>
  <node id="-3569" visible="true" lat="43.60667785" lon="-72.97920427">
    <!-- multiple: "17 Center Street, Rutland, VT" Multiple exact matches in OSM. -->
    <tag k="addr:city" v="Rutland"/>
    <tag k="addr:housenumber" v="17"/>
    <tag k="addr:street" v="Center Street"/>
    <tag k="addr:state" v="VT"/>
    <tag k="ref:vcgi:esiteid" v="211016"/>
  </node>
  <node id="-3577" visible="true" lat="43.60654895" lon="-72.97474779">
    <!-- multiple: "88 Center Street, Rutland, VT" Multiple exact matches in OSM. -->
    <tag k="addr:city" v="Rutland"/>
    <tag k="addr:housenumber" v="88"/>
    <tag k="addr:street" v="Center Street"/>
    <tag k="addr:state" v="VT"/>
    <tag k="ref:vcgi:esiteid" v="211024"/>
  </node>
  <node id="-3584" visible="true" lat="43.606389" lon="-73.00432896">
    <!-- multiple: "25 Shedd Place, Rutland, VT" Multiple exact matches in OSM. -->
    <tag k="addr:city" v="Rutland"/>
    <tag k="addr:housenumber" v="25"/>
    <tag k="addr:street" v="Shedd Place"/>
    <tag k="addr:state" v="VT"/>
    <tag k="ref:vcgi:esiteid" v="211032"/>
  </node>
  <node id="-3791" visible="true" lat="43.60554475" lon="-72.99687399">
    <!-- multiple: "377 West Street, Rutland, VT" Multiple exact matches in OSM. -->
    <tag k="addr:city" v="Rutland"/>
    <tag k="addr:housenumber" v="377"/>
    <tag k="addr:street" v="West Street"/>
    <tag k="addr:state" v="VT"/>
    <tag k="ref:vcgi:esiteid" v="211241"/>
  </node>
  <node id="-3802" visible="true" lat="43.60546871" lon="-72.97608289">
    <!-- multiple: "36 Washington Street, Rutland, VT" Multiple exact matches in OSM. -->
    <tag k="addr:city" v="Rutland"/>
    <tag k="addr:housenumber" v="36"/>
    <tag k="addr:street" v="Washington Street"/>
    <tag k="addr:state" v="VT"/>
    <tag k="ref:vcgi:esiteid" v="211252"/>
  </node>
  <node id="-3830" visible="true" lat="43.60534496" lon="-72.99126309">
    <!-- multiple: "292 West Street, Rutland, VT" Multiple exact matches in OSM. -->
    <tag k="addr:city" v="Rutland"/>
    <tag k="addr:housenumber" v="292"/>
    <tag k="addr:street" v="West Street"/>
    <tag k="addr:state" v="VT"/>
    <tag k="ref:vcgi:esiteid" v="211280"/>
  </node>
  <node id="-3846" visible="true" lat="43.60575241" lon="-72.96659901">
    <!-- multiple: "55 Killington Avenue, Rutland, VT" Multiple exact matches in OSM. -->
    <tag k="addr:city" v="Rutland"/>
    <tag k="addr:housenumber" v="55"/>
    <tag k="addr:street" v="Killington Avenue"/>
    <tag k="addr:state" v="VT"/>
    <tag k="ref:vcgi:esiteid" v="211296"/>
  </node>
  <node id="-3858" visible="true" lat="43.60547842" lon="-72.96660125">
    <!-- multiple: "55 Killington Avenue, Rutland, VT" Multiple exact matches in OSM. -->
    <tag k="addr:city" v="Rutland"/>
    <tag k="addr:housenumber" v="55"/>
    <tag k="addr:street" v="Killington Avenue"/>
    <tag k="addr:state" v="VT"/>
    <tag k="ref:vcgi:esiteid" v="211308"/>
  </node>
  <node id="-3884" visible="true" lat="43.60516816" lon="-72.97621337">
    <!-- multiple: "36 Washington Street, Rutland, VT" Multiple exact matches in OSM. -->
    <tag k="addr:city" v="Rutland"/>
    <tag k="addr:housenumber" v="36"/>
    <tag k="addr:street" v="Washington Street"/>
    <tag k="addr:state" v="VT"/>
    <tag k="ref:vcgi:esiteid" v="211334"/>
  </node>
  <node id="-3927" visible="true" lat="43.60493579" lon="-72.99994887">
    <!-- multiple: "411 West Street, Rutland, VT" Multiple exact matches in OSM. -->
    <tag k="addr:city" v="Rutland"/>
    <tag k="addr:housenumber" v="411"/>
    <tag k="addr:street" v="West Street"/>
    <tag k="addr:state" v="VT"/>
    <tag k="ref:vcgi:esiteid" v="211377"/>
  </node>
  <node id="-4132" visible="true" lat="43.60400697" lon="-73.00333078">
    <!-- multiple: "446 West Street, Rutland, VT" Multiple exact matches in OSM. -->
    <tag k="addr:city" v="Rutland"/>
    <tag k="addr:housenumber" v="446"/>
    <tag k="addr:street" v="West Street"/>
    <tag k="addr:state" v="VT"/>
    <tag k="ref:vcgi:esiteid" v="211589"/>
  </node>
  <node id="-4152" visible="true" lat="43.60423948" lon="-72.97184037">
    <!-- multiple: "61 South Main Street, Rutland, VT" Multiple exact matches in OSM. -->
    <tag k="addr:city" v="Rutland"/>
    <tag k="addr:housenumber" v="61"/>
    <tag k="addr:street" v="South Main Street"/>
    <tag k="addr:state" v="VT"/>
    <tag k="ref:vcgi:esiteid" v="211609"/>
  </node>
  <node id="-4203" visible="true" lat="43.60381095" lon="-72.95683014">
    <!-- multiple: "195 Stratton Road, Rutland, VT" Multiple exact matches in OSM. -->
    <tag k="addr:city" v="Rutland"/>
    <tag k="addr:housenumber" v="195"/>
    <tag k="addr:street" v="Stratton Road"/>
    <tag k="addr:state" v="VT"/>
    <tag k="ref:vcgi:esiteid" v="211661"/>
  </node>
  <node id="-4377" visible="true" lat="43.60220246" lon="-72.98539143">
    <!-- multiple: "134 Convent Avenue, Rutland, VT" Multiple exact matches in OSM. -->
    <tag k="addr:city" v="Rutland"/>
    <tag k="addr:housenumber" v="134"/>
    <tag k="addr:street" v="Convent Avenue"/>
    <tag k="addr:state" v="VT"/>
    <tag k="ref:vcgi:esiteid" v="211842"/>
  </node>
  <node id="-4490" visible="true" lat="43.60193124" lon="-72.98137518">
    <!-- multiple: "93 River Street, Rutland, VT" Multiple exact matches in OSM. -->
    <tag k="addr:city" v="Rutland"/>
    <tag k="addr:housenumber" v="93"/>
    <tag k="addr:street" v="River Street"/>
    <tag k="addr:state" v="VT"/>
    <tag k="ref:vcgi:esiteid" v="211959"/>
  </node>
  <node id="-4515" visible="true" lat="43.60174426" lon="-72.9813455">
    <!-- multiple: "93 River Street, Rutland, VT" Multiple exact matches in OSM. -->
    <tag k="addr:city" v="Rutland"/>
    <tag k="addr:housenumber" v="93"/>
    <tag k="addr:street" v="River Street"/>
    <tag k="addr:state" v="VT"/>
    <tag k="ref:vcgi:esiteid" v="211986"/>
  </node>
  <node id="-4670" visible="true" lat="43.60081069" lon="-72.98397094">
    <!-- multiple: "97 Forest Street, Rutland, VT" Multiple exact matches in OSM. -->
    <tag k="addr:city" v="Rutland"/>
    <tag k="addr:housenumber" v="97"/>
    <tag k="addr:street" v="Forest Street"/>
    <tag k="addr:state" v="VT"/>
    <tag k="ref:vcgi:esiteid" v="212147"/>
  </node>
  <node id="-4757" visible="true" lat="43.60033035" lon="-72.97029876">
    <!-- multiple: "118 South Main Street, Rutland, VT" Multiple exact matches in OSM. -->
    <tag k="addr:city" v="Rutland"/>
    <tag k="addr:housenumber" v="118"/>
    <tag k="addr:street" v="South Main Street"/>
    <tag k="addr:state" v="VT"/>
    <tag k="ref:vcgi:esiteid" v="212238"/>
  </node>
  <node id="-4876" visible="true" lat="43.59902218" lon="-72.97744938">
    <!-- multiple: "158 Spruce Street, Rutland, VT" Multiple exact matches in OSM. -->
    <tag k="addr:city" v="Rutland"/>
    <tag k="addr:housenumber" v="158"/>
    <tag k="addr:street" v="Spruce Street"/>
    <tag k="addr:state" v="VT"/>
    <tag k="ref:vcgi:esiteid" v="212364"/>
  </node>
  <node id="-4884" visible="true" lat="43.5988121" lon="-72.97702026">
    <!-- multiple: "158 Spruce Street, Rutland, VT" Multiple exact matches in OSM. -->
    <tag k="addr:city" v="Rutland"/>
    <tag k="addr:housenumber" v="158"/>
    <tag k="addr:street" v="Spruce Street"/>
    <tag k="addr:state" v="VT"/>
    <tag k="ref:vcgi:esiteid" v="212372"/>
  </node>
  <node id="-4893" visible="true" lat="43.598578" lon="-72.97292762">
    <!-- multiple: "21 Scale Avenue, Rutland, VT" Multiple exact matches in OSM. -->
    <tag k="addr:city" v="Rutland"/>
    <tag k="addr:housenumber" v="21"/>
    <tag k="addr:street" v="Scale Avenue"/>
    <tag k="addr:state" v="VT"/>
    <tag k="ref:vcgi:esiteid" v="212386"/>
  </node>
  <node id="-4912" visible="true" lat="43.59802788" lon="-72.97073694">
    <!-- multiple: "153 South Main Street, Rutland, VT" Multiple exact matches in OSM. -->
    <tag k="addr:city" v="Rutland"/>
    <tag k="addr:housenumber" v="153"/>
    <tag k="addr:street" v="South Main Street"/>
    <tag k="addr:state" v="VT"/>
    <tag k="ref:vcgi:esiteid" v="212408"/>
  </node>
  <node id="-4945" visible="true" lat="43.59796242" lon="-72.9637439">
    <!-- multiple: "69 Allen Street, Rutland, VT" Multiple exact matches in OSM. -->
    <tag k="addr:city" v="Rutland"/>
    <tag k="addr:housenumber" v="69"/>
    <tag k="addr:street" v="Allen Street"/>
    <tag k="addr:state" v="VT"/>
    <tag k="ref:vcgi:esiteid" v="212450"/>
  </node>
  <node id="-4977" visible="true" lat="43.59729107" lon="-72.97931716">
    <!-- multiple: "93 Plain Street, Rutland, VT" Multiple exact matches in OSM. -->
    <tag k="addr:city" v="Rutland"/>
    <tag k="addr:housenumber" v="93"/>
    <tag k="addr:street" v="Plain Street"/>
    <tag k="addr:state" v="VT"/>
    <tag k="ref:vcgi:esiteid" v="212487"/>
  </node>
  <node id="-4983" visible="true" lat="43.59741298" lon="-72.97966075">
    <!-- multiple: "93 Plain Street, Rutland, VT" Multiple exact matches in OSM. -->
    <tag k="addr:city" v="Rutland"/>
    <tag k="addr:housenumber" v="93"/>
    <tag k="addr:street" v="Plain Street"/>
    <tag k="addr:state" v="VT"/>
    <tag k="ref:vcgi:esiteid" v="212493"/>
  </node>
  <node id="-5033" visible="true" lat="43.59665578" lon="-72.98015114">
    <!-- multiple: "100 Plain Street, Rutland, VT" Multiple exact matches in OSM. -->
    <tag k="addr:city" v="Rutland"/>
    <tag k="addr:housenumber" v="100"/>
    <tag k="addr:street" v="Plain Street"/>
    <tag k="addr:state" v="VT"/>
    <tag k="ref:vcgi:esiteid" v="212543"/>
  </node>
  <node id="-5044" visible="true" lat="43.59676003" lon="-72.96395016">
    <!-- multiple: "186 Mussey Street, Rutland, VT" Multiple exact matches in OSM. -->
    <tag k="addr:city" v="Rutland"/>
    <tag k="addr:housenumber" v="186"/>
    <tag k="addr:street" v="Mussey Street"/>
    <tag k="addr:state" v="VT"/>
    <tag k="ref:vcgi:esiteid" v="212555"/>
  </node>
  <node id="-5047" visible="true" lat="43.59656351" lon="-72.98044975">
    <!-- multiple: "100 Plain Street, Rutland, VT" Multiple exact matches in OSM. -->
    <tag k="addr:city" v="Rutland"/>
    <tag k="addr:housenumber" v="100"/>
    <tag k="addr:street" v="Plain Street"/>
    <tag k="addr:state" v="VT"/>
    <tag k="ref:vcgi:esiteid" v="212558"/>
  </node>
  <node id="-5050" visible="true" lat="43.59664016" lon="-72.9636565">
    <!-- multiple: "186 Mussey Street, Rutland, VT" Multiple exact matches in OSM. -->
    <tag k="addr:city" v="Rutland"/>
    <tag k="addr:housenumber" v="186"/>
    <tag k="addr:street" v="Mussey Street"/>
    <tag k="addr:state" v="VT"/>
    <tag k="ref:vcgi:esiteid" v="212561"/>
  </node>
  <node id="-5056" visible="true" lat="43.59661846" lon="-72.96379785">
    <!-- multiple: "186 Mussey Street, Rutland, VT" Multiple exact matches in OSM. -->
    <tag k="addr:city" v="Rutland"/>
    <tag k="addr:housenumber" v="186"/>
    <tag k="addr:street" v="Mussey Street"/>
    <tag k="addr:state" v="VT"/>
    <tag k="ref:vcgi:esiteid" v="212568"/>
  </node>
  <node id="-5061" visible="true" lat="43.59658447" lon="-72.96398114">
    <!-- multiple: "186 Mussey Street, Rutland, VT" Multiple exact matches in OSM. -->
    <tag k="addr:city" v="Rutland"/>
    <tag k="addr:housenumber" v="186"/>
    <tag k="addr:street" v="Mussey Street"/>
    <tag k="addr:state" v="VT"/>
    <tag k="ref:vcgi:esiteid" v="212573"/>
  </node>
  <node id="-5072" visible="true" lat="43.59637319" lon="-72.98297676">
    <!-- multiple: "159 Forest Street, Rutland, VT" Multiple exact matches in OSM. -->
    <tag k="addr:city" v="Rutland"/>
    <tag k="addr:housenumber" v="159"/>
    <tag k="addr:street" v="Forest Street"/>
    <tag k="addr:state" v="VT"/>
    <tag k="ref:vcgi:esiteid" v="212585"/>
  </node>
  <node id="-5085" visible="true" lat="43.59620132" lon="-72.98286454">
    <!-- multiple: "159 Forest Street, Rutland, VT" Multiple exact matches in OSM. -->
    <tag k="addr:city" v="Rutland"/>
    <tag k="addr:housenumber" v="159"/>
    <tag k="addr:street" v="Forest Street"/>
    <tag k="addr:state" v="VT"/>
    <tag k="ref:vcgi:esiteid" v="212599"/>
  </node>
  <node id="-5116" visible="true" lat="43.59581393" lon="-72.99466479">
    <!-- multiple: "175 Dorr Drive, Rutland, VT" Multiple exact matches in OSM. -->
    <tag k="addr:city" v="Rutland"/>
    <tag k="addr:housenumber" v="175"/>
    <tag k="addr:street" v="Dorr Drive"/>
    <tag k="addr:state" v="VT"/>
    <tag k="ref:vcgi:esiteid" v="212631"/>
  </node>
  <node id="-5173" visible="true" lat="43.59521531" lon="-72.97658928">
    <!-- multiple: "72 Park Street, Rutland, VT" Multiple exact matches in OSM. -->
    <tag k="addr:city" v="Rutland"/>
    <tag k="addr:housenumber" v="72"/>
    <tag k="addr:street" v="Park Street"/>
    <tag k="addr:state" v="VT"/>
    <tag k="ref:vcgi:esiteid" v="212688"/>
  </node>
  <node id="-5185" visible="true" lat="43.5952589" lon="-72.95324008">
    <!-- multiple: "183 Curtis Avenue, Rutland, VT" Multiple exact matches in OSM. -->
    <tag k="addr:city" v="Rutland"/>
    <tag k="addr:housenumber" v="183"/>
    <tag k="addr:street" v="Curtis Avenue"/>
    <tag k="addr:state" v="VT"/>
    <tag k="ref:vcgi:esiteid" v="212700"/>
  </node>
  <node id="-5193" visible="true" lat="43.59524337" lon="-72.95286541">
    <!-- multiple: "183 Curtis Avenue, Rutland, VT" Multiple exact matches in OSM. -->
    <tag k="addr:city" v="Rutland"/>
    <tag k="addr:housenumber" v="183"/>
    <tag k="addr:street" v="Curtis Avenue"/>
    <tag k="addr:state" v="VT"/>
    <tag k="ref:vcgi:esiteid" v="212708"/>
  </node>
  <node id="-5200" visible="true" lat="43.59506009" lon="-72.95313514">
    <!-- multiple: "183 Curtis Avenue, Rutland, VT" Multiple exact matches in OSM. -->
    <tag k="addr:city" v="Rutland"/>
    <tag k="addr:housenumber" v="183"/>
    <tag k="addr:street" v="Curtis Avenue"/>
    <tag k="addr:state" v="VT"/>
    <tag k="ref:vcgi:esiteid" v="212715"/>
  </node>
  <node id="-5217" visible="true" lat="43.59467518" lon="-72.99349512">
    <!-- multiple: "195 Dorr Drive, Rutland, VT" Multiple exact matches in OSM. -->
    <tag k="addr:city" v="Rutland"/>
    <tag k="addr:housenumber" v="195"/>
    <tag k="addr:street" v="Dorr Drive"/>
    <tag k="addr:state" v="VT"/>
    <tag k="ref:vcgi:esiteid" v="212732"/>
  </node>
  <node id="-5218" visible="true" lat="43.59483073" lon="-72.95310537">
    <!-- multiple: "183 Curtis Avenue, Rutland, VT" Multiple exact matches in OSM. -->
    <tag k="addr:city" v="Rutland"/>
    <tag k="addr:housenumber" v="183"/>
    <tag k="addr:street" v="Curtis Avenue"/>
    <tag k="addr:state" v="VT"/>
    <tag k="ref:vcgi:esiteid" v="212733"/>
  </node>
  <node id="-5232" visible="true" lat="43.59469571" lon="-72.95299587">
    <!-- multiple: "183 Curtis Avenue, Rutland, VT" Multiple exact matches in OSM. -->
    <tag k="addr:city" v="Rutland"/>
    <tag k="addr:housenumber" v="183"/>
    <tag k="addr:street" v="Curtis Avenue"/>
    <tag k="addr:state" v="VT"/>
    <tag k="ref:vcgi:esiteid" v="212747"/>
  </node>
  <node id="-5234" visible="true" lat="43.59449062" lon="-72.97596849">
    <!-- multiple: "72 Park Street, Rutland, VT" Multiple exact matches in OSM. -->
    <tag k="addr:city" v="Rutland"/>
    <tag k="addr:housenumber" v="72"/>
    <tag k="addr:street" v="Park Street"/>
    <tag k="addr:state" v="VT"/>
    <tag k="ref:vcgi:esiteid" v="212749"/>
  </node>
  <node id="-5235" visible="true" lat="43.59441129" lon="-72.99335345">
    <!-- multiple: "199 Dorr Drive, Rutland, VT" Multiple exact matches in OSM. -->
    <tag k="addr:city" v="Rutland"/>
    <tag k="addr:housenumber" v="199"/>
    <tag k="addr:street" v="Dorr Drive"/>
    <tag k="addr:state" v="VT"/>
    <tag k="ref:vcgi:esiteid" v="212750"/>
  </node>
  <node id="-5238" visible="true" lat="43.59462479" lon="-72.99386154">
    <!-- multiple: "195 Dorr Drive, Rutland, VT" Multiple exact matches in OSM. -->
    <tag k="addr:city" v="Rutland"/>
    <tag k="addr:housenumber" v="195"/>
    <tag k="addr:street" v="Dorr Drive"/>
    <tag k="addr:state" v="VT"/>
    <tag k="ref:vcgi:esiteid" v="212753"/>
  </node>
  <node id="-5298" visible="true" lat="43.59408962" lon="-72.96804138">
    <!-- multiple: "16 Chaplin Avenue, Rutland, VT" Multiple exact matches in OSM. -->
    <tag k="addr:city" v="Rutland"/>
    <tag k="addr:housenumber" v="16"/>
    <tag k="addr:street" v="Chaplin Avenue"/>
    <tag k="addr:state" v="VT"/>
    <tag k="ref:vcgi:esiteid" v="212814"/>
  </node>
  <node id="-5325" visible="true" lat="43.59358952" lon="-72.96817524">
    <!-- multiple: "16 Chaplin Avenue, Rutland, VT" Multiple exact matches in OSM. -->
    <tag k="addr:city" v="Rutland"/>
    <tag k="addr:housenumber" v="16"/>
    <tag k="addr:street" v="Chaplin Avenue"/>
    <tag k="addr:state" v="VT"/>
    <tag k="ref:vcgi:esiteid" v="212841"/>
  </node>
  <node id="-5343" visible="true" lat="43.59341974" lon="-72.99290526">
    <!-- multiple: "219 Dorr Drive, Rutland, VT" Multiple exact matches in OSM. -->
    <tag k="addr:city" v="Rutland"/>
    <tag k="addr:housenumber" v="219"/>
    <tag k="addr:street" v="Dorr Drive"/>
    <tag k="addr:state" v="VT"/>
    <tag k="ref:vcgi:esiteid" v="212859"/>
  </node>
  <node id="-5379" visible="true" lat="43.59308331" lon="-72.97111636">
    <!-- multiple: "20 Dana Avenue, Rutland, VT" Multiple exact matches in OSM. -->
    <tag k="addr:city" v="Rutland"/>
    <tag k="addr:housenumber" v="20"/>
    <tag k="addr:street" v="Dana Avenue"/>
    <tag k="addr:state" v="VT"/>
    <tag k="ref:vcgi:esiteid" v="212895"/>
  </node>
  <node id="-5381" visible="true" lat="43.5930252" lon="-72.97151184">
    <!-- multiple: "20 Dana Avenue, Rutland, VT" Multiple exact matches in OSM. -->
    <tag k="addr:city" v="Rutland"/>
    <tag k="addr:housenumber" v="20"/>
    <tag k="addr:street" v="Dana Avenue"/>
    <tag k="addr:state" v="VT"/>
    <tag k="ref:vcgi:esiteid" v="212897"/>
  </node>
  <node id="-5396" visible="true" lat="43.5927901" lon="-72.95921338">
    <!-- multiple: "30 Billings Mobile Manor, Rutland, VT" Multiple exact matches in OSM. -->
    <tag k="addr:city" v="Rutland"/>
    <tag k="addr:housenumber" v="30"/>
    <tag k="addr:street" v="Billings Mobile Manor"/>
    <tag k="addr:state" v="VT"/>
    <tag k="ref:vcgi:esiteid" v="212912"/>
  </node>
  <node id="-5430" visible="true" lat="43.59254908" lon="-72.95924122">
    <!-- multiple: "30 Billings Mobile Manor, Rutland, VT" Multiple exact matches in OSM. -->
    <tag k="addr:city" v="Rutland"/>
    <tag k="addr:housenumber" v="30"/>
    <tag k="addr:street" v="Billings Mobile Manor"/>
    <tag k="addr:state" v="VT"/>
    <tag k="ref:vcgi:esiteid" v="212946"/>
  </node>
  <node id="-5441" visible="true" lat="43.5924519" lon="-72.95703066">
    <!-- multiple: "18 Billings Mobile Manor, Rutland, VT" Multiple exact matches in OSM. -->
    <tag k="addr:city" v="Rutland"/>
    <tag k="addr:housenumber" v="18"/>
    <tag k="addr:street" v="Billings Mobile Manor"/>
    <tag k="addr:state" v="VT"/>
    <tag k="ref:vcgi:esiteid" v="212957"/>
  </node>
  <node id="-5448" visible="true" lat="43.59242566" lon="-72.95722912">
    <!-- multiple: "18 Billings Mobile Manor, Rutland, VT" Multiple exact matches in OSM. -->
    <tag k="addr:city" v="Rutland"/>
    <tag k="addr:housenumber" v="18"/>
    <tag k="addr:street" v="Billings Mobile Manor"/>
    <tag k="addr:state" v="VT"/>
    <tag k="ref:vcgi:esiteid" v="212964"/>
  </node>
  <node id="-5461" visible="true" lat="43.59227993" lon="-72.96518866">
    <!-- multiple: "25 Curtis Avenue, Rutland, VT" Multiple exact matches in OSM. -->
    <tag k="addr:city" v="Rutland"/>
    <tag k="addr:housenumber" v="25"/>
    <tag k="addr:street" v="Curtis Avenue"/>
    <tag k="addr:state" v="VT"/>
    <tag k="ref:vcgi:esiteid" v="212977"/>
  </node>
  <node id="-5463" visible="true" lat="43.59233088" lon="-72.95671381">
    <!-- multiple: "19 Billings Mobile Manor, Rutland, VT" Multiple exact matches in OSM. -->
    <tag k="addr:city" v="Rutland"/>
    <tag k="addr:housenumber" v="19"/>
    <tag k="addr:street" v="Billings Mobile Manor"/>
    <tag k="addr:state" v="VT"/>
    <tag k="ref:vcgi:esiteid" v="212979"/>
  </node>
  <node id="-5469" visible="true" lat="43.59224156" lon="-72.96639564">
    <!-- multiple: "25 Curtis Avenue, Rutland, VT" Multiple exact matches in OSM. -->
    <tag k="addr:city" v="Rutland"/>
    <tag k="addr:housenumber" v="25"/>
    <tag k="addr:street" v="Curtis Avenue"/>
    <tag k="addr:state" v="VT"/>
    <tag k="ref:vcgi:esiteid" v="212985"/>
  </node>
  <node id="-5472" visible="true" lat="43.59225731" lon="-72.95700081">
    <!-- multiple: "19 Billings Mobile Manor, Rutland, VT" Multiple exact matches in OSM. -->
    <tag k="addr:city" v="Rutland"/>
    <tag k="addr:housenumber" v="19"/>
    <tag k="addr:street" v="Billings Mobile Manor"/>
    <tag k="addr:state" v="VT"/>
    <tag k="ref:vcgi:esiteid" v="212988"/>
  </node>
  <node id="-5475" visible="true" lat="43.59226909" lon="-72.96569685">
    <!-- multiple: "25 Curtis Avenue, Rutland, VT" Multiple exact matches in OSM. -->
    <tag k="addr:city" v="Rutland"/>
    <tag k="addr:housenumber" v="25"/>
    <tag k="addr:street" v="Curtis Avenue"/>
    <tag k="addr:state" v="VT"/>
    <tag k="ref:vcgi:esiteid" v="212991"/>
  </node>
  <node id="-5476" visible="true" lat="43.5922296" lon="-72.96080194">
    <!-- multiple: "92 Curtis Avenue, Rutland, VT" Multiple exact matches in OSM. -->
    <tag k="addr:city" v="Rutland"/>
    <tag k="addr:housenumber" v="92"/>
    <tag k="addr:street" v="Curtis Avenue"/>
    <tag k="addr:state" v="VT"/>
    <tag k="ref:vcgi:esiteid" v="212992"/>
  </node>
  <node id="-5501" visible="true" lat="43.59216885" lon="-72.96060892">
    <!-- multiple: "92 Curtis Avenue, Rutland, VT" Multiple exact matches in OSM. -->
    <tag k="addr:city" v="Rutland"/>
    <tag k="addr:housenumber" v="92"/>
    <tag k="addr:street" v="Curtis Avenue"/>
    <tag k="addr:state" v="VT"/>
    <tag k="ref:vcgi:esiteid" v="213019"/>
  </node>
  <node id="-5512" visible="true" lat="43.59194075" lon="-72.96971093">
    <!-- multiple: "239 South Main Street, Rutland, VT" Multiple exact matches in OSM. -->
    <tag k="addr:city" v="Rutland"/>
    <tag k="addr:housenumber" v="239"/>
    <tag k="addr:street" v="South Main Street"/>
    <tag k="addr:state" v="VT"/>
    <tag k="ref:vcgi:esiteid" v="213030"/>
  </node>
  <node id="-5581" visible="true" lat="43.62457938" lon="-72.97472833">
    <!-- multiple: "230 North Main Street, Rutland, VT" Multiple exact matches in OSM. -->
    <tag k="addr:city" v="Rutland"/>
    <tag k="addr:housenumber" v="230"/>
    <tag k="addr:street" v="North Main Street"/>
    <tag k="addr:state" v="VT"/>
    <tag k="ref:vcgi:esiteid" v="213508"/>
  </node>
  <node id="-5582" visible="true" lat="43.62497607" lon="-72.97407998">
    <!-- multiple: "230 North Main Street, Rutland, VT" Multiple exact matches in OSM. -->
    <tag k="addr:city" v="Rutland"/>
    <tag k="addr:housenumber" v="230"/>
    <tag k="addr:street" v="North Main Street"/>
    <tag k="addr:state" v="VT"/>
    <tag k="ref:vcgi:esiteid" v="213509"/>
  </node>
  <node id="-5583" visible="true" lat="43.62517166" lon="-72.97457885">
    <!-- multiple: "230 North Main Street, Rutland, VT" Multiple exact matches in OSM. -->
    <tag k="addr:city" v="Rutland"/>
    <tag k="addr:housenumber" v="230"/>
    <tag k="addr:street" v="North Main Street"/>
    <tag k="addr:state" v="VT"/>
    <tag k="ref:vcgi:esiteid" v="213510"/>
  </node>
  <node id="-5584" visible="true" lat="43.62515258" lon="-72.97492218">
    <!-- multiple: "230 North Main Street, Rutland, VT" Multiple exact matches in OSM. -->
    <tag k="addr:city" v="Rutland"/>
    <tag k="addr:housenumber" v="230"/>
    <tag k="addr:street" v="North Main Street"/>
    <tag k="addr:state" v="VT"/>
    <tag k="ref:vcgi:esiteid" v="213511"/>
  </node>
  <node id="-5644" visible="true" lat="43.6079486" lon="-72.98092697">
    <!-- multiple: "47 Merchants Row, Rutland, VT" Multiple exact matches in OSM. -->
    <tag k="addr:city" v="Rutland"/>
    <tag k="addr:housenumber" v="47"/>
    <tag k="addr:street" v="Merchants Row"/>
    <tag k="addr:state" v="VT"/>
    <tag k="ref:vcgi:esiteid" v="213580"/>
  </node>
  <node id="-5674" visible="true" lat="43.59413443" lon="-72.99366118">
    <!-- multiple: "199 Dorr Drive, Rutland, VT" Multiple exact matches in OSM. -->
    <tag k="addr:city" v="Rutland"/>
    <tag k="addr:housenumber" v="199"/>
    <tag k="addr:street" v="Dorr Drive"/>
    <tag k="addr:state" v="VT"/>
    <tag k="ref:vcgi:esiteid" v="213638"/>
  </node>
  <node id="-5675" visible="true" lat="43.59201948" lon="-72.99345319">
    <!-- multiple: "227 Dorr Drive, Rutland, VT" Multiple exact matches in OSM. -->
    <tag k="addr:city" v="Rutland"/>
    <tag k="addr:housenumber" v="227"/>
    <tag k="addr:street" v="Dorr Drive"/>
    <tag k="addr:state" v="VT"/>
    <tag k="ref:vcgi:esiteid" v="213639"/>
  </node>
  <node id="-5683" visible="true" lat="43.59756631" lon="-72.96753915">
    <!-- multiple: "33 Allen Street, Rutland, VT" Multiple exact matches in OSM. -->
    <tag k="addr:city" v="Rutland"/>
    <tag k="addr:housenumber" v="33"/>
    <tag k="addr:street" v="Allen Street"/>
    <tag k="addr:state" v="VT"/>
    <tag k="ref:vcgi:esiteid" v="213647"/>
  </node>
  <node id="-5685" visible="true" lat="43.59747351" lon="-72.96665691">
    <!-- multiple: "33 Allen Street, Rutland, VT" Multiple exact matches in OSM. -->
    <tag k="addr:city" v="Rutland"/>
    <tag k="addr:housenumber" v="33"/>
    <tag k="addr:street" v="Allen Street"/>
    <tag k="addr:state" v="VT"/>
    <tag k="ref:vcgi:esiteid" v="213649"/>
  </node>
  <node id="-5686" visible="true" lat="43.59743815" lon="-72.96747876">
    <!-- multiple: "33 Allen Street, Rutland, VT" Multiple exact matches in OSM. -->
    <tag k="addr:city" v="Rutland"/>
    <tag k="addr:housenumber" v="33"/>
    <tag k="addr:street" v="Allen Street"/>
    <tag k="addr:state" v="VT"/>
    <tag k="ref:vcgi:esiteid" v="213650"/>
  </node>
  <node id="-5687" visible="true" lat="43.59744078" lon="-72.96703242">
    <!-- multiple: "33 Allen Street, Rutland, VT" Multiple exact matches in OSM. -->
    <tag k="addr:city" v="Rutland"/>
    <tag k="addr:housenumber" v="33"/>
    <tag k="addr:street" v="Allen Street"/>
    <tag k="addr:state" v="VT"/>
    <tag k="ref:vcgi:esiteid" v="213651"/>
  </node>
  <node id="-5688" visible="true" lat="43.59735133" lon="-72.96659088">
    <!-- multiple: "33 Allen Street, Rutland, VT" Multiple exact matches in OSM. -->
    <tag k="addr:city" v="Rutland"/>
    <tag k="addr:housenumber" v="33"/>
    <tag k="addr:street" v="Allen Street"/>
    <tag k="addr:state" v="VT"/>
    <tag k="ref:vcgi:esiteid" v="213652"/>
  </node>
  <node id="-5689" visible="true" lat="43.59730615" lon="-72.96740609">
    <!-- multiple: "33 Allen Street, Rutland, VT" Multiple exact matches in OSM. -->
    <tag k="addr:city" v="Rutland"/>
    <tag k="addr:housenumber" v="33"/>
    <tag k="addr:street" v="Allen Street"/>
    <tag k="addr:state" v="VT"/>
    <tag k="ref:vcgi:esiteid" v="213653"/>
  </node>
  <node id="-5690" visible="true" lat="43.59721984" lon="-72.9664928">
    <!-- multiple: "33 Allen Street, Rutland, VT" Multiple exact matches in OSM. -->
    <tag k="addr:city" v="Rutland"/>
    <tag k="addr:housenumber" v="33"/>
    <tag k="addr:street" v="Allen Street"/>
    <tag k="addr:state" v="VT"/>
    <tag k="ref:vcgi:esiteid" v="213654"/>
  </node>
  <node id="-5691" visible="true" lat="43.59716923" lon="-72.96735062">
    <!-- multiple: "33 Allen Street, Rutland, VT" Multiple exact matches in OSM. -->
    <tag k="addr:city" v="Rutland"/>
    <tag k="addr:housenumber" v="33"/>
    <tag k="addr:street" v="Allen Street"/>
    <tag k="addr:state" v="VT"/>
    <tag k="ref:vcgi:esiteid" v="213655"/>
  </node>
  <node id="-5692" visible="true" lat="43.59716899" lon="-72.96692671">
    <!-- multiple: "33 Allen Street, Rutland, VT" Multiple exact matches in OSM. -->
    <tag k="addr:city" v="Rutland"/>
    <tag k="addr:housenumber" v="33"/>
    <tag k="addr:street" v="Allen Street"/>
    <tag k="addr:state" v="VT"/>
    <tag k="ref:vcgi:esiteid" v="213656"/>
  </node>
  <node id="-5693" visible="true" lat="43.59706586" lon="-72.96642508">
    <!-- multiple: "33 Allen Street, Rutland, VT" Multiple exact matches in OSM. -->
    <tag k="addr:city" v="Rutland"/>
    <tag k="addr:housenumber" v="33"/>
    <tag k="addr:street" v="Allen Street"/>
    <tag k="addr:state" v="VT"/>
    <tag k="ref:vcgi:esiteid" v="213657"/>
  </node>
  <node id="-5694" visible="true" lat="43.59702095" lon="-72.96727863">
    <!-- multiple: "33 Allen Street, Rutland, VT" Multiple exact matches in OSM. -->
    <tag k="addr:city" v="Rutland"/>
    <tag k="addr:housenumber" v="33"/>
    <tag k="addr:street" v="Allen Street"/>
    <tag k="addr:state" v="VT"/>
    <tag k="ref:vcgi:esiteid" v="213658"/>
  </node>
  <node id="-5695" visible="true" lat="43.59688035" lon="-72.96721206">
    <!-- multiple: "33 Allen Street, Rutland, VT" Multiple exact matches in OSM. -->
    <tag k="addr:city" v="Rutland"/>
    <tag k="addr:housenumber" v="33"/>
    <tag k="addr:street" v="Allen Street"/>
    <tag k="addr:state" v="VT"/>
    <tag k="ref:vcgi:esiteid" v="213659"/>
  </node>
  <node id="-5696" visible="true" lat="43.59692463" lon="-72.96638058">
    <!-- multiple: "33 Allen Street, Rutland, VT" Multiple exact matches in OSM. -->
    <tag k="addr:city" v="Rutland"/>
    <tag k="addr:housenumber" v="33"/>
    <tag k="addr:street" v="Allen Street"/>
    <tag k="addr:state" v="VT"/>
    <tag k="ref:vcgi:esiteid" v="213660"/>
  </node>
  <node id="-5697" visible="true" lat="43.59687911" lon="-72.96678718">
    <!-- multiple: "33 Allen Street, Rutland, VT" Multiple exact matches in OSM. -->
    <tag k="addr:city" v="Rutland"/>
    <tag k="addr:housenumber" v="33"/>
    <tag k="addr:street" v="Allen Street"/>
    <tag k="addr:state" v="VT"/>
    <tag k="ref:vcgi:esiteid" v="213661"/>
  </node>
  <node id="-5698" visible="true" lat="43.59672643" lon="-72.96714009">
    <!-- multiple: "33 Allen Street, Rutland, VT" Multiple exact matches in OSM. -->
    <tag k="addr:city" v="Rutland"/>
    <tag k="addr:housenumber" v="33"/>
    <tag k="addr:street" v="Allen Street"/>
    <tag k="addr:state" v="VT"/>
    <tag k="ref:vcgi:esiteid" v="213662"/>
  </node>
  <node id="-5701" visible="true" lat="43.59848321" lon="-72.96284209">
    <!-- multiple: "71 Allen Street, Rutland, VT" Multiple exact matches in OSM. -->
    <tag k="addr:city" v="Rutland"/>
    <tag k="addr:housenumber" v="71"/>
    <tag k="addr:street" v="Allen Street"/>
    <tag k="addr:state" v="VT"/>
    <tag k="ref:vcgi:esiteid" v="213665"/>
  </node>
  <node id="-5702" visible="true" lat="43.59859786" lon="-72.96386514">
    <!-- multiple: "69 Allen Street, Rutland, VT" Multiple exact matches in OSM. -->
    <tag k="addr:city" v="Rutland"/>
    <tag k="addr:housenumber" v="69"/>
    <tag k="addr:street" v="Allen Street"/>
    <tag k="addr:state" v="VT"/>
    <tag k="ref:vcgi:esiteid" v="213666"/>
  </node>
  <node id="-5733" visible="true" lat="43.60765782" lon="-72.97918356">
    <!-- multiple: "102 West Street, Rutland, VT" Multiple exact matches in OSM. -->
    <tag k="addr:city" v="Rutland"/>
    <tag k="addr:housenumber" v="102"/>
    <tag k="addr:street" v="West Street"/>
    <tag k="addr:state" v="VT"/>
    <tag k="ref:vcgi:esiteid" v="213701"/>
  </node>
  <node id="-5755" visible="true" lat="43.60655727" lon="-72.98288949">
    <!-- multiple: "45 Union Street, Rutland, VT" Multiple exact matches in OSM. -->
    <tag k="addr:city" v="Rutland"/>
    <tag k="addr:housenumber" v="45"/>
    <tag k="addr:street" v="Union Street"/>
    <tag k="addr:state" v="VT"/>
    <tag k="ref:vcgi:esiteid" v="315439"/>
  </node>
  <node id="-5765" visible="true" lat="43.60801746" lon="-72.97665747">
    <!-- multiple: "50 West Street, Rutland, VT" Multiple exact matches in OSM. -->
    <tag k="addr:city" v="Rutland"/>
    <tag k="addr:housenumber" v="50"/>
    <tag k="addr:street" v="West Street"/>
    <tag k="addr:state" v="VT"/>
    <tag k="ref:vcgi:esiteid" v="327442"/>
  </node>
  <node id="-5796" visible="true" lat="43.59536552" lon="-72.964349">
    <!-- multiple: "205 Mussey Street, Rutland, VT" Multiple exact matches in OSM. -->
    <tag k="addr:city" v="Rutland"/>
    <tag k="addr:housenumber" v="205"/>
    <tag k="addr:street" v="Mussey Street"/>
    <tag k="addr:state" v="VT"/>
    <tag k="ref:vcgi:esiteid" v="339700"/>
  </node>
  <node id="-5797" visible="true" lat="43.59541521" lon="-72.96396045">
    <!-- multiple: "205 Mussey Street, Rutland, VT" Multiple exact matches in OSM. -->
    <tag k="addr:city" v="Rutland"/>
    <tag k="addr:housenumber" v="205"/>
    <tag k="addr:street" v="Mussey Street"/>
    <tag k="addr:state" v="VT"/>
    <tag k="ref:vcgi:esiteid" v="339701"/>
  </node>
  <node id="-5804" visible="true" lat="43.59918858" lon="-72.9625875">
    <!-- multiple: "71 Allen Street, Rutland, VT" Multiple exact matches in OSM. -->
    <tag k="addr:city" v="Rutland"/>
    <tag k="addr:housenumber" v="71"/>
    <tag k="addr:street" v="Allen Street"/>
    <tag k="addr:state" v="VT"/>
    <tag k="ref:vcgi:esiteid" v="339708"/>
  </node>
  <node id="-5805" visible="true" lat="43.59870596" lon="-72.96248126">
    <!-- multiple: "71 Allen Street, Rutland, VT" Multiple exact matches in OSM. -->
    <tag k="addr:city" v="Rutland"/>
    <tag k="addr:housenumber" v="71"/>
    <tag k="addr:street" v="Allen Street"/>
    <tag k="addr:state" v="VT"/>
    <tag k="ref:vcgi:esiteid" v="339709"/>
  </node>
  <node id="-5808" visible="true" lat="43.59853657" lon="-72.96443074">
    <!-- multiple: "69 Allen Street, Rutland, VT" Multiple exact matches in OSM. -->
    <tag k="addr:city" v="Rutland"/>
    <tag k="addr:housenumber" v="69"/>
    <tag k="addr:street" v="Allen Street"/>
    <tag k="addr:state" v="VT"/>
    <tag k="ref:vcgi:esiteid" v="339712"/>
  </node>
  <node id="-5914" visible="true" lat="43.59877715" lon="-72.96310119">
    <!-- multiple: "71 Allen Street, Rutland, VT" Multiple exact matches in OSM. -->
    <tag k="addr:city" v="Rutland"/>
    <tag k="addr:housenumber" v="71"/>
    <tag k="addr:street" v="Allen Street"/>
    <tag k="addr:state" v="VT"/>
    <tag k="ref:vcgi:esiteid" v="340999"/>
  </node>
  <node id="-5960" visible="true" lat="43.59568654" lon="-72.97658768">
    <!-- multiple: "71 Park Street, Rutland, VT" Multiple exact matches in OSM. -->
    <tag k="addr:city" v="Rutland"/>
    <tag k="addr:housenumber" v="71"/>
    <tag k="addr:street" v="Park Street"/>
    <tag k="addr:state" v="VT"/>
    <tag k="ref:vcgi:esiteid" v="343829"/>
  </node>
  <node id="-6069" visible="true" lat="43.60440902" lon="-72.97228114">
    <!-- multiple: "61 South Main Street, Rutland, VT" Multiple exact matches in OSM. -->
    <tag k="addr:city" v="Rutland"/>
    <tag k="addr:housenumber" v="61"/>
    <tag k="addr:street" v="South Main Street"/>
    <tag k="addr:state" v="VT"/>
    <tag k="ref:vcgi:esiteid" v="445203"/>
  </node>
  <node id="-6181" visible="true" lat="43.59594408" lon="-72.99434958">
    <!-- multiple: "175 Dorr Drive, Rutland, VT" Multiple exact matches in OSM. -->
    <tag k="addr:city" v="Rutland"/>
    <tag k="addr:housenumber" v="175"/>
    <tag k="addr:street" v="Dorr Drive"/>
    <tag k="addr:state" v="VT"/>
    <tag k="ref:vcgi:esiteid" v="617557"/>
  </node>
  <node id="-6201" visible="true" lat="43.59235659" lon="-72.99390864">
    <!-- multiple: "227 Dorr Drive, Rutland, VT" Multiple exact matches in OSM. -->
    <tag k="addr:city" v="Rutland"/>
    <tag k="addr:housenumber" v="227"/>
    <tag k="addr:street" v="Dorr Drive"/>
    <tag k="addr:state" v="VT"/>
    <tag k="ref:vcgi:esiteid" v="750706"/>
  </node>
  <node id="-6202" visible="true" lat="43.5925609" lon="-72.99399419">
    <!-- multiple: "227 Dorr Drive, Rutland, VT" Multiple exact matches in OSM. -->
    <tag k="addr:city" v="Rutland"/>
    <tag k="addr:housenumber" v="227"/>
    <tag k="addr:street" v="Dorr Drive"/>
    <tag k="addr:state" v="VT"/>
    <tag k="ref:vcgi:esiteid" v="750707"/>
  </node>
  <node id="-6264" visible="true" lat="43.60379884" lon="-72.95729476">
    <!-- multiple: "195 Stratton Road, Rutland, VT" Multiple exact matches in OSM. -->
    <tag k="addr:city" v="Rutland"/>
    <tag k="addr:housenumber" v="195"/>
    <tag k="addr:street" v="Stratton Road"/>
    <tag k="addr:state" v="VT"/>
    <tag k="ref:vcgi:esiteid" v="753368"/>
  </node>
  <node id="-6286" visible="true" lat="43.60595901" lon="-72.98271441">
    <!-- multiple: "45 Union Street, Rutland, VT" Multiple exact matches in OSM. -->
    <tag k="addr:city" v="Rutland"/>
    <tag k="addr:housenumber" v="45"/>
    <tag k="addr:street" v="Union Street"/>
    <tag k="addr:state" v="VT"/>
    <tag k="ref:vcgi:esiteid" v="755461"/>
  </node>
</osm>
