<?xml version="1.0" encoding="UTF-8"?>
<osm version="0.6" generator="JOSM" upload="false">
  <node id="-788" visible="true" lat="43.63060576" lon="-72.97680249">
    <tag k="addr:housenumber" v="39"/>
    <tag k="addr:street" v="Lincoln Avenue"/>
    <tag k="addr:state" v="VT"/>
    <tag k="ref:vcgi:esiteid" v="214414"/>
  </node>
  <node id="-2033" visible="true" lat="43.63741054" lon="-73.00672083">
    <tag k="addr:housenumber" v="1582"/>
    <tag k="addr:street" v="McKinley Avenue"/>
    <tag k="addr:state" v="VT"/>
    <tag k="ref:vcgi:esiteid" v="771319"/>
  </node>
  <node id="-2034" visible="true" lat="43.58211891" lon="-73.00199783">
    <tag k="addr:housenumber" v="945"/>
    <tag k="addr:street" v="Quarterline Road"/>
    <tag k="addr:state" v="VT"/>
    <tag k="ref:vcgi:esiteid" v="771365"/>
  </node>
  <node id="-2035" visible="true" lat="43.62882578" lon="-72.93901508">
    <tag k="addr:housenumber" v="71"/>
    <tag k="addr:street" v="Heather Lane"/>
    <tag k="addr:state" v="VT"/>
    <tag k="ref:vcgi:esiteid" v="772316"/>
  </node>
  <node id="-2036" visible="true" lat="43.59531556" lon="-73.00849985">
    <tag k="addr:housenumber" v="95"/>
    <tag k="addr:street" v="Springbrook Place"/>
    <tag k="addr:state" v="VT"/>
    <tag k="ref:vcgi:esiteid" v="772553"/>
  </node>
  <node id="-2037" visible="true" lat="43.66119157" lon="-72.94749644">
    <tag k="addr:housenumber" v="130"/>
    <tag k="addr:street" v="Pennock Lane"/>
    <tag k="addr:state" v="VT"/>
    <tag k="ref:vcgi:esiteid" v="772618"/>
  </node>
</osm>
