<?xml version="1.0" encoding="UTF-8"?>
<osm version="0.6" generator="JOSM" upload="false">
  <node id="-394" visible="true" lat="43.62327608" lon="-72.97376776">
    <!-- offset: "198 North Main Street, Rutland, VT" Significant offset - 107m -->
    <tag k="addr:city" v="Rutland"/>
    <tag k="addr:housenumber" v="198"/>
    <tag k="addr:street" v="North Main Street"/>
    <tag k="addr:state" v="VT"/>
    <tag k="ref:vcgi:esiteid" v="207787"/>
  </node>
  <node id="-3636" visible="true" lat="43.6062314" lon="-72.98894892">
    <!-- offset: "292 West Street, Rutland, VT" Significant offset - 210.8m -->
    <tag k="addr:city" v="Rutland"/>
    <tag k="addr:housenumber" v="292"/>
    <tag k="addr:street" v="West Street"/>
    <tag k="addr:state" v="VT"/>
    <tag k="ref:vcgi:esiteid" v="211085"/>
  </node>
  <node id="-4780" visible="true" lat="43.59994237" lon="-72.97504701">
    <!-- offset: "21 Scale Avenue, Rutland, VT" Significant offset - 228.3m -->
    <tag k="addr:city" v="Rutland"/>
    <tag k="addr:housenumber" v="21"/>
    <tag k="addr:street" v="Scale Avenue"/>
    <tag k="addr:state" v="VT"/>
    <tag k="ref:vcgi:esiteid" v="212262"/>
  </node>
  <node id="-4834" visible="true" lat="43.59948696" lon="-73.00118468">
    <!-- offset: "71 Clement Road, Rutland, VT" Significant offset - 120.3m -->
    <tag k="addr:city" v="Rutland"/>
    <tag k="addr:housenumber" v="71"/>
    <tag k="addr:street" v="Clement Road"/>
    <tag k="addr:state" v="VT"/>
    <tag k="ref:vcgi:esiteid" v="212320"/>
  </node>
  <node id="-4851" visible="true" lat="43.59925002" lon="-73.00260702">
    <!-- offset: "71 Clement Road, Rutland, VT" Significant offset - 200.1m -->
    <tag k="addr:city" v="Rutland"/>
    <tag k="addr:housenumber" v="71"/>
    <tag k="addr:street" v="Clement Road"/>
    <tag k="addr:state" v="VT"/>
    <tag k="ref:vcgi:esiteid" v="212337"/>
  </node>
  <node id="-5681" visible="true" lat="43.59775069" lon="-72.96678682">
    <!-- offset: "33 Allen Street, Rutland, VT" Significant offset - 117.4m -->
    <tag k="addr:city" v="Rutland"/>
    <tag k="addr:housenumber" v="33"/>
    <tag k="addr:street" v="Allen Street"/>
    <tag k="addr:state" v="VT"/>
    <tag k="ref:vcgi:esiteid" v="213645"/>
  </node>
  <node id="-5682" visible="true" lat="43.59769058" lon="-72.96714782">
    <!-- offset: "33 Allen Street, Rutland, VT" Significant offset - 107.2m -->
    <tag k="addr:city" v="Rutland"/>
    <tag k="addr:housenumber" v="33"/>
    <tag k="addr:street" v="Allen Street"/>
    <tag k="addr:state" v="VT"/>
    <tag k="ref:vcgi:esiteid" v="213646"/>
  </node>
  <node id="-5684" visible="true" lat="43.59761954" lon="-72.96671069">
    <!-- offset: "33 Allen Street, Rutland, VT" Significant offset - 105.2m -->
    <tag k="addr:city" v="Rutland"/>
    <tag k="addr:housenumber" v="33"/>
    <tag k="addr:street" v="Allen Street"/>
    <tag k="addr:state" v="VT"/>
    <tag k="ref:vcgi:esiteid" v="213648"/>
  </node>
  <node id="-5761" visible="true" lat="43.60612155" lon="-73.00654242">
    <!-- offset: "154 Business Route 4, Rutland, VT" Significant offset - 122.9m -->
    <tag k="addr:city" v="Rutland"/>
    <tag k="addr:housenumber" v="154"/>
    <tag k="addr:street" v="Business Route 4"/>
    <tag k="addr:state" v="VT"/>
    <tag k="ref:vcgi:esiteid" v="317611"/>
  </node>
  <node id="-6192" visible="true" lat="43.6178941" lon="-72.9567293">
    <!-- offset: "8 Stratton Road, Rutland, VT" Significant offset - 189.8m -->
    <tag k="addr:city" v="Rutland"/>
    <tag k="addr:housenumber" v="8"/>
    <tag k="addr:street" v="Stratton Road"/>
    <tag k="addr:state" v="VT"/>
    <tag k="ref:vcgi:esiteid" v="620698"/>
  </node>
</osm>
