<?xml version="1.0" encoding="UTF-8"?>
<osm version="0.6" generator="JOSM" upload="false">
  <node id="-585" visible="true" lat="43.62162745" lon="-72.97925605">
    <tag k="addr:city" v="Rutland"/>
    <tag k="addr:housenumber" v="174"/>
    <tag k="addr:street" v="Church Street"/>
    <tag k="addr:state" v="VT"/>
    <tag k="ref:vcgi:esiteid" v="207978"/>
  </node>
  <node id="-2667" visible="true" lat="43.61043596" lon="-72.97205385">
    <tag k="addr:city" v="Rutland"/>
    <tag k="addr:housenumber" v="34"/>
    <tag k="addr:street" v="North Main Street"/>
    <tag k="addr:state" v="VT"/>
    <tag k="ref:vcgi:esiteid" v="210080"/>
  </node>
  <node id="-2856" visible="true" lat="43.60971849" lon="-72.97042565">
    <tag k="addr:city" v="Rutland"/>
    <tag k="addr:housenumber" v="12"/>
    <tag k="addr:street" v="Sheldon Place"/>
    <tag k="addr:state" v="VT"/>
    <tag k="ref:vcgi:esiteid" v="210281"/>
  </node>
  <node id="-4366" visible="true" lat="43.60264711" lon="-72.98418556">
    <tag k="addr:city" v="Rutland"/>
    <tag k="addr:housenumber" v="71"/>
    <tag k="addr:street" v="Forest Street"/>
    <tag k="addr:state" v="VT"/>
    <tag k="ref:vcgi:esiteid" v="211829"/>
  </node>
  <node id="-5188" visible="true" lat="43.5952822" lon="-72.96165009">
    <tag k="addr:city" v="Rutland"/>
    <tag k="addr:housenumber" v="9"/>
    <tag k="addr:street" v="Haywood Avenue"/>
    <tag k="addr:state" v="VT"/>
    <tag k="ref:vcgi:esiteid" v="212703"/>
  </node>
  <node id="-6195" visible="true" lat="43.62914154" lon="-72.98685582">
    <tag k="addr:city" v="Rutland"/>
    <tag k="addr:housenumber" v="2"/>
    <tag k="addr:street" v="Country Grove Estates"/>
    <tag k="addr:state" v="VT"/>
    <tag k="ref:vcgi:esiteid" v="646443"/>
  </node>
  <node id="-6196" visible="true" lat="43.62860562" lon="-72.98519584">
    <tag k="addr:city" v="Rutland"/>
    <tag k="addr:housenumber" v="65"/>
    <tag k="addr:street" v="Country Grove Estates"/>
    <tag k="addr:state" v="VT"/>
    <tag k="ref:vcgi:esiteid" v="646444"/>
  </node>
  <node id="-6197" visible="true" lat="43.62857021" lon="-72.98736266">
    <tag k="addr:city" v="Rutland"/>
    <tag k="addr:housenumber" v="23"/>
    <tag k="addr:street" v="Country Grove Estates"/>
    <tag k="addr:state" v="VT"/>
    <tag k="ref:vcgi:esiteid" v="646445"/>
  </node>
  <node id="-6198" visible="true" lat="43.60587925" lon="-72.99688339">
    <tag k="addr:city" v="Rutland"/>
    <tag k="addr:housenumber" v="5"/>
    <tag k="addr:street" v="Cramton Avenue"/>
    <tag k="addr:state" v="VT"/>
    <tag k="ref:vcgi:esiteid" v="646446"/>
  </node>
  <node id="-6199" visible="true" lat="43.60936651" lon="-72.98296416">
    <tag k="addr:city" v="Rutland"/>
    <tag k="addr:housenumber" v="103"/>
    <tag k="addr:street" v="State Street"/>
    <tag k="addr:state" v="VT"/>
    <tag k="ref:vcgi:esiteid" v="646447"/>
  </node>
  <node id="-6200" visible="true" lat="43.60079077" lon="-72.98433638">
    <tag k="addr:city" v="Rutland"/>
    <tag k="addr:housenumber" v="97 1/2"/>
    <tag k="addr:street" v="Forest Street"/>
    <tag k="addr:state" v="VT"/>
    <tag k="ref:vcgi:esiteid" v="655828"/>
  </node>
  <node id="-6335" visible="true" lat="43.62581702" lon="-72.97493767">
    <tag k="addr:city" v="Rutland"/>
    <tag k="addr:housenumber" v="8"/>
    <tag k="addr:street" v="Tenneybrook Court"/>
    <tag k="addr:state" v="VT"/>
    <tag k="ref:vcgi:esiteid" v="771823"/>
  </node>
  <node id="-6336" visible="true" lat="43.60444159" lon="-73.00226331">
    <tag k="addr:city" v="Rutland"/>
    <tag k="addr:housenumber" v="433"/>
    <tag k="addr:street" v="West Street"/>
    <tag k="addr:state" v="VT"/>
    <tag k="ref:vcgi:esiteid" v="771918"/>
  </node>
  <node id="-6339" visible="true" lat="43.61062226" lon="-72.98759981">
    <tag k="addr:city" v="Rutland"/>
    <tag k="addr:housenumber" v="51"/>
    <tag k="addr:street" v="Baxter Street"/>
    <tag k="addr:state" v="VT"/>
    <tag k="ref:vcgi:esiteid" v="772363"/>
  </node>
</osm>
