<?xml version="1.0" encoding="UTF-8"?>
<osm version="0.6" generator="JOSM" upload="false">
  <node id="-113" visible="true" lat="44.25943158" lon="-72.15409789">
    <!-- multiple: "956 Mosquitoville Road, , VT" Multiple exact matches in OSM. -->
    <tag k="addr:housenumber" v="956"/>
    <tag k="addr:street" v="Mosquitoville Road"/>
    <tag k="addr:state" v="VT"/>
    <tag k="ref:vcgi:esiteid" v="215519"/>
  </node>
  <node id="-520" visible="true" lat="44.18868319" lon="-72.142324">
    <!-- multiple: "1373 Creamery Road, , VT" Multiple exact matches in OSM. -->
    <tag k="addr:housenumber" v="1373"/>
    <tag k="addr:street" v="Creamery Road"/>
    <tag k="addr:state" v="VT"/>
    <tag k="ref:vcgi:esiteid" v="215939"/>
  </node>
  <node id="-809" visible="true" lat="44.16443668" lon="-72.06827118">
    <!-- multiple: "1386 Bible Hill Road, , VT" Multiple exact matches in OSM. -->
    <tag k="addr:housenumber" v="1386"/>
    <tag k="addr:street" v="Bible Hill Road"/>
    <tag k="addr:state" v="VT"/>
    <tag k="ref:vcgi:esiteid" v="750013"/>
  </node>
</osm>
