<?xml version="1.0" encoding="UTF-8"?>
<osm version="0.6" generator="JOSM" upload="false">
  <node id="-104" visible="true" lat="44.26968363" lon="-72.14455053">
    <!-- conflict: "5037 North Bayley-Hazen Road, , VT" Fuzzy match to "5037 North Bayley Hazen Road, , VT" -->
    <tag k="addr:housenumber" v="5037"/>
    <tag k="addr:street" v="North Bayley-Hazen Road"/>
    <tag k="addr:state" v="VT"/>
    <tag k="ref:vcgi:esiteid" v="215510"/>
  </node>
  <node id="-106" visible="true" lat="44.26556777" lon="-72.13615417">
    <!-- conflict: "4517 North Bayley-Hazen Road, , VT" Fuzzy match to "4517 North Bayley Hazen Road, , VT" -->
    <tag k="addr:housenumber" v="4517"/>
    <tag k="addr:street" v="North Bayley-Hazen Road"/>
    <tag k="addr:state" v="VT"/>
    <tag k="ref:vcgi:esiteid" v="215512"/>
  </node>
  <node id="-124" visible="true" lat="44.25712204" lon="-72.12792968">
    <!-- conflict: "3803 North Bayley-Hazen Road, , VT" Fuzzy match to "3803 North Bayley Hazen Road, , VT" -->
    <tag k="addr:housenumber" v="3803"/>
    <tag k="addr:street" v="North Bayley-Hazen Road"/>
    <tag k="addr:state" v="VT"/>
    <tag k="ref:vcgi:esiteid" v="215530"/>
  </node>
  <node id="-131" visible="true" lat="44.25529098" lon="-72.12564849">
    <!-- conflict: "3625 North Bayley-Hazen Road, , VT" Fuzzy match to "3625 North Bayley Hazen Road, , VT" -->
    <tag k="addr:housenumber" v="3625"/>
    <tag k="addr:street" v="North Bayley-Hazen Road"/>
    <tag k="addr:state" v="VT"/>
    <tag k="ref:vcgi:esiteid" v="215537"/>
  </node>
  <node id="-136" visible="true" lat="44.25374685" lon="-72.12475092">
    <!-- conflict: "3503 North Bayley-Hazen Road, , VT" Fuzzy match to "3503 North Bayley Hazen Road, , VT" -->
    <tag k="addr:housenumber" v="3503"/>
    <tag k="addr:street" v="North Bayley-Hazen Road"/>
    <tag k="addr:state" v="VT"/>
    <tag k="ref:vcgi:esiteid" v="215542"/>
  </node>
  <node id="-141" visible="true" lat="44.25094759" lon="-72.1238076">
    <!-- conflict: "3285 North Bayley-Hazen Road, , VT" Fuzzy match to "3285 North Bayley Hazen Road, , VT" -->
    <tag k="addr:housenumber" v="3285"/>
    <tag k="addr:street" v="North Bayley-Hazen Road"/>
    <tag k="addr:state" v="VT"/>
    <tag k="ref:vcgi:esiteid" v="215547"/>
  </node>
  <node id="-147" visible="true" lat="44.24973678" lon="-72.12166595">
    <!-- conflict: "3143 North Bayley-Hazen Road, , VT" Fuzzy match to "3143 North Bayley Hazen Road, , VT" -->
    <tag k="addr:housenumber" v="3143"/>
    <tag k="addr:street" v="North Bayley-Hazen Road"/>
    <tag k="addr:state" v="VT"/>
    <tag k="ref:vcgi:esiteid" v="215553"/>
  </node>
  <node id="-148" visible="true" lat="44.2489594" lon="-72.11944966">
    <!-- conflict: "3158 North Bayley-Hazen Road, , VT" Fuzzy match to "3158 North Bayley Hazen Road, , VT" -->
    <tag k="addr:housenumber" v="3158"/>
    <tag k="addr:street" v="North Bayley-Hazen Road"/>
    <tag k="addr:state" v="VT"/>
    <tag k="ref:vcgi:esiteid" v="215554"/>
  </node>
  <node id="-166" visible="true" lat="44.24414062" lon="-72.11586761">
    <!-- conflict: "2728 North Bayley-Hazen Road, , VT" Fuzzy match to "2728 North Bayley Hazen Road, , VT" -->
    <tag k="addr:housenumber" v="2728"/>
    <tag k="addr:street" v="North Bayley-Hazen Road"/>
    <tag k="addr:state" v="VT"/>
    <tag k="ref:vcgi:esiteid" v="215572"/>
  </node>
  <node id="-178" visible="true" lat="44.24037981" lon="-72.113043">
    <!-- conflict: "2354 North Bayley-Hazen Road, , VT" Fuzzy match to "2354 North Bayley Hazen Road, , VT" -->
    <tag k="addr:housenumber" v="2354"/>
    <tag k="addr:street" v="North Bayley-Hazen Road"/>
    <tag k="addr:state" v="VT"/>
    <tag k="ref:vcgi:esiteid" v="215586"/>
  </node>
  <node id="-190" visible="true" lat="44.23434066" lon="-72.1140213">
    <!-- conflict: "1987 North Bayley-Hazen Road, , VT" Fuzzy match to "1987 North Bayley Hazen Road, , VT" -->
    <tag k="addr:housenumber" v="1987"/>
    <tag k="addr:street" v="North Bayley-Hazen Road"/>
    <tag k="addr:state" v="VT"/>
    <tag k="ref:vcgi:esiteid" v="215599"/>
  </node>
  <node id="-202" visible="true" lat="44.23113632" lon="-72.109375">
    <!-- conflict: "1717 North Bayley-Hazen Road, , VT" Fuzzy match to "1717 North Bayley Hazen Road, , VT" -->
    <tag k="addr:housenumber" v="1717"/>
    <tag k="addr:street" v="North Bayley-Hazen Road"/>
    <tag k="addr:state" v="VT"/>
    <tag k="ref:vcgi:esiteid" v="215611"/>
  </node>
  <node id="-203" visible="true" lat="44.23035633" lon="-72.1053389">
    <!-- conflict: "1560 North Bayley-Hazen Road, , VT" Fuzzy match to "1560 North Bayley Hazen Road, , VT" -->
    <tag k="addr:housenumber" v="1560"/>
    <tag k="addr:street" v="North Bayley-Hazen Road"/>
    <tag k="addr:state" v="VT"/>
    <tag k="ref:vcgi:esiteid" v="215612"/>
  </node>
  <node id="-207" visible="true" lat="44.2297821" lon="-72.10926818">
    <!-- conflict: "1625 North Bayley-Hazen Road, , VT" Fuzzy match to "1625 North Bayley Hazen Road, , VT" -->
    <tag k="addr:housenumber" v="1625"/>
    <tag k="addr:street" v="North Bayley-Hazen Road"/>
    <tag k="addr:state" v="VT"/>
    <tag k="ref:vcgi:esiteid" v="215616"/>
  </node>
  <node id="-209" visible="true" lat="44.22894668" lon="-72.10591125">
    <!-- conflict: "1445 North Bayley-Hazen Road, , VT" Fuzzy match to "1445 North Bayley Hazen Road, , VT" -->
    <tag k="addr:housenumber" v="1445"/>
    <tag k="addr:street" v="North Bayley-Hazen Road"/>
    <tag k="addr:state" v="VT"/>
    <tag k="ref:vcgi:esiteid" v="215618"/>
  </node>
  <node id="-210" visible="true" lat="44.22880172" lon="-72.10447692">
    <!-- conflict: "1464 North Bayley-Hazen Road, , VT" Fuzzy match to "1464 North Bayley Hazen Road, , VT" -->
    <tag k="addr:housenumber" v="1464"/>
    <tag k="addr:street" v="North Bayley-Hazen Road"/>
    <tag k="addr:state" v="VT"/>
    <tag k="ref:vcgi:esiteid" v="215619"/>
  </node>
  <node id="-220" visible="true" lat="44.22355426" lon="-72.10497602">
    <!-- conflict: "1059 North Bayley-Hazen Road, , VT" Fuzzy match to "1059 North Bayley Hazen Road, , VT" -->
    <tag k="addr:housenumber" v="1059"/>
    <tag k="addr:street" v="North Bayley-Hazen Road"/>
    <tag k="addr:state" v="VT"/>
    <tag k="ref:vcgi:esiteid" v="215629"/>
  </node>
  <node id="-229" visible="true" lat="44.221138" lon="-72.10537719">
    <!-- conflict: "883 North Bayley-Hazen Road, , VT" Fuzzy match to "883 North Bayley Hazen Road, , VT" -->
    <tag k="addr:housenumber" v="883"/>
    <tag k="addr:street" v="North Bayley-Hazen Road"/>
    <tag k="addr:state" v="VT"/>
    <tag k="ref:vcgi:esiteid" v="215638"/>
  </node>
  <node id="-242" visible="true" lat="44.2164605" lon="-72.10594383">
    <!-- conflict: "571 North Bayley-Hazen Road, , VT" Fuzzy match to "571 North Bayley Hazen Road, , VT" -->
    <tag k="addr:housenumber" v="571"/>
    <tag k="addr:street" v="North Bayley-Hazen Road"/>
    <tag k="addr:state" v="VT"/>
    <tag k="ref:vcgi:esiteid" v="215652"/>
  </node>
  <node id="-253" visible="true" lat="44.21393585" lon="-72.10668945">
    <!-- conflict: "409 North Bayley-Hazen Road, , VT" Fuzzy match to "409 North Bayley Hazen Road, , VT" -->
    <tag k="addr:housenumber" v="409"/>
    <tag k="addr:street" v="North Bayley-Hazen Road"/>
    <tag k="addr:state" v="VT"/>
    <tag k="ref:vcgi:esiteid" v="215663"/>
  </node>
  <node id="-264" visible="true" lat="44.21182016" lon="-72.10483909">
    <!-- conflict: "233 North Bayley-Hazen Road, , VT" Fuzzy match to "233 North Bayley Hazen Road, , VT" -->
    <tag k="addr:housenumber" v="233"/>
    <tag k="addr:street" v="North Bayley-Hazen Road"/>
    <tag k="addr:state" v="VT"/>
    <tag k="ref:vcgi:esiteid" v="215674"/>
  </node>
  <node id="-266" visible="true" lat="44.21168341" lon="-72.10391798">
    <!-- conflict: "218 North Bayley-Hazen Road, , VT" Fuzzy match to "218 North Bayley Hazen Road, Ryegate, VT" -->
    <tag k="addr:housenumber" v="218"/>
    <tag k="addr:street" v="North Bayley-Hazen Road"/>
    <tag k="addr:state" v="VT"/>
    <tag k="ref:vcgi:esiteid" v="215676"/>
  </node>
  <node id="-281" visible="true" lat="44.20921586" lon="-72.10408974">
    <!-- conflict: "47 North Bayley-Hazen Road, , VT" Fuzzy match to "47 North Bayley Hazen Road, Ryegate, VT" -->
    <tag k="addr:housenumber" v="47"/>
    <tag k="addr:street" v="North Bayley-Hazen Road"/>
    <tag k="addr:state" v="VT"/>
    <tag k="ref:vcgi:esiteid" v="215691"/>
  </node>
  <node id="-289" visible="true" lat="44.20827843" lon="-72.10384452">
    <!-- conflict: "18 South Bayley-Hazen Road, , VT" Fuzzy match to "18 South Bayley Hazen Road, Ryegate, VT" -->
    <tag k="addr:housenumber" v="18"/>
    <tag k="addr:street" v="South Bayley-Hazen Road"/>
    <tag k="addr:state" v="VT"/>
    <tag k="ref:vcgi:esiteid" v="215700"/>
  </node>
  <node id="-299" visible="true" lat="44.20772189" lon="-72.10379928">
    <!-- conflict: "48 South Bayley-Hazen Road, , VT" Fuzzy match to "48 South Bayley Hazen Road, Ryegate, VT" -->
    <tag k="addr:housenumber" v="48"/>
    <tag k="addr:street" v="South Bayley-Hazen Road"/>
    <tag k="addr:state" v="VT"/>
    <tag k="ref:vcgi:esiteid" v="215710"/>
  </node>
  <node id="-300" visible="true" lat="44.20785067" lon="-72.10318015">
    <!-- conflict: "55 South Bayley-Hazen Road, , VT" Fuzzy match to "55 South Bayley Hazen Road, Ryegate, VT" -->
    <tag k="addr:housenumber" v="55"/>
    <tag k="addr:street" v="South Bayley-Hazen Road"/>
    <tag k="addr:state" v="VT"/>
    <tag k="ref:vcgi:esiteid" v="215711"/>
  </node>
  <node id="-301" visible="true" lat="44.20748853" lon="-72.10359621">
    <!-- conflict: "70 South Bayley-Hazen Road, , VT" Fuzzy match to "70 South Bayley Hazen Road, Ryegate, VT" -->
    <tag k="addr:housenumber" v="70"/>
    <tag k="addr:street" v="South Bayley-Hazen Road"/>
    <tag k="addr:state" v="VT"/>
    <tag k="ref:vcgi:esiteid" v="215712"/>
  </node>
  <node id="-307" visible="true" lat="44.20716105" lon="-72.10368232">
    <!-- conflict: "100 South Bayley-Hazen Road, , VT" Fuzzy match to "100 South Bayley Hazen Road, Ryegate, VT" -->
    <tag k="addr:housenumber" v="100"/>
    <tag k="addr:street" v="South Bayley-Hazen Road"/>
    <tag k="addr:state" v="VT"/>
    <tag k="ref:vcgi:esiteid" v="215719"/>
  </node>
  <node id="-310" visible="true" lat="44.20684973" lon="-72.10295105">
    <!-- conflict: "129 South Bayley-Hazen Road, , VT" Fuzzy match to "129 South Bayley Hazen Road, Ryegate, VT" -->
    <tag k="addr:housenumber" v="129"/>
    <tag k="addr:street" v="South Bayley-Hazen Road"/>
    <tag k="addr:state" v="VT"/>
    <tag k="ref:vcgi:esiteid" v="215722"/>
  </node>
  <node id="-312" visible="true" lat="44.20653274" lon="-72.10339941">
    <!-- conflict: "134 South Bayley-Hazen Road, , VT" Fuzzy match to "134 South Bayley Hazen Road, Ryegate, VT" -->
    <tag k="addr:housenumber" v="134"/>
    <tag k="addr:street" v="South Bayley-Hazen Road"/>
    <tag k="addr:state" v="VT"/>
    <tag k="ref:vcgi:esiteid" v="215724"/>
  </node>
  <node id="-314" visible="true" lat="44.20636787" lon="-72.10227141">
    <!-- conflict: "149 South Bayley-Hazen Road, , VT" Fuzzy match to "149 South Bayley Hazen Road, Ryegate, VT" -->
    <tag k="addr:housenumber" v="149"/>
    <tag k="addr:street" v="South Bayley-Hazen Road"/>
    <tag k="addr:state" v="VT"/>
    <tag k="ref:vcgi:esiteid" v="215726"/>
  </node>
  <node id="-318" visible="true" lat="44.20584779" lon="-72.10244106">
    <!-- conflict: "187 South Bayley-Hazen Road, , VT" Fuzzy match to "187 South Bayley Hazen Road, Ryegate, VT" -->
    <tag k="addr:housenumber" v="187"/>
    <tag k="addr:street" v="South Bayley-Hazen Road"/>
    <tag k="addr:state" v="VT"/>
    <tag k="ref:vcgi:esiteid" v="215730"/>
  </node>
  <node id="-325" visible="true" lat="44.20531845" lon="-72.10313415">
    <!-- conflict: "216 South Bayley-Hazen Road, , VT" Fuzzy match to "216 South Bayley Hazen Road, Ryegate, VT" -->
    <tag k="addr:housenumber" v="216"/>
    <tag k="addr:street" v="South Bayley-Hazen Road"/>
    <tag k="addr:state" v="VT"/>
    <tag k="ref:vcgi:esiteid" v="215737"/>
  </node>
  <node id="-335" visible="true" lat="44.20467416" lon="-72.10315739">
    <!-- conflict: "256 South Bayley-Hazen Road, , VT" Fuzzy match to "256 South Bayley Hazen Road, Ryegate, VT" -->
    <tag k="addr:housenumber" v="256"/>
    <tag k="addr:street" v="South Bayley-Hazen Road"/>
    <tag k="addr:state" v="VT"/>
    <tag k="ref:vcgi:esiteid" v="215747"/>
  </node>
  <node id="-354" visible="true" lat="44.20410418" lon="-72.10299497">
    <!-- conflict: "324 South Bayley-Hazen Road, , VT" Fuzzy match to "324 South Bayley Hazen Road, Ryegate, VT" -->
    <tag k="addr:housenumber" v="324"/>
    <tag k="addr:street" v="South Bayley-Hazen Road"/>
    <tag k="addr:state" v="VT"/>
    <tag k="ref:vcgi:esiteid" v="215766"/>
  </node>
  <node id="-356" visible="true" lat="44.20393765" lon="-72.10189359">
    <!-- conflict: "327 South Bayley-Hazen Road, , VT" Fuzzy match to "327 South Bayley Hazen Road, Ryegate, VT" -->
    <tag k="addr:housenumber" v="327"/>
    <tag k="addr:street" v="South Bayley-Hazen Road"/>
    <tag k="addr:state" v="VT"/>
    <tag k="ref:vcgi:esiteid" v="215770"/>
  </node>
  <node id="-396" visible="true" lat="44.20001463" lon="-72.10207932">
    <!-- conflict: "582 South Bayley-Hazen Road, , VT" Fuzzy match to "582 South Bayley Hazen Road, Ryegate, VT" -->
    <tag k="addr:housenumber" v="582"/>
    <tag k="addr:street" v="South Bayley-Hazen Road"/>
    <tag k="addr:state" v="VT"/>
    <tag k="ref:vcgi:esiteid" v="215813"/>
  </node>
  <node id="-406" visible="true" lat="44.19868469" lon="-72.09610748">
    <!-- conflict: "799 South Bayley-Hazen Road, , VT" Fuzzy match to "799 South Bayley Hazen Road, , VT" -->
    <tag k="addr:housenumber" v="799"/>
    <tag k="addr:street" v="South Bayley-Hazen Road"/>
    <tag k="addr:state" v="VT"/>
    <tag k="ref:vcgi:esiteid" v="215823"/>
  </node>
  <node id="-416" visible="true" lat="44.19744821" lon="-72.09498926">
    <!-- conflict: "991 South Bayley-Hazen Road, , VT" Fuzzy match to "991 South Bayley Hazen Road, Ryegate, VT" -->
    <tag k="addr:housenumber" v="991"/>
    <tag k="addr:street" v="South Bayley-Hazen Road"/>
    <tag k="addr:state" v="VT"/>
    <tag k="ref:vcgi:esiteid" v="215834"/>
  </node>
  <node id="-418" visible="true" lat="44.19725799" lon="-72.0968399">
    <!-- conflict: "899 South Bayley-Hazen Road, , VT" Fuzzy match to "899 South Bayley Hazen Road, Ryegate, VT" -->
    <tag k="addr:housenumber" v="899"/>
    <tag k="addr:street" v="South Bayley-Hazen Road"/>
    <tag k="addr:state" v="VT"/>
    <tag k="ref:vcgi:esiteid" v="215836"/>
  </node>
  <node id="-442" visible="true" lat="44.19412696" lon="-72.09593593">
    <!-- conflict: "1114 South Bayley-Hazen Road, , VT" Fuzzy match to "1114 South Bayley Hazen Road, Ryegate, VT" -->
    <tag k="addr:housenumber" v="1114"/>
    <tag k="addr:street" v="South Bayley-Hazen Road"/>
    <tag k="addr:state" v="VT"/>
    <tag k="ref:vcgi:esiteid" v="215860"/>
  </node>
  <node id="-531" visible="true" lat="44.18801498" lon="-72.092247">
    <!-- conflict: "1584 South Bayley-Hazen Road, , VT" Fuzzy match to "1584 South Bayley Hazen Road, Ryegate, VT" -->
    <tag k="addr:housenumber" v="1584"/>
    <tag k="addr:street" v="South Bayley-Hazen Road"/>
    <tag k="addr:state" v="VT"/>
    <tag k="ref:vcgi:esiteid" v="215951"/>
  </node>
  <node id="-559" visible="true" lat="44.18659973" lon="-72.0890274">
    <!-- conflict: "1767 South Bayley-Hazen Road, , VT" Fuzzy match to "1767 South Bayley Hazen Road, Ryegate, VT" -->
    <tag k="addr:housenumber" v="1767"/>
    <tag k="addr:street" v="South Bayley-Hazen Road"/>
    <tag k="addr:state" v="VT"/>
    <tag k="ref:vcgi:esiteid" v="215982"/>
  </node>
  <node id="-616" visible="true" lat="44.18465372" lon="-72.08770518">
    <!-- conflict: "1931 South Bayley-Hazen Road, , VT" Fuzzy match to "1931 South Bayley Hazen Road, , VT" -->
    <tag k="addr:housenumber" v="1931"/>
    <tag k="addr:street" v="South Bayley-Hazen Road"/>
    <tag k="addr:state" v="VT"/>
    <tag k="ref:vcgi:esiteid" v="216039"/>
  </node>
  <node id="-644" visible="true" lat="44.17970982" lon="-72.08563812">
    <!-- conflict: "2253 South Bayley-Hazen Road, , VT" Fuzzy match to "2253 South Bayley Hazen Road, Ryegate, VT" -->
    <tag k="addr:housenumber" v="2253"/>
    <tag k="addr:street" v="South Bayley-Hazen Road"/>
    <tag k="addr:state" v="VT"/>
    <tag k="ref:vcgi:esiteid" v="216068"/>
  </node>
  <node id="-649" visible="true" lat="44.17633913" lon="-72.08470848">
    <!-- conflict: "2557 South Bayley-Hazen Road, , VT" Fuzzy match to "2557 South Bayley Hazen Road, Ryegate, VT" -->
    <tag k="addr:housenumber" v="2557"/>
    <tag k="addr:street" v="South Bayley-Hazen Road"/>
    <tag k="addr:state" v="VT"/>
    <tag k="ref:vcgi:esiteid" v="216074"/>
  </node>
  <node id="-650" visible="true" lat="44.17609423" lon="-72.08708801">
    <!-- conflict: "2514 South Bayley-Hazen Road, , VT" Fuzzy match to "2514 South Bayley Hazen Road, Ryegate, VT" -->
    <tag k="addr:housenumber" v="2514"/>
    <tag k="addr:street" v="South Bayley-Hazen Road"/>
    <tag k="addr:state" v="VT"/>
    <tag k="ref:vcgi:esiteid" v="216075"/>
  </node>
  <node id="-651" visible="true" lat="44.17577158" lon="-72.08524284">
    <!-- conflict: "2546 South Bayley-Hazen Road, , VT" Fuzzy match to "2546 South Bayley Hazen Road, Ryegate, VT" -->
    <tag k="addr:housenumber" v="2546"/>
    <tag k="addr:street" v="South Bayley-Hazen Road"/>
    <tag k="addr:state" v="VT"/>
    <tag k="ref:vcgi:esiteid" v="216076"/>
  </node>
  <node id="-652" visible="true" lat="44.1757455" lon="-72.08742865">
    <!-- conflict: "2516 South Bayley-Hazen Road, , VT" Fuzzy match to "2516 South Bayley Hazen Road, , VT" -->
    <tag k="addr:housenumber" v="2516"/>
    <tag k="addr:street" v="South Bayley-Hazen Road"/>
    <tag k="addr:state" v="VT"/>
    <tag k="ref:vcgi:esiteid" v="216077"/>
  </node>
  <node id="-655" visible="true" lat="44.1745665" lon="-72.0783437">
    <!-- conflict: "2899 South Bayley-Hazen Road, , VT" Fuzzy match to "2899 South Bayley Hazen Road, Ryegate, VT" -->
    <tag k="addr:housenumber" v="2899"/>
    <tag k="addr:street" v="South Bayley-Hazen Road"/>
    <tag k="addr:state" v="VT"/>
    <tag k="ref:vcgi:esiteid" v="216080"/>
  </node>
  <node id="-657" visible="true" lat="44.17434075" lon="-72.07887726">
    <!-- conflict: "2883 South Bayley-Hazen Road, , VT" Fuzzy match to "2883 South Bayley Hazen Road, , VT" -->
    <tag k="addr:housenumber" v="2883"/>
    <tag k="addr:street" v="South Bayley-Hazen Road"/>
    <tag k="addr:state" v="VT"/>
    <tag k="ref:vcgi:esiteid" v="216083"/>
  </node>
  <node id="-658" visible="true" lat="44.17398139" lon="-72.07773159">
    <!-- conflict: "2939 South Bayley-Hazen Road, , VT" Fuzzy match to "2939 South Bayley Hazen Road, , VT" -->
    <tag k="addr:housenumber" v="2939"/>
    <tag k="addr:street" v="South Bayley-Hazen Road"/>
    <tag k="addr:state" v="VT"/>
    <tag k="ref:vcgi:esiteid" v="216084"/>
  </node>
  <node id="-663" visible="true" lat="44.17302106" lon="-72.07898042">
    <!-- conflict: "2902 South Bayley-Hazen Road, , VT" Fuzzy match to "2902 South Bayley Hazen Road, Ryegate, VT" -->
    <tag k="addr:housenumber" v="2902"/>
    <tag k="addr:street" v="South Bayley-Hazen Road"/>
    <tag k="addr:state" v="VT"/>
    <tag k="ref:vcgi:esiteid" v="216090"/>
  </node>
  <node id="-664" visible="true" lat="44.17311255" lon="-72.07675962">
    <!-- conflict: "3011 South Bayley-Hazen Road, , VT" Fuzzy match to "3011 South Bayley Hazen Road, Ryegate, VT" -->
    <tag k="addr:housenumber" v="3011"/>
    <tag k="addr:street" v="South Bayley-Hazen Road"/>
    <tag k="addr:state" v="VT"/>
    <tag k="ref:vcgi:esiteid" v="216091"/>
  </node>
  <node id="-665" visible="true" lat="44.17262187" lon="-72.07563824">
    <!-- conflict: "3065 South Bayley-Hazen Road, , VT" Fuzzy match to "3065 South Bayley Hazen Road, Ryegate, VT" -->
    <tag k="addr:housenumber" v="3065"/>
    <tag k="addr:street" v="South Bayley-Hazen Road"/>
    <tag k="addr:state" v="VT"/>
    <tag k="ref:vcgi:esiteid" v="216092"/>
  </node>
  <node id="-666" visible="true" lat="44.17268862" lon="-72.07744754">
    <!-- conflict: "3006 South Bayley-Hazen Road, , VT" Fuzzy match to "3006 South Bayley Hazen Road, Ryegate, VT" -->
    <tag k="addr:housenumber" v="3006"/>
    <tag k="addr:street" v="South Bayley-Hazen Road"/>
    <tag k="addr:state" v="VT"/>
    <tag k="ref:vcgi:esiteid" v="216093"/>
  </node>
  <node id="-669" visible="true" lat="44.17206527" lon="-72.07663244">
    <!-- conflict: "3046 South Bayley-Hazen Road, , VT" Fuzzy match to "3046 South Bayley Hazen Road, Ryegate, VT" -->
    <tag k="addr:housenumber" v="3046"/>
    <tag k="addr:street" v="South Bayley-Hazen Road"/>
    <tag k="addr:state" v="VT"/>
    <tag k="ref:vcgi:esiteid" v="216096"/>
  </node>
  <node id="-671" visible="true" lat="44.17169022" lon="-72.07466703">
    <!-- conflict: "3143 South Bayley-Hazen Road, , VT" Fuzzy match to "3143 South Bayley Hazen Road, Ryegate, VT" -->
    <tag k="addr:housenumber" v="3143"/>
    <tag k="addr:street" v="South Bayley-Hazen Road"/>
    <tag k="addr:state" v="VT"/>
    <tag k="ref:vcgi:esiteid" v="216098"/>
  </node>
  <node id="-676" visible="true" lat="44.1711436" lon="-72.07599254">
    <!-- conflict: "3080 South Bayley-Hazen Road, , VT" Fuzzy match to "3080 South Bayley Hazen Road, Ryegate, VT" -->
    <tag k="addr:housenumber" v="3080"/>
    <tag k="addr:street" v="South Bayley-Hazen Road"/>
    <tag k="addr:state" v="VT"/>
    <tag k="ref:vcgi:esiteid" v="216103"/>
  </node>
  <node id="-678" visible="true" lat="44.17017146" lon="-72.0754003">
    <!-- conflict: "3220 South Bayley-Hazen Road, , VT" Fuzzy match to "3220 South Bayley Hazen Road, Ryegate, VT" -->
    <tag k="addr:housenumber" v="3220"/>
    <tag k="addr:street" v="South Bayley-Hazen Road"/>
    <tag k="addr:state" v="VT"/>
    <tag k="ref:vcgi:esiteid" v="216105"/>
  </node>
  <node id="-681" visible="true" lat="44.17024635" lon="-72.07375614">
    <!-- conflict: "3295 South Bayley-Hazen Road, , VT" Fuzzy match to "3295 South Bayley Hazen Road, Ryegate, VT" -->
    <tag k="addr:housenumber" v="3295"/>
    <tag k="addr:street" v="South Bayley-Hazen Road"/>
    <tag k="addr:state" v="VT"/>
    <tag k="ref:vcgi:esiteid" v="216108"/>
  </node>
  <node id="-682" visible="true" lat="44.16928292" lon="-72.07338158">
    <!-- conflict: "3309 South Bayley-Hazen Road, , VT" Fuzzy match to "3309 South Bayley Hazen Road, , VT" -->
    <tag k="addr:housenumber" v="3309"/>
    <tag k="addr:street" v="South Bayley-Hazen Road"/>
    <tag k="addr:state" v="VT"/>
    <tag k="ref:vcgi:esiteid" v="216109"/>
  </node>
  <node id="-689" visible="true" lat="44.16720476" lon="-72.07163007">
    <!-- conflict: "3407 South Bayley-Hazen Road, , VT" Fuzzy match to "3407 South Bayley Hazen Road, Ryegate, VT" -->
    <tag k="addr:housenumber" v="3407"/>
    <tag k="addr:street" v="South Bayley-Hazen Road"/>
    <tag k="addr:state" v="VT"/>
    <tag k="ref:vcgi:esiteid" v="216116"/>
  </node>
  <node id="-691" visible="true" lat="44.16694305" lon="-72.07271686">
    <!-- conflict: "3482 South Bayley-Hazen Road, , VT" Fuzzy match to "3482 South Bayley Hazen Road, Ryegate, VT" -->
    <tag k="addr:housenumber" v="3482"/>
    <tag k="addr:street" v="South Bayley-Hazen Road"/>
    <tag k="addr:state" v="VT"/>
    <tag k="ref:vcgi:esiteid" v="216118"/>
  </node>
  <node id="-693" visible="true" lat="44.16575657" lon="-72.07247572">
    <!-- conflict: "3560 South Bayley-Hazen Road, , VT" Fuzzy match to "3560 South Bayley Hazen Road, , VT" -->
    <tag k="addr:housenumber" v="3560"/>
    <tag k="addr:street" v="South Bayley-Hazen Road"/>
    <tag k="addr:state" v="VT"/>
    <tag k="ref:vcgi:esiteid" v="216120"/>
  </node>
  <node id="-694" visible="true" lat="44.16557441" lon="-72.07260884">
    <!-- conflict: "3564 South Bayley-Hazen Road, , VT" Fuzzy match to "3564 South Bayley Hazen Road, , VT" -->
    <tag k="addr:housenumber" v="3564"/>
    <tag k="addr:street" v="South Bayley-Hazen Road"/>
    <tag k="addr:state" v="VT"/>
    <tag k="ref:vcgi:esiteid" v="216121"/>
  </node>
  <node id="-695" visible="true" lat="44.16464435" lon="-72.0714476">
    <!-- conflict: "3624 South Bayley-Hazen Road, , VT" Fuzzy match to "3624 South Bayley Hazen Road, , VT" -->
    <tag k="addr:housenumber" v="3624"/>
    <tag k="addr:street" v="South Bayley-Hazen Road"/>
    <tag k="addr:state" v="VT"/>
    <tag k="ref:vcgi:esiteid" v="216122"/>
  </node>
  <node id="-722" visible="true" lat="44.1864351" lon="-72.09055698">
    <!-- conflict: "1768 South Bayley-Hazen Road, , VT" Fuzzy match to "1768 South Bayley Hazen Road, Ryegate, VT" -->
    <tag k="addr:housenumber" v="1768"/>
    <tag k="addr:street" v="South Bayley-Hazen Road"/>
    <tag k="addr:state" v="VT"/>
    <tag k="ref:vcgi:esiteid" v="216153"/>
  </node>
  <node id="-736" visible="true" lat="44.17862581" lon="-72.08117097">
    <!-- conflict: "2595 South Bayley-Hazen Road, , VT" Fuzzy match to "2595 South Bayley Hazen Road, , VT" -->
    <tag k="addr:housenumber" v="2595"/>
    <tag k="addr:street" v="South Bayley-Hazen Road"/>
    <tag k="addr:state" v="VT"/>
    <tag k="ref:vcgi:esiteid" v="216168"/>
  </node>
  <node id="-739" visible="true" lat="44.20718073" lon="-72.10306847">
    <!-- conflict: "101 South Bayley-Hazen Road, , VT" Fuzzy match to "101 South Bayley Hazen Road, Ryegate, VT" -->
    <tag k="addr:housenumber" v="101"/>
    <tag k="addr:street" v="South Bayley-Hazen Road"/>
    <tag k="addr:state" v="VT"/>
    <tag k="ref:vcgi:esiteid" v="216172"/>
  </node>
  <node id="-740" visible="true" lat="44.20748361" lon="-72.10301201">
    <!-- conflict: "81 South Bayley-Hazen Road, , VT" Fuzzy match to "81 South Bayley Hazen Road, Ryegate, VT" -->
    <tag k="addr:housenumber" v="81"/>
    <tag k="addr:street" v="South Bayley-Hazen Road"/>
    <tag k="addr:state" v="VT"/>
    <tag k="ref:vcgi:esiteid" v="216173"/>
  </node>
  <node id="-741" visible="true" lat="44.18918844" lon="-72.09127974">
    <!-- conflict: "1569 South Bayley-Hazen Road, , VT" Fuzzy match to "1569 South Bayley Hazen Road, , VT" -->
    <tag k="addr:housenumber" v="1569"/>
    <tag k="addr:street" v="South Bayley-Hazen Road"/>
    <tag k="addr:state" v="VT"/>
    <tag k="ref:vcgi:esiteid" v="216174"/>
  </node>
  <node id="-746" visible="true" lat="44.19554868" lon="-72.09491468">
    <!-- conflict: "1181 South Bayley-Hazen Road, , VT" Fuzzy match to "1181 South Bayley Hazen Road, Ryegate, VT" -->
    <tag k="addr:housenumber" v="1181"/>
    <tag k="addr:street" v="South Bayley-Hazen Road"/>
    <tag k="addr:state" v="VT"/>
    <tag k="ref:vcgi:esiteid" v="306503"/>
  </node>
  <node id="-750" visible="true" lat="44.18444976" lon="-72.08867849">
    <!-- conflict: "1932 South Bayley-Hazen Road, , VT" Fuzzy match to "1932 South Bayley Hazen Road, , VT" -->
    <tag k="addr:housenumber" v="1932"/>
    <tag k="addr:street" v="South Bayley-Hazen Road"/>
    <tag k="addr:state" v="VT"/>
    <tag k="ref:vcgi:esiteid" v="315316"/>
  </node>
  <node id="-754" visible="true" lat="44.17872226" lon="-72.08593045">
    <!-- conflict: "2255 South Bayley-Hazen Road, , VT" Fuzzy match to "2255 South Bayley Hazen Road, Ryegate, VT" -->
    <tag k="addr:housenumber" v="2255"/>
    <tag k="addr:street" v="South Bayley-Hazen Road"/>
    <tag k="addr:state" v="VT"/>
    <tag k="ref:vcgi:esiteid" v="316724"/>
  </node>
  <node id="-756" visible="true" lat="44.1697669" lon="-72.07267063">
    <!-- conflict: "3341 South Bayley-Hazen Road, , VT" Fuzzy match to "3341 South Bayley Hazen Road, , VT" -->
    <tag k="addr:housenumber" v="3341"/>
    <tag k="addr:street" v="South Bayley-Hazen Road"/>
    <tag k="addr:state" v="VT"/>
    <tag k="ref:vcgi:esiteid" v="328142"/>
  </node>
  <node id="-757" visible="true" lat="44.20826441" lon="-72.10303637">
    <!-- conflict: "19 South Bayley-Hazen Road, , VT" Fuzzy match to "19 South Bayley Hazen Road, Ryegate, VT" -->
    <tag k="addr:housenumber" v="19"/>
    <tag k="addr:street" v="South Bayley-Hazen Road"/>
    <tag k="addr:state" v="VT"/>
    <tag k="ref:vcgi:esiteid" v="328143"/>
  </node>
  <node id="-760" visible="true" lat="44.1677019" lon="-72.07307602">
    <!-- conflict: "3438 South Bayley-Hazen Road, , VT" Fuzzy match to "3438 South Bayley Hazen Road, Ryegate, VT" -->
    <tag k="addr:housenumber" v="3438"/>
    <tag k="addr:street" v="South Bayley-Hazen Road"/>
    <tag k="addr:state" v="VT"/>
    <tag k="ref:vcgi:esiteid" v="331020"/>
  </node>
  <node id="-768" visible="true" lat="44.17549089" lon="-72.08395121">
    <!-- conflict: "2594 South Bayley-Hazen Road, , VT" Fuzzy match to "2594 South Bayley Hazen Road, , VT" -->
    <tag k="addr:housenumber" v="2594"/>
    <tag k="addr:street" v="South Bayley-Hazen Road"/>
    <tag k="addr:state" v="VT"/>
    <tag k="ref:vcgi:esiteid" v="336205"/>
  </node>
  <node id="-798" visible="true" lat="44.22968859" lon="-72.10330041">
    <!-- conflict: "1468 North Bayley-Hazen Road, , VT" Fuzzy match to "1468 North Bayley Hazen Road, , VT" -->
    <tag k="addr:housenumber" v="1468"/>
    <tag k="addr:street" v="North Bayley-Hazen Road"/>
    <tag k="addr:state" v="VT"/>
    <tag k="ref:vcgi:esiteid" v="618202"/>
  </node>
  <node id="-799" visible="true" lat="44.22871748" lon="-72.10384673">
    <!-- conflict: "1466 North Bayley-Hazen Road, , VT" Fuzzy match to "1466 North Bayley Hazen Road, , VT" -->
    <tag k="addr:housenumber" v="1466"/>
    <tag k="addr:street" v="North Bayley-Hazen Road"/>
    <tag k="addr:state" v="VT"/>
    <tag k="ref:vcgi:esiteid" v="618203"/>
  </node>
  <node id="-803" visible="true" lat="44.16497038" lon="-72.07100955">
    <!-- conflict: "3623 South Bayley-Hazen Road, , VT" Fuzzy match to "3623 South Bayley Hazen Road, , VT" -->
    <tag k="addr:housenumber" v="3623"/>
    <tag k="addr:street" v="South Bayley-Hazen Road"/>
    <tag k="addr:state" v="VT"/>
    <tag k="ref:vcgi:esiteid" v="620675"/>
  </node>
  <node id="-812" visible="true" lat="44.17201233" lon="-72.07728595">
    <!-- conflict: "3030 South Bayley-Hazen Road, , VT" Fuzzy match to "3030 South Bayley Hazen Road, , VT" -->
    <tag k="addr:housenumber" v="3030"/>
    <tag k="addr:street" v="South Bayley-Hazen Road"/>
    <tag k="addr:state" v="VT"/>
    <tag k="ref:vcgi:esiteid" v="754959"/>
  </node>
  <node id="-822" visible="true" lat="44.16999484" lon="-72.07359889">
    <!-- conflict: "3267 South Bayley-Hazen Road, , VT" Fuzzy match to "3267 South Bayley Hazen Road, , VT" -->
    <tag k="addr:housenumber" v="3267"/>
    <tag k="addr:street" v="South Bayley-Hazen Road"/>
    <tag k="addr:state" v="VT"/>
    <tag k="ref:vcgi:esiteid" v="762794"/>
  </node>
  <node id="-832" visible="true" lat="44.19133703" lon="-72.09513836">
    <!-- conflict: "1316 South Bayley-Hazen Road, , VT" Fuzzy match to "1316 South Bayley Hazen Road, , VT" -->
    <tag k="addr:housenumber" v="1316"/>
    <tag k="addr:street" v="South Bayley-Hazen Road"/>
    <tag k="addr:state" v="VT"/>
    <tag k="ref:vcgi:esiteid" v="1050858"/>
  </node>
</osm>
