<?xml version="1.0" encoding="UTF-8"?>
<osm version="0.6" generator="JOSM" upload="false">
  <node id="-427" visible="true" lat="44.46054116" lon="-72.01363305">
    <!-- offset: "2000 Memorial Drive, , VT" Significant offset - 112.1m -->
    <tag k="addr:housenumber" v="2000"/>
    <tag k="addr:street" v="Memorial Drive"/>
    <tag k="addr:state" v="VT"/>
    <tag k="ref:vcgi:esiteid" v="244580"/>
  </node>
  <node id="-553" visible="true" lat="44.45383523" lon="-72.01476516">
    <!-- offset: "81 Hill Street, , VT" Significant offset - 8860.1m -->
    <tag k="addr:housenumber" v="81"/>
    <tag k="addr:street" v="Hill Street"/>
    <tag k="addr:state" v="VT"/>
    <tag k="ref:vcgi:esiteid" v="244715"/>
  </node>
  <node id="-1146" visible="true" lat="44.42756929" lon="-71.97644889">
    <!-- offset: "2176 Portland Street, , VT" Significant offset - 106.9m -->
    <tag k="addr:housenumber" v="2176"/>
    <tag k="addr:street" v="Portland Street"/>
    <tag k="addr:state" v="VT"/>
    <tag k="ref:vcgi:esiteid" v="245376"/>
  </node>
  <node id="-1214" visible="true" lat="44.42671219" lon="-72.01205218">
    <!-- offset: "173 School Street, , VT" Significant offset - 9622.6m -->
    <tag k="addr:housenumber" v="173"/>
    <tag k="addr:street" v="School Street"/>
    <tag k="addr:state" v="VT"/>
    <tag k="ref:vcgi:esiteid" v="245452"/>
  </node>
  <node id="-2068" visible="true" lat="44.41901726" lon="-72.02528095">
    <!-- offset: "177 Highland Avenue, , VT" Significant offset - 9027.8m -->
    <tag k="addr:housenumber" v="177"/>
    <tag k="addr:street" v="Highland Avenue"/>
    <tag k="addr:state" v="VT"/>
    <tag k="ref:vcgi:esiteid" v="246404"/>
  </node>
  <node id="-2833" visible="true" lat="44.50428693" lon="-72.04906868">
    <!-- offset: "956 Libby Road, , VT" Significant offset - 106.3m -->
    <tag k="addr:housenumber" v="956"/>
    <tag k="addr:street" v="Libby Road"/>
    <tag k="addr:state" v="VT"/>
    <tag k="ref:vcgi:esiteid" v="247299"/>
  </node>
  <node id="-3046" visible="true" lat="44.4181283" lon="-71.97920733">
    <!-- offset: "714 Higgins Hill Road, , VT" Significant offset - 129.3m -->
    <tag k="addr:housenumber" v="714"/>
    <tag k="addr:street" v="Higgins Hill Road"/>
    <tag k="addr:state" v="VT"/>
    <tag k="ref:vcgi:esiteid" v="445379"/>
  </node>
  <node id="-3079" visible="true" lat="44.41840495" lon="-71.97700729">
    <!-- offset: "808 Higgins Hill Road, , VT" Significant offset - 1064.7m -->
    <tag k="addr:housenumber" v="808"/>
    <tag k="addr:street" v="Higgins Hill Road"/>
    <tag k="addr:state" v="VT"/>
    <tag k="ref:vcgi:esiteid" v="616580"/>
  </node>
  <node id="-3102" visible="true" lat="44.47784639" lon="-72.06859213">
    <!-- offset: "745 Rabbit Plain, , VT" Significant offset - 437.7m -->
    <tag k="addr:housenumber" v="745"/>
    <tag k="addr:street" v="Rabbit Plain"/>
    <tag k="addr:state" v="VT"/>
    <tag k="ref:vcgi:esiteid" v="617988"/>
  </node>
</osm>
