<?xml version="1.0" encoding="UTF-8"?>
<osm version="0.6" generator="JOSM" upload="false">
  <node id="-102" visible="true" lat="44.49669574" lon="-72.0166617">
    <tag k="addr:housenumber" v="1370"/>
    <tag k="addr:street" v="Industrial Parkway"/>
    <tag k="addr:state" v="VT"/>
    <tag k="ref:vcgi:esiteid" v="3401"/>
  </node>
  <node id="-1552" visible="true" lat="44.42255462" lon="-71.99763815">
    <tag k="addr:housenumber" v="54"/>
    <tag k="addr:street" v="Assisqua Avenue"/>
    <tag k="addr:state" v="VT"/>
    <tag k="ref:vcgi:esiteid" v="245823"/>
  </node>
  <node id="-3042" visible="true" lat="44.46766112" lon="-71.97900373">
    <tag k="addr:housenumber" v="1862"/>
    <tag k="addr:street" v="Mount Pisgah Road"/>
    <tag k="addr:state" v="VT"/>
    <tag k="ref:vcgi:esiteid" v="365648"/>
  </node>
  <node id="-3043" visible="true" lat="44.42628375" lon="-72.01752558">
    <tag k="addr:housenumber" v="133"/>
    <tag k="addr:street" v="Boynton Avenue"/>
    <tag k="addr:state" v="VT"/>
    <tag k="ref:vcgi:esiteid" v="365661"/>
  </node>
  <node id="-3045" visible="true" lat="44.43327031" lon="-72.01909284">
    <tag k="addr:housenumber" v="197"/>
    <tag k="addr:street" v="Old Center Road"/>
    <tag k="addr:state" v="VT"/>
    <tag k="ref:vcgi:esiteid" v="365663"/>
  </node>
  <node id="-3087" visible="true" lat="44.39461199" lon="-72.0317581">
    <tag k="addr:housenumber" v="565"/>
    <tag k="addr:street" v="West Hill Road"/>
    <tag k="addr:state" v="VT"/>
    <tag k="ref:vcgi:esiteid" v="617838"/>
  </node>
  <node id="-3106" visible="true" lat="44.46410018" lon="-72.01138878">
    <tag k="addr:housenumber" v="100"/>
    <tag k="addr:street" v="Second Street"/>
    <tag k="addr:state" v="VT"/>
    <tag k="ref:vcgi:esiteid" v="646603"/>
  </node>
  <node id="-3107" visible="true" lat="44.46396339" lon="-72.01147238">
    <tag k="addr:housenumber" v="102"/>
    <tag k="addr:street" v="Second Street"/>
    <tag k="addr:state" v="VT"/>
    <tag k="ref:vcgi:esiteid" v="646604"/>
  </node>
  <node id="-3108" visible="true" lat="44.46439759" lon="-72.01144482">
    <tag k="addr:housenumber" v="77"/>
    <tag k="addr:street" v="Second Street"/>
    <tag k="addr:state" v="VT"/>
    <tag k="ref:vcgi:esiteid" v="646605"/>
  </node>
  <node id="-3113" visible="true" lat="44.46284025" lon="-71.97046782">
    <tag k="addr:housenumber" v="1874"/>
    <tag k="addr:street" v="Mount Pisgah Road"/>
    <tag k="addr:state" v="VT"/>
    <tag k="ref:vcgi:esiteid" v="754073"/>
  </node>
  <node id="-3193" visible="true" lat="44.39403638" lon="-72.03023864">
    <tag k="addr:housenumber" v="1264"/>
    <tag k="addr:street" v="U.S. Route 5"/>
    <tag k="addr:state" v="VT"/>
    <tag k="ref:vcgi:esiteid" v="771320"/>
  </node>
  <node id="-3194" visible="true" lat="44.43632823" lon="-72.01055041">
    <tag k="addr:housenumber" v="125"/>
    <tag k="addr:street" v="Hillside Avenue"/>
    <tag k="addr:state" v="VT"/>
    <tag k="ref:vcgi:esiteid" v="772298"/>
  </node>
  <node id="-3195" visible="true" lat="44.45411306" lon="-72.04563071">
    <tag k="addr:housenumber" v="319"/>
    <tag k="addr:street" v="Crepeault Hill Road"/>
    <tag k="addr:state" v="VT"/>
    <tag k="ref:vcgi:esiteid" v="772398"/>
  </node>
  <node id="-3196" visible="true" lat="44.45406898" lon="-71.97378101">
    <tag k="addr:housenumber" v="1890"/>
    <tag k="addr:street" v="Spaulding Road"/>
    <tag k="addr:state" v="VT"/>
    <tag k="ref:vcgi:esiteid" v="772494"/>
  </node>
</osm>
