<?xml version="1.0" encoding="UTF-8"?>
<osm version="0.6" generator="JOSM" upload="false">
  <node id="-1653" visible="true" lat="44.79767227" lon="-73.07852935">
    <!-- offset: "14 Sunset Terrace, , VT" Significant offset - 7536.3m -->
    <tag k="addr:housenumber" v="14"/>
    <tag k="addr:street" v="Sunset Terrace"/>
    <tag k="addr:state" v="VT"/>
    <tag k="ref:vcgi:esiteid" v="242747"/>
  </node>
  <node id="-1661" visible="true" lat="44.79743194" lon="-73.07776641">
    <!-- offset: "13 Sunset Terrace, , VT" Significant offset - 7609.2m -->
    <tag k="addr:housenumber" v="13"/>
    <tag k="addr:street" v="Sunset Terrace"/>
    <tag k="addr:state" v="VT"/>
    <tag k="ref:vcgi:esiteid" v="242755"/>
  </node>
  <node id="-1663" visible="true" lat="44.79740524" lon="-73.07867431">
    <!-- offset: "12 Sunset Terrace, , VT" Significant offset - 7620.9m -->
    <tag k="addr:housenumber" v="12"/>
    <tag k="addr:street" v="Sunset Terrace"/>
    <tag k="addr:state" v="VT"/>
    <tag k="ref:vcgi:esiteid" v="242758"/>
  </node>
  <node id="-1676" visible="true" lat="44.79751587" lon="-73.01281738">
    <!-- offset: "595 Pion Road, , VT" Significant offset - 208.3m -->
    <tag k="addr:housenumber" v="595"/>
    <tag k="addr:street" v="Pion Road"/>
    <tag k="addr:state" v="VT"/>
    <tag k="ref:vcgi:esiteid" v="242772"/>
  </node>
  <node id="-1678" visible="true" lat="44.7971611" lon="-73.07802581">
    <!-- offset: "11 Sunset Terrace, , VT" Significant offset - 7676.6m -->
    <tag k="addr:housenumber" v="11"/>
    <tag k="addr:street" v="Sunset Terrace"/>
    <tag k="addr:state" v="VT"/>
    <tag k="ref:vcgi:esiteid" v="242774"/>
  </node>
  <node id="-1681" visible="true" lat="44.79711532" lon="-73.07885742">
    <!-- offset: "10 Sunset Terrace, , VT" Significant offset - 7700.7m -->
    <tag k="addr:housenumber" v="10"/>
    <tag k="addr:street" v="Sunset Terrace"/>
    <tag k="addr:state" v="VT"/>
    <tag k="ref:vcgi:esiteid" v="242777"/>
  </node>
  <node id="-1693" visible="true" lat="44.79686737" lon="-73.07822418">
    <!-- offset: "9 Sunset Terrace, , VT" Significant offset - 7757m -->
    <tag k="addr:housenumber" v="9"/>
    <tag k="addr:street" v="Sunset Terrace"/>
    <tag k="addr:state" v="VT"/>
    <tag k="ref:vcgi:esiteid" v="242789"/>
  </node>
  <node id="-1700" visible="true" lat="44.79673004" lon="-73.07904815">
    <!-- offset: "8 Sunset Terrace, , VT" Significant offset - 7786.9m -->
    <tag k="addr:housenumber" v="8"/>
    <tag k="addr:street" v="Sunset Terrace"/>
    <tag k="addr:state" v="VT"/>
    <tag k="ref:vcgi:esiteid" v="242796"/>
  </node>
  <node id="-1706" visible="true" lat="44.796566" lon="-73.07839202">
    <!-- offset: "7 Sunset Terrace, , VT" Significant offset - 7837m -->
    <tag k="addr:housenumber" v="7"/>
    <tag k="addr:street" v="Sunset Terrace"/>
    <tag k="addr:state" v="VT"/>
    <tag k="ref:vcgi:esiteid" v="242802"/>
  </node>
  <node id="-1714" visible="true" lat="44.79640723" lon="-73.07934524">
    <!-- offset: "6 Sunset Terrace, , VT" Significant offset - 7858.3m -->
    <tag k="addr:housenumber" v="6"/>
    <tag k="addr:street" v="Sunset Terrace"/>
    <tag k="addr:state" v="VT"/>
    <tag k="ref:vcgi:esiteid" v="242812"/>
  </node>
  <node id="-1727" visible="true" lat="44.79623413" lon="-73.07861328">
    <!-- offset: "5 Sunset Terrace, , VT" Significant offset - 7899.1m -->
    <tag k="addr:housenumber" v="5"/>
    <tag k="addr:street" v="Sunset Terrace"/>
    <tag k="addr:state" v="VT"/>
    <tag k="ref:vcgi:esiteid" v="242826"/>
  </node>
  <node id="-1731" visible="true" lat="44.79610443" lon="-73.07943725">
    <!-- offset: "4 Sunset Terrace, , VT" Significant offset - 7914.5m -->
    <tag k="addr:housenumber" v="4"/>
    <tag k="addr:street" v="Sunset Terrace"/>
    <tag k="addr:state" v="VT"/>
    <tag k="ref:vcgi:esiteid" v="242830"/>
  </node>
  <node id="-1738" visible="true" lat="44.79590225" lon="-73.07883453">
    <!-- offset: "3 Sunset Terrace, , VT" Significant offset - 7971.3m -->
    <tag k="addr:housenumber" v="3"/>
    <tag k="addr:street" v="Sunset Terrace"/>
    <tag k="addr:state" v="VT"/>
    <tag k="ref:vcgi:esiteid" v="242837"/>
  </node>
  <node id="-1742" visible="true" lat="44.79578163" lon="-73.07972916">
    <!-- offset: "2 Sunset Terrace, , VT" Significant offset - 7981.4m -->
    <tag k="addr:housenumber" v="2"/>
    <tag k="addr:street" v="Sunset Terrace"/>
    <tag k="addr:state" v="VT"/>
    <tag k="ref:vcgi:esiteid" v="242841"/>
  </node>
  <node id="-1752" visible="true" lat="44.79558944" lon="-73.07901">
    <!-- offset: "1 Sunset Terrace, , VT" Significant offset - 8027.1m -->
    <tag k="addr:housenumber" v="1"/>
    <tag k="addr:street" v="Sunset Terrace"/>
    <tag k="addr:state" v="VT"/>
    <tag k="ref:vcgi:esiteid" v="242852"/>
  </node>
  <node id="-1928" visible="true" lat="44.78966522" lon="-73.03913879">
    <!-- offset: "53 Rugg Road, , VT" Significant offset - 3412.1m -->
    <tag k="addr:housenumber" v="53"/>
    <tag k="addr:street" v="Rugg Road"/>
    <tag k="addr:state" v="VT"/>
    <tag k="ref:vcgi:esiteid" v="243037"/>
  </node>
  <node id="-1944" visible="true" lat="44.789248" lon="-73.03940041">
    <!-- offset: "91 Rugg Road, , VT" Significant offset - 3040.5m -->
    <tag k="addr:housenumber" v="91"/>
    <tag k="addr:street" v="Rugg Road"/>
    <tag k="addr:state" v="VT"/>
    <tag k="ref:vcgi:esiteid" v="243054"/>
  </node>
  <node id="-2305" visible="true" lat="44.78842097" lon="-73.18702063">
    <!-- offset: "1195 West Shore Road, , VT" Significant offset - 9898m -->
    <tag k="addr:housenumber" v="1195"/>
    <tag k="addr:street" v="West Shore Road"/>
    <tag k="addr:state" v="VT"/>
    <tag k="ref:vcgi:esiteid" v="243439"/>
  </node>
  <node id="-2545" visible="true" lat="44.79428029" lon="-73.01958517">
    <!-- offset: "382 Woodlands Road, , VT" Significant offset - 263.4m -->
    <tag k="addr:housenumber" v="382"/>
    <tag k="addr:street" v="Woodlands Road"/>
    <tag k="addr:state" v="VT"/>
    <tag k="ref:vcgi:esiteid" v="243707"/>
  </node>
  <node id="-3077" visible="true" lat="44.8209121" lon="-73.10134567">
    <!-- offset: "850 Brigham Road, , VT" Significant offset - 585.7m -->
    <tag k="addr:housenumber" v="850"/>
    <tag k="addr:street" v="Brigham Road"/>
    <tag k="addr:state" v="VT"/>
    <tag k="ref:vcgi:esiteid" v="336552"/>
  </node>
  <node id="-3132" visible="true" lat="44.78969242" lon="-73.10329578">
    <!-- offset: "94 Wilder Drive, , VT" Significant offset - 1014.1m -->
    <tag k="addr:housenumber" v="94"/>
    <tag k="addr:street" v="Wilder Drive"/>
    <tag k="addr:state" v="VT"/>
    <tag k="ref:vcgi:esiteid" v="338935"/>
  </node>
  <node id="-3229" visible="true" lat="44.80782283" lon="-72.97825176">
    <!-- offset: "411 Connor Road, , VT" Significant offset - 304.2m -->
    <tag k="addr:housenumber" v="411"/>
    <tag k="addr:street" v="Connor Road"/>
    <tag k="addr:state" v="VT"/>
    <tag k="ref:vcgi:esiteid" v="450888"/>
  </node>
  <node id="-3385" visible="true" lat="44.78797687" lon="-73.10961944">
    <!-- offset: "92 Wilder Drive, , VT" Significant offset - 727.6m -->
    <tag k="addr:housenumber" v="92"/>
    <tag k="addr:street" v="Wilder Drive"/>
    <tag k="addr:state" v="VT"/>
    <tag k="ref:vcgi:esiteid" v="754749"/>
  </node>
</osm>
