<?xml version="1.0" encoding="UTF-8"?>
<osm version="0.6" generator="JOSM" upload="false">
  <node id="-1929" visible="true" lat="42.98429494" lon="-73.15285015">
    <tag k="addr:housenumber" v="212"/>
    <tag k="addr:street" v="Bear Run Road"/>
    <tag k="addr:state" v="VT"/>
    <tag k="ref:vcgi:esiteid" v="771134"/>
  </node>
  <node id="-1930" visible="true" lat="42.95211157" lon="-73.18689816">
    <tag k="addr:housenumber" v="175"/>
    <tag k="addr:street" v="Rod And Gun Club Road"/>
    <tag k="addr:state" v="VT"/>
    <tag k="ref:vcgi:esiteid" v="771269"/>
  </node>
  <node id="-1931" visible="true" lat="42.94277613" lon="-73.20172996">
    <tag k="addr:housenumber" v="718"/>
    <tag k="addr:street" v="Buck Hill Road"/>
    <tag k="addr:state" v="VT"/>
    <tag k="ref:vcgi:esiteid" v="771317"/>
  </node>
  <node id="-1932" visible="true" lat="43.00541041" lon="-73.16551141">
    <tag k="addr:housenumber" v="1392"/>
    <tag k="addr:street" v="Maple Hill Road"/>
    <tag k="addr:state" v="VT"/>
    <tag k="ref:vcgi:esiteid" v="771892"/>
  </node>
  <node id="-1933" visible="true" lat="42.93784837" lon="-73.26977231">
    <tag k="addr:housenumber" v="1266"/>
    <tag k="addr:street" v="Vermont Route 67 West"/>
    <tag k="addr:state" v="VT"/>
    <tag k="ref:vcgi:esiteid" v="772558"/>
  </node>
  <node id="-1934" visible="true" lat="42.94416668" lon="-73.2455453">
    <tag k="addr:housenumber" v="475"/>
    <tag k="addr:street" v="Harvest Hills Drive"/>
    <tag k="addr:state" v="VT"/>
    <tag k="ref:vcgi:esiteid" v="772598"/>
  </node>
</osm>
