<?xml version="1.0" encoding="UTF-8"?>
<osm version="0.6" generator="JOSM" upload="false">
  <node id="-720" visible="true" lat="42.96225993" lon="-73.22024369">
    <!-- multiple: "983 Myers Road, , VT" Multiple exact matches in OSM. -->
    <tag k="addr:housenumber" v="983"/>
    <tag k="addr:street" v="Myers Road"/>
    <tag k="addr:state" v="VT"/>
    <tag k="ref:vcgi:esiteid" v="218009"/>
  </node>
  <node id="-764" visible="true" lat="42.95933617" lon="-73.16703239">
    <!-- multiple: "2063 East Road, , VT" Multiple exact matches in OSM. -->
    <tag k="addr:housenumber" v="2063"/>
    <tag k="addr:street" v="East Road"/>
    <tag k="addr:state" v="VT"/>
    <tag k="ref:vcgi:esiteid" v="218054"/>
  </node>
  <node id="-775" visible="true" lat="42.95864422" lon="-73.16659937">
    <!-- multiple: "2040 East Road, , VT" Multiple exact matches in OSM. -->
    <tag k="addr:housenumber" v="2040"/>
    <tag k="addr:street" v="East Road"/>
    <tag k="addr:state" v="VT"/>
    <tag k="ref:vcgi:esiteid" v="218065"/>
  </node>
  <node id="-782" visible="true" lat="42.95783248" lon="-73.21657895">
    <!-- multiple: "20 Eastview Drive, , VT" Multiple exact matches in OSM. -->
    <tag k="addr:housenumber" v="20"/>
    <tag k="addr:street" v="Eastview Drive"/>
    <tag k="addr:state" v="VT"/>
    <tag k="ref:vcgi:esiteid" v="218072"/>
  </node>
  <node id="-888" visible="true" lat="42.95039735" lon="-73.21075262">
    <!-- multiple: "1250 Vermont Route 7A, , VT" Multiple exact matches in OSM. -->
    <tag k="addr:housenumber" v="1250"/>
    <tag k="addr:street" v="Vermont Route 7A"/>
    <tag k="addr:state" v="VT"/>
    <tag k="ref:vcgi:esiteid" v="218180"/>
  </node>
  <node id="-1329" visible="true" lat="42.93719663" lon="-73.24768033">
    <!-- multiple: "335 Elm Street, , VT" Multiple exact matches in OSM. -->
    <tag k="addr:housenumber" v="335"/>
    <tag k="addr:street" v="Elm Street"/>
    <tag k="addr:state" v="VT"/>
    <tag k="ref:vcgi:esiteid" v="218671"/>
  </node>
  <node id="-1332" visible="true" lat="42.93714523" lon="-73.24389648">
    <!-- multiple: "103 Grant Street, , VT" Multiple exact matches in OSM. -->
    <tag k="addr:housenumber" v="103"/>
    <tag k="addr:street" v="Grant Street"/>
    <tag k="addr:state" v="VT"/>
    <tag k="ref:vcgi:esiteid" v="218674"/>
  </node>
  <node id="-1337" visible="true" lat="42.93700476" lon="-73.24723781">
    <!-- multiple: "307 Elm Street, , VT" Multiple exact matches in OSM. -->
    <tag k="addr:housenumber" v="307"/>
    <tag k="addr:street" v="Elm Street"/>
    <tag k="addr:state" v="VT"/>
    <tag k="ref:vcgi:esiteid" v="218679"/>
  </node>
  <node id="-1339" visible="true" lat="42.93707227" lon="-73.24286176">
    <!-- multiple: "211 Grandview Street, , VT" Multiple exact matches in OSM. -->
    <tag k="addr:housenumber" v="211"/>
    <tag k="addr:street" v="Grandview Street"/>
    <tag k="addr:state" v="VT"/>
    <tag k="ref:vcgi:esiteid" v="218681"/>
  </node>
  <node id="-1424" visible="true" lat="42.93568595" lon="-73.24284053">
    <!-- multiple: "115 Grandview Street, , VT" Multiple exact matches in OSM. -->
    <tag k="addr:housenumber" v="115"/>
    <tag k="addr:street" v="Grandview Street"/>
    <tag k="addr:state" v="VT"/>
    <tag k="ref:vcgi:esiteid" v="218776"/>
  </node>
  <node id="-1426" visible="true" lat="42.93562095" lon="-73.24230648">
    <!-- multiple: "114 Grandview Street, , VT" Multiple exact matches in OSM. -->
    <tag k="addr:housenumber" v="114"/>
    <tag k="addr:street" v="Grandview Street"/>
    <tag k="addr:state" v="VT"/>
    <tag k="ref:vcgi:esiteid" v="218778"/>
  </node>
  <node id="-1443" visible="true" lat="42.93542168" lon="-73.24232006">
    <!-- multiple: "102 Grandview Street, , VT" Multiple exact matches in OSM. -->
    <tag k="addr:housenumber" v="102"/>
    <tag k="addr:street" v="Grandview Street"/>
    <tag k="addr:state" v="VT"/>
    <tag k="ref:vcgi:esiteid" v="218796"/>
  </node>
  <node id="-1530" visible="true" lat="42.93377644" lon="-73.24793483">
    <!-- multiple: "19 Bank Street, , VT" Multiple exact matches in OSM. -->
    <tag k="addr:housenumber" v="19"/>
    <tag k="addr:street" v="Bank Street"/>
    <tag k="addr:state" v="VT"/>
    <tag k="ref:vcgi:esiteid" v="218894"/>
  </node>
  <node id="-1537" visible="true" lat="42.93396759" lon="-73.20078277">
    <!-- multiple: "498 Town Line Road, , VT" Multiple exact matches in OSM. -->
    <tag k="addr:housenumber" v="498"/>
    <tag k="addr:street" v="Town Line Road"/>
    <tag k="addr:state" v="VT"/>
    <tag k="ref:vcgi:esiteid" v="218903"/>
  </node>
  <node id="-1916" visible="true" lat="42.93324353" lon="-73.22376308">
    <!-- multiple: "720 Lake Drive, , VT" Multiple exact matches in OSM. -->
    <tag k="addr:housenumber" v="720"/>
    <tag k="addr:street" v="Lake Drive"/>
    <tag k="addr:state" v="VT"/>
    <tag k="ref:vcgi:esiteid" v="766501"/>
  </node>
</osm>
