<?xml version="1.0" encoding="UTF-8"?>
<osm version="0.6" generator="JOSM" upload="false">
  <node id="-1177" visible="true" lat="44.39407606" lon="-73.22012539">
    <tag k="addr:city" v="Shelburne"/>
    <tag k="addr:housenumber" v="25"/>
    <tag k="addr:street" v="James Way"/>
    <tag k="addr:state" v="VT"/>
    <tag k="ref:vcgi:esiteid" v="221497"/>
  </node>
  <node id="-1247" visible="true" lat="44.39057409" lon="-73.22121907">
    <tag k="addr:city" v="Shelburne"/>
    <tag k="addr:housenumber" v="33"/>
    <tag k="addr:street" v="Webster Road"/>
    <tag k="addr:state" v="VT"/>
    <tag k="ref:vcgi:esiteid" v="221583"/>
  </node>
  <node id="-3319" visible="true" lat="44.37090586" lon="-73.22128745">
    <tag k="addr:city" v="Shelburne"/>
    <tag k="addr:housenumber" v="897"/>
    <tag k="addr:street" v="Falls Road"/>
    <tag k="addr:state" v="VT"/>
    <tag k="ref:vcgi:esiteid" v="656435"/>
  </node>
  <node id="-3671" visible="true" lat="44.36538961" lon="-73.22502298">
    <tag k="addr:city" v="Shelburne"/>
    <tag k="addr:housenumber" v="4230"/>
    <tag k="addr:street" v="The Terraces"/>
    <tag k="addr:state" v="VT"/>
    <tag k="ref:vcgi:esiteid" v="771901"/>
  </node>
  <node id="-3672" visible="true" lat="44.3937048" lon="-73.21961323">
    <tag k="addr:city" v="Shelburne"/>
    <tag k="addr:housenumber" v="49"/>
    <tag k="addr:street" v="James Way"/>
    <tag k="addr:state" v="VT"/>
    <tag k="ref:vcgi:esiteid" v="772272"/>
  </node>
  <node id="-3673" visible="true" lat="44.3933657" lon="-73.21973032">
    <tag k="addr:city" v="Shelburne"/>
    <tag k="addr:housenumber" v="72"/>
    <tag k="addr:street" v="James Way"/>
    <tag k="addr:state" v="VT"/>
    <tag k="ref:vcgi:esiteid" v="772273"/>
  </node>
  <node id="-3674" visible="true" lat="44.36858677" lon="-73.21672488">
    <tag k="addr:city" v="Shelburne"/>
    <tag k="addr:housenumber" v="74"/>
    <tag k="addr:street" v="Rivervale Road"/>
    <tag k="addr:state" v="VT"/>
    <tag k="ref:vcgi:esiteid" v="772354"/>
  </node>
  <node id="-3675" visible="true" lat="44.36856738" lon="-73.21628155">
    <tag k="addr:city" v="Shelburne"/>
    <tag k="addr:housenumber" v="72"/>
    <tag k="addr:street" v="Rivervale Road"/>
    <tag k="addr:state" v="VT"/>
    <tag k="ref:vcgi:esiteid" v="772355"/>
  </node>
  <node id="-3676" visible="true" lat="44.39369635" lon="-73.21953703">
    <tag k="addr:city" v="Shelburne"/>
    <tag k="addr:housenumber" v="51"/>
    <tag k="addr:street" v="James Way"/>
    <tag k="addr:state" v="VT"/>
    <tag k="ref:vcgi:esiteid" v="772408"/>
  </node>
  <node id="-3757" visible="true" lat="44.370347" lon="-73.222123">
    <tag k="addr:city" v="Shelburne"/>
    <tag k="addr:housenumber" v="868"/>
    <tag k="addr:street" v="Falls Road"/>
    <tag k="addr:state" v="VT"/>
    <tag k="ref:vcgi:esiteid" v="772600"/>
  </node>
</osm>
