<?xml version="1.0" encoding="UTF-8"?>
<osm version="0.6" generator="JOSM" upload="false">
  <node id="-125" visible="true" lat="44.92659639" lon="-72.95347768">
    <!-- multiple: "83 Meadow Lane, , VT" Multiple exact matches in OSM. -->
    <tag k="addr:housenumber" v="83"/>
    <tag k="addr:street" v="Meadow Lane"/>
    <tag k="addr:state" v="VT"/>
    <tag k="ref:vcgi:esiteid" v="223344"/>
  </node>
  <node id="-360" visible="true" lat="44.90307511" lon="-72.97396743">
    <!-- multiple: "682 Mill Street, , VT" Multiple exact matches in OSM. -->
    <tag k="addr:housenumber" v="682"/>
    <tag k="addr:street" v="Mill Street"/>
    <tag k="addr:state" v="VT"/>
    <tag k="ref:vcgi:esiteid" v="223591"/>
  </node>
  <node id="-720" visible="true" lat="44.88063142" lon="-72.94677108">
    <!-- multiple: "1640 Main Street, , VT" Multiple exact matches in OSM. -->
    <tag k="addr:housenumber" v="1640"/>
    <tag k="addr:street" v="Main Street"/>
    <tag k="addr:state" v="VT"/>
    <tag k="ref:vcgi:esiteid" v="223957"/>
  </node>
  <node id="-741" visible="true" lat="44.87756743" lon="-72.83243441">
    <!-- multiple: "2384 Duffy Hill Road, , VT" Multiple exact matches in OSM. -->
    <tag k="addr:housenumber" v="2384"/>
    <tag k="addr:street" v="Duffy Hill Road"/>
    <tag k="addr:state" v="VT"/>
    <tag k="ref:vcgi:esiteid" v="223978"/>
  </node>
  <node id="-742" visible="true" lat="44.87723837" lon="-72.83351818">
    <!-- multiple: "2430 Duffy Hill Road, , VT" Multiple exact matches in OSM. -->
    <tag k="addr:housenumber" v="2430"/>
    <tag k="addr:street" v="Duffy Hill Road"/>
    <tag k="addr:state" v="VT"/>
    <tag k="ref:vcgi:esiteid" v="223979"/>
  </node>
  <node id="-749" visible="true" lat="44.87423692" lon="-72.83370106">
    <!-- multiple: "2624 Duffy Hill Road, , VT" Multiple exact matches in OSM. -->
    <tag k="addr:housenumber" v="2624"/>
    <tag k="addr:street" v="Duffy Hill Road"/>
    <tag k="addr:state" v="VT"/>
    <tag k="ref:vcgi:esiteid" v="223986"/>
  </node>
  <node id="-752" visible="true" lat="44.8731098" lon="-72.83438003">
    <!-- multiple: "2688 Duffy Hill Road, , VT" Multiple exact matches in OSM. -->
    <tag k="addr:housenumber" v="2688"/>
    <tag k="addr:street" v="Duffy Hill Road"/>
    <tag k="addr:state" v="VT"/>
    <tag k="ref:vcgi:esiteid" v="223989"/>
  </node>
  <node id="-753" visible="true" lat="44.87270903" lon="-72.83485783">
    <!-- multiple: "2760 Duffy Hill Road, , VT" Multiple exact matches in OSM. -->
    <tag k="addr:housenumber" v="2760"/>
    <tag k="addr:street" v="Duffy Hill Road"/>
    <tag k="addr:state" v="VT"/>
    <tag k="ref:vcgi:esiteid" v="223990"/>
  </node>
  <node id="-754" visible="true" lat="44.87179681" lon="-72.83457006">
    <!-- multiple: "2804 Duffy Hill Road, , VT" Multiple exact matches in OSM. -->
    <tag k="addr:housenumber" v="2804"/>
    <tag k="addr:street" v="Duffy Hill Road"/>
    <tag k="addr:state" v="VT"/>
    <tag k="ref:vcgi:esiteid" v="223991"/>
  </node>
  <node id="-816" visible="true" lat="44.88205734" lon="-72.83135055">
    <!-- multiple: "2066 Duffy Hill Road, , VT" Multiple exact matches in OSM. -->
    <tag k="addr:housenumber" v="2066"/>
    <tag k="addr:street" v="Duffy Hill Road"/>
    <tag k="addr:state" v="VT"/>
    <tag k="ref:vcgi:esiteid" v="224062"/>
  </node>
  <node id="-1096" visible="true" lat="44.8597245" lon="-72.857172">
    <!-- multiple: "4360 Duffy Hill Road, , VT" Multiple exact matches in OSM. -->
    <tag k="addr:housenumber" v="4360"/>
    <tag k="addr:street" v="Duffy Hill Road"/>
    <tag k="addr:state" v="VT"/>
    <tag k="ref:vcgi:esiteid" v="617910"/>
  </node>
  <node id="-1140" visible="true" lat="44.88064776" lon="-72.83096867">
    <!-- multiple: "2181 Duffy Hill Road, , VT" Multiple exact matches in OSM. -->
    <tag k="addr:housenumber" v="2181"/>
    <tag k="addr:street" v="Duffy Hill Road"/>
    <tag k="addr:state" v="VT"/>
    <tag k="ref:vcgi:esiteid" v="752211"/>
  </node>
  <node id="-1184" visible="true" lat="44.89474242" lon="-72.8257537">
    <!-- multiple: "1050 Duffy Hill Road, , VT" Multiple exact matches in OSM. -->
    <tag k="addr:housenumber" v="1050"/>
    <tag k="addr:street" v="Duffy Hill Road"/>
    <tag k="addr:state" v="VT"/>
    <tag k="ref:vcgi:esiteid" v="761200"/>
  </node>
  <node id="-1190" visible="true" lat="44.87982046" lon="-72.8467164">
    <!-- multiple: "1208 Swamp Road, , VT" Multiple exact matches in OSM. -->
    <tag k="addr:housenumber" v="1208"/>
    <tag k="addr:street" v="Swamp Road"/>
    <tag k="addr:state" v="VT"/>
    <tag k="ref:vcgi:esiteid" v="765303"/>
  </node>
</osm>
