<?xml version="1.0" encoding="UTF-8"?>
<osm version="0.6" generator="JOSM" upload="false">
  <node id="-172" visible="true" lat="44.42004374" lon="-73.21304089">
    <!-- multiple: "2438 Shelburne Road, Shelburne, VT" Multiple exact matches in OSM. -->
    <tag k="addr:city" v="Shelburne"/>
    <tag k="addr:housenumber" v="2438"/>
    <tag k="addr:street" v="Shelburne Road"/>
    <tag k="addr:state" v="VT"/>
    <tag k="ref:vcgi:esiteid" v="220339"/>
  </node>
  <node id="-188" visible="true" lat="44.41896057" lon="-73.21509551">
    <!-- multiple: "145 Pine Haven Shores Road, Shelburne, VT" Multiple exact matches in OSM. -->
    <tag k="addr:city" v="Shelburne"/>
    <tag k="addr:housenumber" v="145"/>
    <tag k="addr:street" v="Pine Haven Shores Road"/>
    <tag k="addr:state" v="VT"/>
    <tag k="ref:vcgi:esiteid" v="220360"/>
  </node>
  <node id="-477" visible="true" lat="44.41327875" lon="-73.21471192">
    <!-- multiple: "2916 Shelburne Road, Shelburne, VT" Multiple exact matches in OSM. -->
    <tag k="addr:city" v="Shelburne"/>
    <tag k="addr:housenumber" v="2916"/>
    <tag k="addr:street" v="Shelburne Road"/>
    <tag k="addr:state" v="VT"/>
    <tag k="ref:vcgi:esiteid" v="220686"/>
  </node>
  <node id="-808" visible="true" lat="44.40491485" lon="-73.21760559">
    <!-- multiple: "3530 Shelburne Road, Shelburne, VT" Multiple exact matches in OSM. -->
    <tag k="addr:city" v="Shelburne"/>
    <tag k="addr:housenumber" v="3530"/>
    <tag k="addr:street" v="Shelburne Road"/>
    <tag k="addr:state" v="VT"/>
    <tag k="ref:vcgi:esiteid" v="221067"/>
  </node>
  <node id="-812" visible="true" lat="44.40472722" lon="-73.21772901">
    <!-- multiple: "3530 Shelburne Road, Shelburne, VT" Multiple exact matches in OSM. -->
    <tag k="addr:city" v="Shelburne"/>
    <tag k="addr:housenumber" v="3530"/>
    <tag k="addr:street" v="Shelburne Road"/>
    <tag k="addr:state" v="VT"/>
    <tag k="ref:vcgi:esiteid" v="221072"/>
  </node>
  <node id="-1052" visible="true" lat="44.39761776" lon="-73.22080802">
    <!-- multiple: "4066 Shelburne Road, Shelburne, VT" Multiple exact matches in OSM. -->
    <tag k="addr:city" v="Shelburne"/>
    <tag k="addr:housenumber" v="4066"/>
    <tag k="addr:street" v="Shelburne Road"/>
    <tag k="addr:state" v="VT"/>
    <tag k="ref:vcgi:esiteid" v="221340"/>
  </node>
  <node id="-1138" visible="true" lat="44.39568761" lon="-73.24738444">
    <!-- multiple: "26 North Gate Road, Shelburne, VT" Multiple exact matches in OSM. -->
    <tag k="addr:city" v="Shelburne"/>
    <tag k="addr:housenumber" v="26"/>
    <tag k="addr:street" v="North Gate Road"/>
    <tag k="addr:state" v="VT"/>
    <tag k="ref:vcgi:esiteid" v="221443"/>
  </node>
  <node id="-1190" visible="true" lat="44.39349438" lon="-73.22036166">
    <!-- multiple: "4309 Shelburne Road, Shelburne, VT" Multiple exact matches in OSM. -->
    <tag k="addr:city" v="Shelburne"/>
    <tag k="addr:housenumber" v="4309"/>
    <tag k="addr:street" v="Shelburne Road"/>
    <tag k="addr:state" v="VT"/>
    <tag k="ref:vcgi:esiteid" v="221512"/>
  </node>
  <node id="-1209" visible="true" lat="44.39209747" lon="-73.25711822">
    <!-- multiple: "352 Farm Barn Lane, Shelburne, VT" Multiple exact matches in OSM. -->
    <tag k="addr:city" v="Shelburne"/>
    <tag k="addr:housenumber" v="352"/>
    <tag k="addr:street" v="Farm Barn Lane"/>
    <tag k="addr:state" v="VT"/>
    <tag k="ref:vcgi:esiteid" v="221538"/>
  </node>
  <node id="-1335" visible="true" lat="44.38733673" lon="-73.23609924">
    <!-- multiple: "359 Turtle Lane, Shelburne, VT" Multiple exact matches in OSM. -->
    <tag k="addr:city" v="Shelburne"/>
    <tag k="addr:housenumber" v="359"/>
    <tag k="addr:street" v="Turtle Lane"/>
    <tag k="addr:state" v="VT"/>
    <tag k="ref:vcgi:esiteid" v="221683"/>
  </node>
  <node id="-1404" visible="true" lat="44.38362884" lon="-73.22715759">
    <!-- multiple: "5070 Shelburne Road, Shelburne, VT" Multiple exact matches in OSM. -->
    <tag k="addr:city" v="Shelburne"/>
    <tag k="addr:housenumber" v="5070"/>
    <tag k="addr:street" v="Shelburne Road"/>
    <tag k="addr:state" v="VT"/>
    <tag k="ref:vcgi:esiteid" v="221767"/>
  </node>
  <node id="-1414" visible="true" lat="44.38303756" lon="-73.22859954">
    <!-- multiple: "166 Athletic Drive, Shelburne, VT" Multiple exact matches in OSM. -->
    <tag k="addr:city" v="Shelburne"/>
    <tag k="addr:housenumber" v="166"/>
    <tag k="addr:street" v="Athletic Drive"/>
    <tag k="addr:state" v="VT"/>
    <tag k="ref:vcgi:esiteid" v="221783"/>
  </node>
  <node id="-1515" visible="true" lat="44.38100846" lon="-73.22709154">
    <!-- multiple: "5247 Shelburne Road, Shelburne, VT" Multiple exact matches in OSM. -->
    <tag k="addr:city" v="Shelburne"/>
    <tag k="addr:housenumber" v="5247"/>
    <tag k="addr:street" v="Shelburne Road"/>
    <tag k="addr:state" v="VT"/>
    <tag k="ref:vcgi:esiteid" v="221902"/>
  </node>
  <node id="-1532" visible="true" lat="44.38051223" lon="-73.22782897">
    <!-- multiple: "5288 Shelburne Road, Shelburne, VT" Multiple exact matches in OSM. -->
    <tag k="addr:city" v="Shelburne"/>
    <tag k="addr:housenumber" v="5288"/>
    <tag k="addr:street" v="Shelburne Road"/>
    <tag k="addr:state" v="VT"/>
    <tag k="ref:vcgi:esiteid" v="221922"/>
  </node>
  <node id="-1536" visible="true" lat="44.38035964" lon="-73.22695922">
    <!-- multiple: "29 Falls Road, Shelburne, VT" Multiple exact matches in OSM. -->
    <tag k="addr:city" v="Shelburne"/>
    <tag k="addr:housenumber" v="29"/>
    <tag k="addr:street" v="Falls Road"/>
    <tag k="addr:state" v="VT"/>
    <tag k="ref:vcgi:esiteid" v="221928"/>
  </node>
  <node id="-2186" visible="true" lat="44.3661332" lon="-73.23261306">
    <!-- multiple: "6305 Shelburne Road, Shelburne, VT" Multiple exact matches in OSM. -->
    <tag k="addr:city" v="Shelburne"/>
    <tag k="addr:housenumber" v="6305"/>
    <tag k="addr:street" v="Shelburne Road"/>
    <tag k="addr:state" v="VT"/>
    <tag k="ref:vcgi:esiteid" v="222652"/>
  </node>
  <node id="-2389" visible="true" lat="44.41261741" lon="-73.2136798">
    <!-- multiple: "2989 Shelburne Road, Shelburne, VT" Multiple exact matches in OSM. -->
    <tag k="addr:city" v="Shelburne"/>
    <tag k="addr:housenumber" v="2989"/>
    <tag k="addr:street" v="Shelburne Road"/>
    <tag k="addr:state" v="VT"/>
    <tag k="ref:vcgi:esiteid" v="222903"/>
  </node>
  <node id="-2395" visible="true" lat="44.40519138" lon="-73.21811109">
    <!-- multiple: "3530 Shelburne Road, Shelburne, VT" Multiple exact matches in OSM. -->
    <tag k="addr:city" v="Shelburne"/>
    <tag k="addr:housenumber" v="3530"/>
    <tag k="addr:street" v="Shelburne Road"/>
    <tag k="addr:state" v="VT"/>
    <tag k="ref:vcgi:esiteid" v="222910"/>
  </node>
  <node id="-2396" visible="true" lat="44.40517374" lon="-73.2180088">
    <!-- multiple: "3530 Shelburne Road, Shelburne, VT" Multiple exact matches in OSM. -->
    <tag k="addr:city" v="Shelburne"/>
    <tag k="addr:housenumber" v="3530"/>
    <tag k="addr:street" v="Shelburne Road"/>
    <tag k="addr:state" v="VT"/>
    <tag k="ref:vcgi:esiteid" v="222911"/>
  </node>
  <node id="-2397" visible="true" lat="44.40516786" lon="-73.21789317">
    <!-- multiple: "3530 Shelburne Road, Shelburne, VT" Multiple exact matches in OSM. -->
    <tag k="addr:city" v="Shelburne"/>
    <tag k="addr:housenumber" v="3530"/>
    <tag k="addr:street" v="Shelburne Road"/>
    <tag k="addr:state" v="VT"/>
    <tag k="ref:vcgi:esiteid" v="222912"/>
  </node>
  <node id="-2398" visible="true" lat="44.40515862" lon="-73.21779627">
    <!-- multiple: "3530 Shelburne Road, Shelburne, VT" Multiple exact matches in OSM. -->
    <tag k="addr:city" v="Shelburne"/>
    <tag k="addr:housenumber" v="3530"/>
    <tag k="addr:street" v="Shelburne Road"/>
    <tag k="addr:state" v="VT"/>
    <tag k="ref:vcgi:esiteid" v="222913"/>
  </node>
  <node id="-2399" visible="true" lat="44.40515406" lon="-73.21769867">
    <!-- multiple: "3530 Shelburne Road, Shelburne, VT" Multiple exact matches in OSM. -->
    <tag k="addr:city" v="Shelburne"/>
    <tag k="addr:housenumber" v="3530"/>
    <tag k="addr:street" v="Shelburne Road"/>
    <tag k="addr:state" v="VT"/>
    <tag k="ref:vcgi:esiteid" v="222914"/>
  </node>
  <node id="-2400" visible="true" lat="44.40503299" lon="-73.21811213">
    <!-- multiple: "3530 Shelburne Road, Shelburne, VT" Multiple exact matches in OSM. -->
    <tag k="addr:city" v="Shelburne"/>
    <tag k="addr:housenumber" v="3530"/>
    <tag k="addr:street" v="Shelburne Road"/>
    <tag k="addr:state" v="VT"/>
    <tag k="ref:vcgi:esiteid" v="222915"/>
  </node>
  <node id="-2401" visible="true" lat="44.40487262" lon="-73.21816182">
    <!-- multiple: "3530 Shelburne Road, Shelburne, VT" Multiple exact matches in OSM. -->
    <tag k="addr:city" v="Shelburne"/>
    <tag k="addr:housenumber" v="3530"/>
    <tag k="addr:street" v="Shelburne Road"/>
    <tag k="addr:state" v="VT"/>
    <tag k="ref:vcgi:esiteid" v="222917"/>
  </node>
  <node id="-2445" visible="true" lat="44.36901092" lon="-73.23141479">
    <!-- multiple: "10 Marsett Road, Shelburne, VT" Multiple exact matches in OSM. -->
    <tag k="addr:city" v="Shelburne"/>
    <tag k="addr:housenumber" v="10"/>
    <tag k="addr:street" v="Marsett Road"/>
    <tag k="addr:state" v="VT"/>
    <tag k="ref:vcgi:esiteid" v="222966"/>
  </node>
  <node id="-2462" visible="true" lat="44.39286041" lon="-73.21891784">
    <!-- multiple: "4385 Shelburne Road, Shelburne, VT" Multiple exact matches in OSM. -->
    <tag k="addr:city" v="Shelburne"/>
    <tag k="addr:housenumber" v="4385"/>
    <tag k="addr:street" v="Shelburne Road"/>
    <tag k="addr:state" v="VT"/>
    <tag k="ref:vcgi:esiteid" v="222992"/>
  </node>
  <node id="-2463" visible="true" lat="44.39285659" lon="-73.21855163">
    <!-- multiple: "4385 Shelburne Road, Shelburne, VT" Multiple exact matches in OSM. -->
    <tag k="addr:city" v="Shelburne"/>
    <tag k="addr:housenumber" v="4385"/>
    <tag k="addr:street" v="Shelburne Road"/>
    <tag k="addr:state" v="VT"/>
    <tag k="ref:vcgi:esiteid" v="222993"/>
  </node>
  <node id="-2464" visible="true" lat="44.39285278" lon="-73.21874236">
    <!-- multiple: "4385 Shelburne Road, Shelburne, VT" Multiple exact matches in OSM. -->
    <tag k="addr:city" v="Shelburne"/>
    <tag k="addr:housenumber" v="4385"/>
    <tag k="addr:street" v="Shelburne Road"/>
    <tag k="addr:state" v="VT"/>
    <tag k="ref:vcgi:esiteid" v="222994"/>
  </node>
  <node id="-2465" visible="true" lat="44.39284133" lon="-73.21905517">
    <!-- multiple: "4385 Shelburne Road, Shelburne, VT" Multiple exact matches in OSM. -->
    <tag k="addr:city" v="Shelburne"/>
    <tag k="addr:housenumber" v="4385"/>
    <tag k="addr:street" v="Shelburne Road"/>
    <tag k="addr:state" v="VT"/>
    <tag k="ref:vcgi:esiteid" v="222995"/>
  </node>
  <node id="-2466" visible="true" lat="44.39283752" lon="-73.21918487">
    <!-- multiple: "4385 Shelburne Road, Shelburne, VT" Multiple exact matches in OSM. -->
    <tag k="addr:city" v="Shelburne"/>
    <tag k="addr:housenumber" v="4385"/>
    <tag k="addr:street" v="Shelburne Road"/>
    <tag k="addr:state" v="VT"/>
    <tag k="ref:vcgi:esiteid" v="222996"/>
  </node>
  <node id="-2467" visible="true" lat="44.3928337" lon="-73.21932983">
    <!-- multiple: "4385 Shelburne Road, Shelburne, VT" Multiple exact matches in OSM. -->
    <tag k="addr:city" v="Shelburne"/>
    <tag k="addr:housenumber" v="4385"/>
    <tag k="addr:street" v="Shelburne Road"/>
    <tag k="addr:state" v="VT"/>
    <tag k="ref:vcgi:esiteid" v="222997"/>
  </node>
  <node id="-2468" visible="true" lat="44.39271545" lon="-73.21804809">
    <!-- multiple: "4385 Shelburne Road, Shelburne, VT" Multiple exact matches in OSM. -->
    <tag k="addr:city" v="Shelburne"/>
    <tag k="addr:housenumber" v="4385"/>
    <tag k="addr:street" v="Shelburne Road"/>
    <tag k="addr:state" v="VT"/>
    <tag k="ref:vcgi:esiteid" v="222998"/>
  </node>
  <node id="-2469" visible="true" lat="44.39266204" lon="-73.21874999">
    <!-- multiple: "4385 Shelburne Road, Shelburne, VT" Multiple exact matches in OSM. -->
    <tag k="addr:city" v="Shelburne"/>
    <tag k="addr:housenumber" v="4385"/>
    <tag k="addr:street" v="Shelburne Road"/>
    <tag k="addr:state" v="VT"/>
    <tag k="ref:vcgi:esiteid" v="222999"/>
  </node>
  <node id="-2484" visible="true" lat="44.36075254" lon="-73.23525231">
    <!-- multiple: "6701 Shelburne Road, Shelburne, VT" Multiple exact matches in OSM. -->
    <tag k="addr:city" v="Shelburne"/>
    <tag k="addr:housenumber" v="6701"/>
    <tag k="addr:street" v="Shelburne Road"/>
    <tag k="addr:state" v="VT"/>
    <tag k="ref:vcgi:esiteid" v="223017"/>
  </node>
  <node id="-2560" visible="true" lat="44.37638718" lon="-73.22796924">
    <!-- multiple: "5565 Shelburne Road, Shelburne, VT" Multiple exact matches in OSM. -->
    <tag k="addr:city" v="Shelburne"/>
    <tag k="addr:housenumber" v="5565"/>
    <tag k="addr:street" v="Shelburne Road"/>
    <tag k="addr:state" v="VT"/>
    <tag k="ref:vcgi:esiteid" v="223101"/>
  </node>
  <node id="-2562" visible="true" lat="44.37976129" lon="-73.22992707">
    <!-- multiple: "71 Harbor Road, Shelburne, VT" Multiple exact matches in OSM. -->
    <tag k="addr:city" v="Shelburne"/>
    <tag k="addr:housenumber" v="71"/>
    <tag k="addr:street" v="Harbor Road"/>
    <tag k="addr:state" v="VT"/>
    <tag k="ref:vcgi:esiteid" v="223103"/>
  </node>
  <node id="-2573" visible="true" lat="44.3769772" lon="-73.22777608">
    <!-- multiple: "5565 Shelburne Road, Shelburne, VT" Multiple exact matches in OSM. -->
    <tag k="addr:city" v="Shelburne"/>
    <tag k="addr:housenumber" v="5565"/>
    <tag k="addr:street" v="Shelburne Road"/>
    <tag k="addr:state" v="VT"/>
    <tag k="ref:vcgi:esiteid" v="223114"/>
  </node>
  <node id="-3113" visible="true" lat="44.40268116" lon="-73.21874553">
    <!-- multiple: "3708 Shelburne Road, Shelburne, VT" Multiple exact matches in OSM. -->
    <tag k="addr:city" v="Shelburne"/>
    <tag k="addr:housenumber" v="3708"/>
    <tag k="addr:street" v="Shelburne Road"/>
    <tag k="addr:state" v="VT"/>
    <tag k="ref:vcgi:esiteid" v="340023"/>
  </node>
  <node id="-3307" visible="true" lat="44.39293235" lon="-73.22294386">
    <!-- multiple: "79 Shagbark Lane, Shelburne, VT" Multiple exact matches in OSM. -->
    <tag k="addr:city" v="Shelburne"/>
    <tag k="addr:housenumber" v="79"/>
    <tag k="addr:street" v="Shagbark Lane"/>
    <tag k="addr:state" v="VT"/>
    <tag k="ref:vcgi:esiteid" v="617941"/>
  </node>
</osm>
