<?xml version="1.0" encoding="UTF-8"?>
<osm version="0.6" generator="JOSM" upload="false">
  <node id="-744" visible="true" lat="43.51997692" lon="-72.82266618">
    <tag k="addr:city" v="Shrewsbury"/>
    <tag k="addr:housenumber" v="701"/>
    <tag k="addr:street" v="Eastham Road"/>
    <tag k="addr:state" v="VT"/>
    <tag k="ref:vcgi:esiteid" v="646589"/>
  </node>
  <node id="-772" visible="true" lat="43.50030411" lon="-72.85936851">
    <tag k="addr:city" v="Shrewsbury"/>
    <tag k="addr:housenumber" v="692"/>
    <tag k="addr:street" v="Russellville Road"/>
    <tag k="addr:state" v="VT"/>
    <tag k="ref:vcgi:esiteid" v="771571"/>
  </node>
  <node id="-773" visible="true" lat="43.5014609" lon="-72.87126744">
    <tag k="addr:city" v="Shrewsbury"/>
    <tag k="addr:housenumber" v="50"/>
    <tag k="addr:street" v="Copperas Hill Road"/>
    <tag k="addr:state" v="VT"/>
    <tag k="ref:vcgi:esiteid" v="771613"/>
  </node>
  <node id="-774" visible="true" lat="43.49344238" lon="-72.91956592">
    <tag k="addr:city" v="Shrewsbury"/>
    <tag k="addr:housenumber" v="1730"/>
    <tag k="addr:street" v="Spring Lake Road"/>
    <tag k="addr:state" v="VT"/>
    <tag k="ref:vcgi:esiteid" v="772162"/>
  </node>
  <node id="-775" visible="true" lat="43.53376528" lon="-72.8263293">
    <tag k="addr:city" v="Shrewsbury"/>
    <tag k="addr:housenumber" v="283"/>
    <tag k="addr:street" v="CCC Road"/>
    <tag k="addr:state" v="VT"/>
    <tag k="ref:vcgi:esiteid" v="772575"/>
  </node>
  <node id="-776" visible="true" lat="43.48538332" lon="-72.86604688">
    <tag k="addr:city" v="Shrewsbury"/>
    <tag k="addr:housenumber" v="900"/>
    <tag k="addr:street" v="Shunpike Road"/>
    <tag k="addr:state" v="VT"/>
    <tag k="ref:vcgi:esiteid" v="772599"/>
  </node>
</osm>
