<?xml version="1.0" encoding="UTF-8"?>
<osm version="0.6" generator="JOSM" upload="false">
  <node id="-1473" visible="true" lat="44.59276399" lon="-73.33634409">
    <tag k="addr:city" v="South Hero"/>
    <tag k="addr:housenumber" v="343"/>
    <tag k="addr:street" v="Stave Island"/>
    <tag k="addr:state" v="VT"/>
    <tag k="ref:vcgi:esiteid" v="451787"/>
  </node>
  <node id="-1491" visible="true" lat="44.67379089" lon="-73.25274425">
    <tag k="addr:city" v="South Hero"/>
    <tag k="addr:housenumber" v="568"/>
    <tag k="addr:street" v="Fish Bladder Island"/>
    <tag k="addr:state" v="VT"/>
    <tag k="ref:vcgi:esiteid" v="452198"/>
  </node>
  <node id="-1493" visible="true" lat="44.66761553" lon="-73.29761289">
    <tag k="addr:city" v="South Hero"/>
    <tag k="addr:housenumber" v="216"/>
    <tag k="addr:street" v="Kellogg Island"/>
    <tag k="addr:state" v="VT"/>
    <tag k="ref:vcgi:esiteid" v="452200"/>
  </node>
  <node id="-1558" visible="true" lat="44.63442154" lon="-73.26518534">
    <tag k="addr:city" v="South Hero"/>
    <tag k="addr:housenumber" v="59"/>
    <tag k="addr:street" v="U.S. Route 2"/>
    <tag k="addr:state" v="VT"/>
    <tag k="ref:vcgi:esiteid" v="656271"/>
  </node>
  <node id="-1768" visible="true" lat="44.66239354" lon="-73.32303193">
    <tag k="addr:city" v="South Hero"/>
    <tag k="addr:housenumber" v="505"/>
    <tag k="addr:street" v="U.S. Route 2"/>
    <tag k="addr:state" v="VT"/>
    <tag k="ref:vcgi:esiteid" v="771279"/>
  </node>
  <node id="-1769" visible="true" lat="44.65687634" lon="-73.34696773">
    <tag k="addr:city" v="South Hero"/>
    <tag k="addr:housenumber" v="441"/>
    <tag k="addr:street" v="West Shore Road"/>
    <tag k="addr:state" v="VT"/>
    <tag k="ref:vcgi:esiteid" v="771329"/>
  </node>
  <node id="-1770" visible="true" lat="44.6407124" lon="-73.27017726">
    <tag k="addr:city" v="South Hero"/>
    <tag k="addr:housenumber" v="12"/>
    <tag k="addr:street" v="Old Farm Road"/>
    <tag k="addr:state" v="VT"/>
    <tag k="ref:vcgi:esiteid" v="772118"/>
  </node>
  <node id="-1771" visible="true" lat="44.67472172" lon="-73.34226224">
    <tag k="addr:city" v="South Hero"/>
    <tag k="addr:housenumber" v="41"/>
    <tag k="addr:street" v="Lindseys Lane"/>
    <tag k="addr:state" v="VT"/>
    <tag k="ref:vcgi:esiteid" v="772125"/>
  </node>
  <node id="-1772" visible="true" lat="44.67420076" lon="-73.34343098">
    <tag k="addr:city" v="South Hero"/>
    <tag k="addr:housenumber" v="92"/>
    <tag k="addr:street" v="Lindseys Lane"/>
    <tag k="addr:state" v="VT"/>
    <tag k="ref:vcgi:esiteid" v="772126"/>
  </node>
  <node id="-1773" visible="true" lat="44.67333261" lon="-73.34348131">
    <tag k="addr:city" v="South Hero"/>
    <tag k="addr:housenumber" v="130"/>
    <tag k="addr:street" v="Lindseys Lane"/>
    <tag k="addr:state" v="VT"/>
    <tag k="ref:vcgi:esiteid" v="772127"/>
  </node>
  <node id="-1774" visible="true" lat="44.67325711" lon="-73.34273469">
    <tag k="addr:city" v="South Hero"/>
    <tag k="addr:housenumber" v="135"/>
    <tag k="addr:street" v="Lindseys Lane"/>
    <tag k="addr:state" v="VT"/>
    <tag k="ref:vcgi:esiteid" v="772128"/>
  </node>
  <node id="-1775" visible="true" lat="44.67457696" lon="-73.34134131">
    <tag k="addr:city" v="South Hero"/>
    <tag k="addr:housenumber" v="12"/>
    <tag k="addr:street" v="Coles Court"/>
    <tag k="addr:state" v="VT"/>
    <tag k="ref:vcgi:esiteid" v="772129"/>
  </node>
  <node id="-1776" visible="true" lat="44.6742608" lon="-73.34104246">
    <tag k="addr:city" v="South Hero"/>
    <tag k="addr:housenumber" v="24"/>
    <tag k="addr:street" v="Coles Court"/>
    <tag k="addr:state" v="VT"/>
    <tag k="ref:vcgi:esiteid" v="772130"/>
  </node>
  <node id="-1777" visible="true" lat="44.67426765" lon="-73.34046693">
    <tag k="addr:city" v="South Hero"/>
    <tag k="addr:housenumber" v="13"/>
    <tag k="addr:street" v="Coles Court"/>
    <tag k="addr:state" v="VT"/>
    <tag k="ref:vcgi:esiteid" v="772131"/>
  </node>
  <node id="-1778" visible="true" lat="44.67550384" lon="-73.34414468">
    <tag k="addr:city" v="South Hero"/>
    <tag k="addr:housenumber" v="70"/>
    <tag k="addr:street" v="Lindseys Lane"/>
    <tag k="addr:state" v="VT"/>
    <tag k="ref:vcgi:esiteid" v="772132"/>
  </node>
  <node id="-1780" visible="true" lat="44.64615785" lon="-73.33330865">
    <tag k="addr:city" v="South Hero"/>
    <tag k="addr:housenumber" v="75"/>
    <tag k="addr:street" v="Sunset View Road"/>
    <tag k="addr:state" v="VT"/>
    <tag k="ref:vcgi:esiteid" v="772334"/>
  </node>
</osm>
