<?xml version="1.0" encoding="UTF-8"?>
<osm version="0.6" generator="JOSM" upload="false">
  <node id="-1948" visible="true" lat="44.45420228" lon="-73.20714876">
    <!-- conflict: "15 Apple Tree Court, South Burlington, VT" Fuzzy match to "15 Appletree Court, South Burlington, VT" -->
    <tag k="addr:city" v="South Burlington"/>
    <tag k="addr:housenumber" v="15"/>
    <tag k="addr:street" v="Apple Tree Court"/>
    <tag k="addr:state" v="VT"/>
    <tag k="ref:vcgi:esiteid" v="229125"/>
  </node>
  <node id="-1962" visible="true" lat="44.45409599" lon="-73.20664303">
    <!-- conflict: "16 Apple Tree Court, South Burlington, VT" Fuzzy match to "16 Appletree Court, South Burlington, VT" -->
    <tag k="addr:city" v="South Burlington"/>
    <tag k="addr:housenumber" v="16"/>
    <tag k="addr:street" v="Apple Tree Court"/>
    <tag k="addr:state" v="VT"/>
    <tag k="ref:vcgi:esiteid" v="229141"/>
  </node>
  <node id="-1963" visible="true" lat="44.45385349" lon="-73.20718007">
    <!-- conflict: "21 Apple Tree Court, South Burlington, VT" Fuzzy match to "21 Appletree Court, South Burlington, VT" -->
    <tag k="addr:city" v="South Burlington"/>
    <tag k="addr:housenumber" v="21"/>
    <tag k="addr:street" v="Apple Tree Court"/>
    <tag k="addr:state" v="VT"/>
    <tag k="ref:vcgi:esiteid" v="229143"/>
  </node>
  <node id="-1969" visible="true" lat="44.45390626" lon="-73.20658352">
    <!-- conflict: "18 Apple Tree Court, South Burlington, VT" Fuzzy match to "18 Appletree Court, South Burlington, VT" -->
    <tag k="addr:city" v="South Burlington"/>
    <tag k="addr:housenumber" v="18"/>
    <tag k="addr:street" v="Apple Tree Court"/>
    <tag k="addr:state" v="VT"/>
    <tag k="ref:vcgi:esiteid" v="229149"/>
  </node>
  <node id="-1982" visible="true" lat="44.45365746" lon="-73.20719547">
    <!-- conflict: "23 Apple Tree Court, South Burlington, VT" Fuzzy match to "23 Appletree Court, South Burlington, VT" -->
    <tag k="addr:city" v="South Burlington"/>
    <tag k="addr:housenumber" v="23"/>
    <tag k="addr:street" v="Apple Tree Court"/>
    <tag k="addr:state" v="VT"/>
    <tag k="ref:vcgi:esiteid" v="229165"/>
  </node>
  <node id="-5284" visible="true" lat="44.4817765" lon="-73.15795006">
    <!-- conflict: "19 Commerce Avenue, South Burlington, VT" No match in OSM, but a different address exists <5m away: "25 Commerce Avenue, South Burlington, VT" -->
    <tag k="addr:city" v="South Burlington"/>
    <tag k="addr:housenumber" v="19"/>
    <tag k="addr:street" v="Commerce Avenue"/>
    <tag k="addr:state" v="VT"/>
    <tag k="ref:vcgi:esiteid" v="232952"/>
  </node>
  <node id="-5757" visible="true" lat="44.4540202" lon="-73.20713878">
    <!-- conflict: "17 Apple Tree Court, South Burlington, VT" Fuzzy match to "17 Appletree Court, South Burlington, VT" -->
    <tag k="addr:city" v="South Burlington"/>
    <tag k="addr:housenumber" v="17"/>
    <tag k="addr:street" v="Apple Tree Court"/>
    <tag k="addr:state" v="VT"/>
    <tag k="ref:vcgi:esiteid" v="309607"/>
  </node>
  <node id="-6890" visible="true" lat="44.45364873" lon="-73.20665356">
    <!-- conflict: "20 Apple Tree Court, South Burlington, VT" Fuzzy match to "20 Appletree Court, South Burlington, VT" -->
    <tag k="addr:city" v="South Burlington"/>
    <tag k="addr:housenumber" v="20"/>
    <tag k="addr:street" v="Apple Tree Court"/>
    <tag k="addr:state" v="VT"/>
    <tag k="ref:vcgi:esiteid" v="451048"/>
  </node>
  <node id="-7256" visible="true" lat="44.46969286" lon="-73.17506724">
    <!-- conflict: "1232 Williston Road, South Burlington, VT" No match in OSM, but a different address exists <5m away: "1232 Executive Drive, South Burlington, VT" -->
    <tag k="addr:city" v="South Burlington"/>
    <tag k="addr:housenumber" v="1232"/>
    <tag k="addr:street" v="Williston Road"/>
    <tag k="addr:state" v="VT"/>
    <tag k="ref:vcgi:esiteid" v="655443"/>
  </node>
  <node id="-7710" visible="true" lat="44.4530957" lon="-73.15400024">
    <!-- conflict: "108 Mabel Way, South Burlington, VT" No match in OSM, but a different address exists <5m away: "104 Mabel Way, South Burlington, VT" -->
    <tag k="addr:city" v="South Burlington"/>
    <tag k="addr:housenumber" v="108"/>
    <tag k="addr:street" v="Mabel Way"/>
    <tag k="addr:state" v="VT"/>
    <tag k="ref:vcgi:esiteid" v="766853"/>
  </node>
  <node id="-7852" visible="true" lat="44.46511865" lon="-73.17734536">
    <!-- conflict: "19 Nameless Ytbd, South Burlington, VT" No match in OSM, but a different address exists <5m away: "19 Market Street, South Burlington, VT" -->
    <tag k="addr:city" v="South Burlington"/>
    <tag k="addr:housenumber" v="19"/>
    <tag k="addr:street" v="Nameless Ytbd"/>
    <tag k="addr:state" v="VT"/>
    <tag k="ref:vcgi:esiteid" v="770792"/>
  </node>
  <node id="-7853" visible="true" lat="44.46507796" lon="-73.17739729">
    <!-- conflict: "23 Nameless Ytbd, South Burlington, VT" No match in OSM, but a different address exists <5m away: "25 Market Street, South Burlington, VT" -->
    <tag k="addr:city" v="South Burlington"/>
    <tag k="addr:housenumber" v="23"/>
    <tag k="addr:street" v="Nameless Ytbd"/>
    <tag k="addr:state" v="VT"/>
    <tag k="ref:vcgi:esiteid" v="770793"/>
  </node>
  <node id="-7854" visible="true" lat="44.46505537" lon="-73.17742613">
    <!-- conflict: "25 Nameless Ytbd, South Burlington, VT" No match in OSM, but a different address exists <5m away: "27 Market Street, South Burlington, VT" -->
    <tag k="addr:city" v="South Burlington"/>
    <tag k="addr:housenumber" v="25"/>
    <tag k="addr:street" v="Nameless Ytbd"/>
    <tag k="addr:state" v="VT"/>
    <tag k="ref:vcgi:esiteid" v="770794"/>
  </node>
  <node id="-7855" visible="true" lat="44.46503199" lon="-73.17745598">
    <!-- conflict: "27 Nameless Ytbd, South Burlington, VT" No match in OSM, but a different address exists <5m away: "27 Market Street, South Burlington, VT" -->
    <tag k="addr:city" v="South Burlington"/>
    <tag k="addr:housenumber" v="27"/>
    <tag k="addr:street" v="Nameless Ytbd"/>
    <tag k="addr:state" v="VT"/>
    <tag k="ref:vcgi:esiteid" v="770795"/>
  </node>
  <node id="-7856" visible="true" lat="44.46498703" lon="-73.17751337">
    <!-- conflict: "31 Nameless Ytbd, South Burlington, VT" No match in OSM, but a different address exists <5m away: "31 Market Street, South Burlington, VT" -->
    <tag k="addr:city" v="South Burlington"/>
    <tag k="addr:housenumber" v="31"/>
    <tag k="addr:street" v="Nameless Ytbd"/>
    <tag k="addr:state" v="VT"/>
    <tag k="ref:vcgi:esiteid" v="770796"/>
  </node>
  <node id="-7863" visible="true" lat="44.46517298" lon="-73.17727601">
    <!-- conflict: "13 Nameless Ytbd, South Burlington, VT" No match in OSM, but a different address exists <5m away: "13 Market Street, South Burlington, VT" -->
    <tag k="addr:city" v="South Burlington"/>
    <tag k="addr:housenumber" v="13"/>
    <tag k="addr:street" v="Nameless Ytbd"/>
    <tag k="addr:state" v="VT"/>
    <tag k="ref:vcgi:esiteid" v="770803"/>
  </node>
</osm>
