<?xml version="1.0" encoding="UTF-8"?>
<osm version="0.6" generator="JOSM" upload="false">
  <node id="-118" visible="true" lat="44.67599858" lon="-73.34614063">
    <!-- multiple: "586 West Shore Road, South Hero, VT" Multiple exact matches in OSM. -->
    <tag k="addr:city" v="South Hero"/>
    <tag k="addr:housenumber" v="586"/>
    <tag k="addr:street" v="West Shore Road"/>
    <tag k="addr:state" v="VT"/>
    <tag k="ref:vcgi:esiteid" v="233263"/>
  </node>
  <node id="-121" visible="true" lat="44.67566502" lon="-73.34618061">
    <!-- multiple: "586 West Shore Road, South Hero, VT" Multiple exact matches in OSM. -->
    <tag k="addr:city" v="South Hero"/>
    <tag k="addr:housenumber" v="586"/>
    <tag k="addr:street" v="West Shore Road"/>
    <tag k="addr:state" v="VT"/>
    <tag k="ref:vcgi:esiteid" v="233266"/>
  </node>
  <node id="-127" visible="true" lat="44.6752701" lon="-73.34839363">
    <!-- multiple: "581 West Shore Road, South Hero, VT" Multiple exact matches in OSM. -->
    <tag k="addr:city" v="South Hero"/>
    <tag k="addr:housenumber" v="581"/>
    <tag k="addr:street" v="West Shore Road"/>
    <tag k="addr:state" v="VT"/>
    <tag k="ref:vcgi:esiteid" v="233272"/>
  </node>
  <node id="-129" visible="true" lat="44.67515947" lon="-73.34898872">
    <!-- multiple: "581 West Shore Road, South Hero, VT" Multiple exact matches in OSM. -->
    <tag k="addr:city" v="South Hero"/>
    <tag k="addr:housenumber" v="581"/>
    <tag k="addr:street" v="West Shore Road"/>
    <tag k="addr:state" v="VT"/>
    <tag k="ref:vcgi:esiteid" v="233274"/>
  </node>
  <node id="-155" visible="true" lat="44.67036437" lon="-73.32135009">
    <!-- multiple: "564 U.S. Route 2, South Hero, VT" Multiple exact matches in OSM. -->
    <tag k="addr:city" v="South Hero"/>
    <tag k="addr:housenumber" v="564"/>
    <tag k="addr:street" v="U.S. Route 2"/>
    <tag k="addr:state" v="VT"/>
    <tag k="ref:vcgi:esiteid" v="233300"/>
  </node>
  <node id="-158" visible="true" lat="44.66977806" lon="-73.3357808">
    <!-- multiple: "66 Ferry Road, South Hero, VT" Multiple exact matches in OSM. -->
    <tag k="addr:city" v="South Hero"/>
    <tag k="addr:housenumber" v="66"/>
    <tag k="addr:street" v="Ferry Road"/>
    <tag k="addr:state" v="VT"/>
    <tag k="ref:vcgi:esiteid" v="233303"/>
  </node>
  <node id="-246" visible="true" lat="44.66418457" lon="-73.32299041">
    <!-- multiple: "1 Ferry Road, South Hero, VT" Multiple exact matches in OSM. -->
    <tag k="addr:city" v="South Hero"/>
    <tag k="addr:housenumber" v="1"/>
    <tag k="addr:street" v="Ferry Road"/>
    <tag k="addr:state" v="VT"/>
    <tag k="ref:vcgi:esiteid" v="233394"/>
  </node>
  <node id="-350" visible="true" lat="44.65820995" lon="-73.32089336">
    <!-- multiple: "472 U.S. Route 2, South Hero, VT" Multiple exact matches in OSM. -->
    <tag k="addr:city" v="South Hero"/>
    <tag k="addr:housenumber" v="472"/>
    <tag k="addr:street" v="U.S. Route 2"/>
    <tag k="addr:state" v="VT"/>
    <tag k="ref:vcgi:esiteid" v="233505"/>
  </node>
  <node id="-352" visible="true" lat="44.65803707" lon="-73.32053847">
    <!-- multiple: "472 U.S. Route 2, South Hero, VT" Multiple exact matches in OSM. -->
    <tag k="addr:city" v="South Hero"/>
    <tag k="addr:housenumber" v="472"/>
    <tag k="addr:street" v="U.S. Route 2"/>
    <tag k="addr:state" v="VT"/>
    <tag k="ref:vcgi:esiteid" v="233507"/>
  </node>
  <node id="-487" visible="true" lat="44.65002059" lon="-73.29815673">
    <!-- multiple: "25 Carter Lane, South Hero, VT" Multiple exact matches in OSM. -->
    <tag k="addr:city" v="South Hero"/>
    <tag k="addr:housenumber" v="25"/>
    <tag k="addr:street" v="Carter Lane"/>
    <tag k="addr:state" v="VT"/>
    <tag k="ref:vcgi:esiteid" v="233646"/>
  </node>
  <node id="-492" visible="true" lat="44.64992141" lon="-73.29795074">
    <!-- multiple: "25 Carter Lane, South Hero, VT" Multiple exact matches in OSM. -->
    <tag k="addr:city" v="South Hero"/>
    <tag k="addr:housenumber" v="25"/>
    <tag k="addr:street" v="Carter Lane"/>
    <tag k="addr:state" v="VT"/>
    <tag k="ref:vcgi:esiteid" v="233651"/>
  </node>
  <node id="-507" visible="true" lat="44.64931735" lon="-73.29809408">
    <!-- multiple: "25 Carter Lane, South Hero, VT" Multiple exact matches in OSM. -->
    <tag k="addr:city" v="South Hero"/>
    <tag k="addr:housenumber" v="25"/>
    <tag k="addr:street" v="Carter Lane"/>
    <tag k="addr:state" v="VT"/>
    <tag k="ref:vcgi:esiteid" v="233667"/>
  </node>
  <node id="-589" visible="true" lat="44.64575958" lon="-73.30833435">
    <!-- multiple: "348 U.S. Route 2, South Hero, VT" Multiple exact matches in OSM. -->
    <tag k="addr:city" v="South Hero"/>
    <tag k="addr:housenumber" v="348"/>
    <tag k="addr:street" v="U.S. Route 2"/>
    <tag k="addr:state" v="VT"/>
    <tag k="ref:vcgi:esiteid" v="233754"/>
  </node>
  <node id="-595" visible="true" lat="44.64563751" lon="-73.30850219">
    <!-- multiple: "348 U.S. Route 2, South Hero, VT" Multiple exact matches in OSM. -->
    <tag k="addr:city" v="South Hero"/>
    <tag k="addr:housenumber" v="348"/>
    <tag k="addr:street" v="U.S. Route 2"/>
    <tag k="addr:state" v="VT"/>
    <tag k="ref:vcgi:esiteid" v="233762"/>
  </node>
  <node id="-603" visible="true" lat="44.64552852" lon="-73.30091171">
    <!-- multiple: "291 U.S. Route 2, South Hero, VT" Multiple exact matches in OSM. -->
    <tag k="addr:city" v="South Hero"/>
    <tag k="addr:housenumber" v="291"/>
    <tag k="addr:street" v="U.S. Route 2"/>
    <tag k="addr:state" v="VT"/>
    <tag k="ref:vcgi:esiteid" v="233770"/>
  </node>
  <node id="-607" visible="true" lat="44.64544296" lon="-73.30168914">
    <!-- multiple: "295 U.S. Route 2, South Hero, VT" Multiple exact matches in OSM. -->
    <tag k="addr:city" v="South Hero"/>
    <tag k="addr:housenumber" v="295"/>
    <tag k="addr:street" v="U.S. Route 2"/>
    <tag k="addr:state" v="VT"/>
    <tag k="ref:vcgi:esiteid" v="233775"/>
  </node>
  <node id="-613" visible="true" lat="44.64488604" lon="-73.34695931">
    <!-- multiple: "341 West Shore Road, South Hero, VT" Multiple exact matches in OSM. -->
    <tag k="addr:city" v="South Hero"/>
    <tag k="addr:housenumber" v="341"/>
    <tag k="addr:street" v="West Shore Road"/>
    <tag k="addr:state" v="VT"/>
    <tag k="ref:vcgi:esiteid" v="233783"/>
  </node>
  <node id="-614" visible="true" lat="44.64488604" lon="-73.34652443">
    <!-- multiple: "341 West Shore Road, South Hero, VT" Multiple exact matches in OSM. -->
    <tag k="addr:city" v="South Hero"/>
    <tag k="addr:housenumber" v="341"/>
    <tag k="addr:street" v="West Shore Road"/>
    <tag k="addr:state" v="VT"/>
    <tag k="ref:vcgi:esiteid" v="233784"/>
  </node>
  <node id="-625" visible="true" lat="44.64465332" lon="-73.34634399">
    <!-- multiple: "341 West Shore Road, South Hero, VT" Multiple exact matches in OSM. -->
    <tag k="addr:city" v="South Hero"/>
    <tag k="addr:housenumber" v="341"/>
    <tag k="addr:street" v="West Shore Road"/>
    <tag k="addr:state" v="VT"/>
    <tag k="ref:vcgi:esiteid" v="233795"/>
  </node>
  <node id="-739" visible="true" lat="44.63436126" lon="-73.30294036">
    <!-- multiple: "86 South Street, South Hero, VT" Multiple exact matches in OSM. -->
    <tag k="addr:city" v="South Hero"/>
    <tag k="addr:housenumber" v="86"/>
    <tag k="addr:street" v="South Street"/>
    <tag k="addr:state" v="VT"/>
    <tag k="ref:vcgi:esiteid" v="233917"/>
  </node>
  <node id="-741" visible="true" lat="44.6342163" lon="-73.30310058">
    <!-- multiple: "86 South Street, South Hero, VT" Multiple exact matches in OSM. -->
    <tag k="addr:city" v="South Hero"/>
    <tag k="addr:housenumber" v="86"/>
    <tag k="addr:street" v="South Street"/>
    <tag k="addr:state" v="VT"/>
    <tag k="ref:vcgi:esiteid" v="233921"/>
  </node>
  <node id="-995" visible="true" lat="44.60702496" lon="-73.30584392">
    <!-- multiple: "308 South Street, South Hero, VT" Multiple exact matches in OSM. -->
    <tag k="addr:city" v="South Hero"/>
    <tag k="addr:housenumber" v="308"/>
    <tag k="addr:street" v="South Street"/>
    <tag k="addr:state" v="VT"/>
    <tag k="ref:vcgi:esiteid" v="234189"/>
  </node>
  <node id="-1046" visible="true" lat="44.59732437" lon="-73.30228424">
    <!-- multiple: "398 South Street, South Hero, VT" Multiple exact matches in OSM. -->
    <tag k="addr:city" v="South Hero"/>
    <tag k="addr:housenumber" v="398"/>
    <tag k="addr:street" v="South Street"/>
    <tag k="addr:state" v="VT"/>
    <tag k="ref:vcgi:esiteid" v="234241"/>
  </node>
  <node id="-1052" visible="true" lat="44.59690856" lon="-73.30249786">
    <!-- multiple: "398 South Street, South Hero, VT" Multiple exact matches in OSM. -->
    <tag k="addr:city" v="South Hero"/>
    <tag k="addr:housenumber" v="398"/>
    <tag k="addr:street" v="South Street"/>
    <tag k="addr:state" v="VT"/>
    <tag k="ref:vcgi:esiteid" v="234247"/>
  </node>
  <node id="-1054" visible="true" lat="44.59666824" lon="-73.30257415">
    <!-- multiple: "398 South Street, South Hero, VT" Multiple exact matches in OSM. -->
    <tag k="addr:city" v="South Hero"/>
    <tag k="addr:housenumber" v="398"/>
    <tag k="addr:street" v="South Street"/>
    <tag k="addr:state" v="VT"/>
    <tag k="ref:vcgi:esiteid" v="234249"/>
  </node>
  <node id="-1059" visible="true" lat="44.59648132" lon="-73.3024826">
    <!-- multiple: "398 South Street, South Hero, VT" Multiple exact matches in OSM. -->
    <tag k="addr:city" v="South Hero"/>
    <tag k="addr:housenumber" v="398"/>
    <tag k="addr:street" v="South Street"/>
    <tag k="addr:state" v="VT"/>
    <tag k="ref:vcgi:esiteid" v="234254"/>
  </node>
  <node id="-1446" visible="true" lat="44.61831865" lon="-73.27522007">
    <!-- multiple: "48 Outerbay Way, South Hero, VT" Multiple exact matches in OSM. -->
    <tag k="addr:city" v="South Hero"/>
    <tag k="addr:housenumber" v="48"/>
    <tag k="addr:street" v="Outerbay Way"/>
    <tag k="addr:state" v="VT"/>
    <tag k="ref:vcgi:esiteid" v="445405"/>
  </node>
</osm>
