<?xml version="1.0" encoding="UTF-8"?>
<osm version="0.6" generator="JOSM" upload="false">
  <node id="-110" visible="true" lat="44.48325744" lon="-73.16461696">
    <!-- multiple: "141 Shamrock Road, South Burlington, VT" Multiple exact matches in OSM. -->
    <tag k="addr:city" v="South Burlington"/>
    <tag k="addr:housenumber" v="141"/>
    <tag k="addr:street" v="Shamrock Road"/>
    <tag k="addr:state" v="VT"/>
    <tag k="ref:vcgi:esiteid" v="226839"/>
  </node>
  <node id="-111" visible="true" lat="44.48369318" lon="-73.15679195">
    <!-- multiple: "80 Ethan Allen Drive, South Burlington, VT" Multiple exact matches in OSM. -->
    <tag k="addr:city" v="South Burlington"/>
    <tag k="addr:housenumber" v="80"/>
    <tag k="addr:street" v="Ethan Allen Drive"/>
    <tag k="addr:state" v="VT"/>
    <tag k="ref:vcgi:esiteid" v="226842"/>
  </node>
  <node id="-215" visible="true" lat="44.47847274" lon="-73.17361332">
    <!-- multiple: "87 Landfill Road, South Burlington, VT" Multiple exact matches in OSM. -->
    <tag k="addr:city" v="South Burlington"/>
    <tag k="addr:housenumber" v="87"/>
    <tag k="addr:street" v="Landfill Road"/>
    <tag k="addr:state" v="VT"/>
    <tag k="ref:vcgi:esiteid" v="226973"/>
  </node>
  <node id="-221" visible="true" lat="44.47752498" lon="-73.17387339">
    <!-- multiple: "376 Patchen Road, South Burlington, VT" Multiple exact matches in OSM. -->
    <tag k="addr:city" v="South Burlington"/>
    <tag k="addr:housenumber" v="376"/>
    <tag k="addr:street" v="Patchen Road"/>
    <tag k="addr:state" v="VT"/>
    <tag k="ref:vcgi:esiteid" v="226981"/>
  </node>
  <node id="-223" visible="true" lat="44.47726719" lon="-73.17478073">
    <!-- multiple: "376 Patchen Road, South Burlington, VT" Multiple exact matches in OSM. -->
    <tag k="addr:city" v="South Burlington"/>
    <tag k="addr:housenumber" v="376"/>
    <tag k="addr:street" v="Patchen Road"/>
    <tag k="addr:state" v="VT"/>
    <tag k="ref:vcgi:esiteid" v="226985"/>
  </node>
  <node id="-227" visible="true" lat="44.47728868" lon="-73.17384095">
    <!-- multiple: "376 Patchen Road, South Burlington, VT" Multiple exact matches in OSM. -->
    <tag k="addr:city" v="South Burlington"/>
    <tag k="addr:housenumber" v="376"/>
    <tag k="addr:street" v="Patchen Road"/>
    <tag k="addr:state" v="VT"/>
    <tag k="ref:vcgi:esiteid" v="226991"/>
  </node>
  <node id="-559" visible="true" lat="44.47021642" lon="-73.17881531">
    <!-- multiple: "1076 Williston Road, South Burlington, VT" Multiple exact matches in OSM. -->
    <tag k="addr:city" v="South Burlington"/>
    <tag k="addr:housenumber" v="1076"/>
    <tag k="addr:street" v="Williston Road"/>
    <tag k="addr:state" v="VT"/>
    <tag k="ref:vcgi:esiteid" v="227463"/>
  </node>
  <node id="-567" visible="true" lat="44.47015766" lon="-73.1665391">
    <!-- multiple: "212 White Street, South Burlington, VT" Multiple exact matches in OSM. -->
    <tag k="addr:city" v="South Burlington"/>
    <tag k="addr:housenumber" v="212"/>
    <tag k="addr:street" v="White Street"/>
    <tag k="addr:state" v="VT"/>
    <tag k="ref:vcgi:esiteid" v="227472"/>
  </node>
  <node id="-596" visible="true" lat="44.46996163" lon="-73.16666957">
    <!-- multiple: "212 White Street, South Burlington, VT" Multiple exact matches in OSM. -->
    <tag k="addr:city" v="South Burlington"/>
    <tag k="addr:housenumber" v="212"/>
    <tag k="addr:street" v="White Street"/>
    <tag k="addr:state" v="VT"/>
    <tag k="ref:vcgi:esiteid" v="227510"/>
  </node>
  <node id="-622" visible="true" lat="44.46978049" lon="-73.17888069">
    <!-- multiple: "1076 Williston Road, South Burlington, VT" Multiple exact matches in OSM. -->
    <tag k="addr:city" v="South Burlington"/>
    <tag k="addr:housenumber" v="1076"/>
    <tag k="addr:street" v="Williston Road"/>
    <tag k="addr:state" v="VT"/>
    <tag k="ref:vcgi:esiteid" v="227545"/>
  </node>
  <node id="-857" visible="true" lat="44.46743982" lon="-73.1724106">
    <!-- multiple: "1302 Williston Road, South Burlington, VT" Multiple exact matches in OSM. -->
    <tag k="addr:city" v="South Burlington"/>
    <tag k="addr:housenumber" v="1302"/>
    <tag k="addr:street" v="Williston Road"/>
    <tag k="addr:state" v="VT"/>
    <tag k="ref:vcgi:esiteid" v="227829"/>
  </node>
  <node id="-866" visible="true" lat="44.46737531" lon="-73.17490851">
    <!-- multiple: "1241 Williston Road, South Burlington, VT" Multiple exact matches in OSM. -->
    <tag k="addr:city" v="South Burlington"/>
    <tag k="addr:housenumber" v="1241"/>
    <tag k="addr:street" v="Williston Road"/>
    <tag k="addr:state" v="VT"/>
    <tag k="ref:vcgi:esiteid" v="227839"/>
  </node>
  <node id="-963" visible="true" lat="44.46647938" lon="-73.17068023">
    <!-- multiple: "1333 Williston Road, South Burlington, VT" Multiple exact matches in OSM. -->
    <tag k="addr:city" v="South Burlington"/>
    <tag k="addr:housenumber" v="1333"/>
    <tag k="addr:street" v="Williston Road"/>
    <tag k="addr:state" v="VT"/>
    <tag k="ref:vcgi:esiteid" v="227955"/>
  </node>
  <node id="-1181" visible="true" lat="44.46431809" lon="-73.1603223">
    <!-- multiple: "1625 Williston Road, South Burlington, VT" Multiple exact matches in OSM. -->
    <tag k="addr:city" v="South Burlington"/>
    <tag k="addr:housenumber" v="1625"/>
    <tag k="addr:street" v="Williston Road"/>
    <tag k="addr:state" v="VT"/>
    <tag k="ref:vcgi:esiteid" v="228211"/>
  </node>
  <node id="-1245" visible="true" lat="44.46360943" lon="-73.15951521">
    <!-- multiple: "1633 Williston Road, South Burlington, VT" Multiple exact matches in OSM. -->
    <tag k="addr:city" v="South Burlington"/>
    <tag k="addr:housenumber" v="1633"/>
    <tag k="addr:street" v="Williston Road"/>
    <tag k="addr:state" v="VT"/>
    <tag k="ref:vcgi:esiteid" v="228288"/>
  </node>
  <node id="-1253" visible="true" lat="44.46354105" lon="-73.15491417">
    <!-- multiple: "1800 Williston Road, South Burlington, VT" Multiple exact matches in OSM. -->
    <tag k="addr:city" v="South Burlington"/>
    <tag k="addr:housenumber" v="1800"/>
    <tag k="addr:street" v="Williston Road"/>
    <tag k="addr:state" v="VT"/>
    <tag k="ref:vcgi:esiteid" v="228299"/>
  </node>
  <node id="-1272" visible="true" lat="44.46289099" lon="-73.18152978">
    <!-- multiple: "225 Dorset Street, South Burlington, VT" Multiple exact matches in OSM. -->
    <tag k="addr:city" v="South Burlington"/>
    <tag k="addr:housenumber" v="225"/>
    <tag k="addr:street" v="Dorset Street"/>
    <tag k="addr:state" v="VT"/>
    <tag k="ref:vcgi:esiteid" v="228320"/>
  </node>
  <node id="-1281" visible="true" lat="44.46308238" lon="-73.1593934">
    <!-- multiple: "1633 Williston Road, South Burlington, VT" Multiple exact matches in OSM. -->
    <tag k="addr:city" v="South Burlington"/>
    <tag k="addr:housenumber" v="1633"/>
    <tag k="addr:street" v="Williston Road"/>
    <tag k="addr:state" v="VT"/>
    <tag k="ref:vcgi:esiteid" v="228329"/>
  </node>
  <node id="-1284" visible="true" lat="44.46294021" lon="-73.15969085">
    <!-- multiple: "1633 Williston Road, South Burlington, VT" Multiple exact matches in OSM. -->
    <tag k="addr:city" v="South Burlington"/>
    <tag k="addr:housenumber" v="1633"/>
    <tag k="addr:street" v="Williston Road"/>
    <tag k="addr:state" v="VT"/>
    <tag k="ref:vcgi:esiteid" v="228332"/>
  </node>
  <node id="-1295" visible="true" lat="44.46276092" lon="-73.15480041">
    <!-- multiple: "1795 Williston Road, South Burlington, VT" Multiple exact matches in OSM. -->
    <tag k="addr:city" v="South Burlington"/>
    <tag k="addr:housenumber" v="1795"/>
    <tag k="addr:street" v="Williston Road"/>
    <tag k="addr:state" v="VT"/>
    <tag k="ref:vcgi:esiteid" v="228345"/>
  </node>
  <node id="-1318" visible="true" lat="44.46236882" lon="-73.15374559">
    <!-- multiple: "1801 Williston Road, South Burlington, VT" Multiple exact matches in OSM. -->
    <tag k="addr:city" v="South Burlington"/>
    <tag k="addr:housenumber" v="1801"/>
    <tag k="addr:street" v="Williston Road"/>
    <tag k="addr:state" v="VT"/>
    <tag k="ref:vcgi:esiteid" v="228371"/>
  </node>
  <node id="-1370" visible="true" lat="44.46186554" lon="-73.15258094">
    <!-- multiple: "1877 Williston Road, South Burlington, VT" Multiple exact matches in OSM. -->
    <tag k="addr:city" v="South Burlington"/>
    <tag k="addr:housenumber" v="1877"/>
    <tag k="addr:street" v="Williston Road"/>
    <tag k="addr:state" v="VT"/>
    <tag k="ref:vcgi:esiteid" v="228428"/>
  </node>
  <node id="-1373" visible="true" lat="44.46174515" lon="-73.15227411">
    <!-- multiple: "1877 Williston Road, South Burlington, VT" Multiple exact matches in OSM. -->
    <tag k="addr:city" v="South Burlington"/>
    <tag k="addr:housenumber" v="1877"/>
    <tag k="addr:street" v="Williston Road"/>
    <tag k="addr:state" v="VT"/>
    <tag k="ref:vcgi:esiteid" v="228431"/>
  </node>
  <node id="-1412" visible="true" lat="44.46118943" lon="-73.179715">
    <!-- multiple: "340 Dorset Street, South Burlington, VT" Multiple exact matches in OSM. -->
    <tag k="addr:city" v="South Burlington"/>
    <tag k="addr:housenumber" v="340"/>
    <tag k="addr:street" v="Dorset Street"/>
    <tag k="addr:state" v="VT"/>
    <tag k="ref:vcgi:esiteid" v="228473"/>
  </node>
  <node id="-1623" visible="true" lat="44.45951569" lon="-73.14645792">
    <!-- multiple: "2026 Williston Road, South Burlington, VT" Multiple exact matches in OSM. -->
    <tag k="addr:city" v="South Burlington"/>
    <tag k="addr:housenumber" v="2026"/>
    <tag k="addr:street" v="Williston Road"/>
    <tag k="addr:state" v="VT"/>
    <tag k="ref:vcgi:esiteid" v="228716"/>
  </node>
  <node id="-1676" visible="true" lat="44.45905685" lon="-73.14417266">
    <!-- multiple: "2500 Williston Road, South Burlington, VT" Multiple exact matches in OSM. -->
    <tag k="addr:city" v="South Burlington"/>
    <tag k="addr:housenumber" v="2500"/>
    <tag k="addr:street" v="Williston Road"/>
    <tag k="addr:state" v="VT"/>
    <tag k="ref:vcgi:esiteid" v="228776"/>
  </node>
  <node id="-1677" visible="true" lat="44.45898195" lon="-73.14650687">
    <!-- multiple: "2041 Williston Road, South Burlington, VT" Multiple exact matches in OSM. -->
    <tag k="addr:city" v="South Burlington"/>
    <tag k="addr:housenumber" v="2041"/>
    <tag k="addr:street" v="Williston Road"/>
    <tag k="addr:state" v="VT"/>
    <tag k="ref:vcgi:esiteid" v="228777"/>
  </node>
  <node id="-1707" visible="true" lat="44.45850032" lon="-73.14536451">
    <!-- multiple: "2071 Williston Road, South Burlington, VT" Multiple exact matches in OSM. -->
    <tag k="addr:city" v="South Burlington"/>
    <tag k="addr:housenumber" v="2071"/>
    <tag k="addr:street" v="Williston Road"/>
    <tag k="addr:state" v="VT"/>
    <tag k="ref:vcgi:esiteid" v="228816"/>
  </node>
  <node id="-1712" visible="true" lat="44.4585223" lon="-73.14663769">
    <!-- multiple: "2041 Williston Road, South Burlington, VT" Multiple exact matches in OSM. -->
    <tag k="addr:city" v="South Burlington"/>
    <tag k="addr:housenumber" v="2041"/>
    <tag k="addr:street" v="Williston Road"/>
    <tag k="addr:state" v="VT"/>
    <tag k="ref:vcgi:esiteid" v="228824"/>
  </node>
  <node id="-1720" visible="true" lat="44.45848444" lon="-73.14610362">
    <!-- multiple: "2069 Williston Road, South Burlington, VT" Multiple exact matches in OSM. -->
    <tag k="addr:city" v="South Burlington"/>
    <tag k="addr:housenumber" v="2069"/>
    <tag k="addr:street" v="Williston Road"/>
    <tag k="addr:state" v="VT"/>
    <tag k="ref:vcgi:esiteid" v="228834"/>
  </node>
  <node id="-1758" visible="true" lat="44.45799655" lon="-73.13992609">
    <!-- multiple: "4001 Williston Road, South Burlington, VT" Multiple exact matches in OSM. -->
    <tag k="addr:city" v="South Burlington"/>
    <tag k="addr:housenumber" v="4001"/>
    <tag k="addr:street" v="Williston Road"/>
    <tag k="addr:state" v="VT"/>
    <tag k="ref:vcgi:esiteid" v="228883"/>
  </node>
  <node id="-1763" visible="true" lat="44.45806387" lon="-73.14582601">
    <!-- multiple: "2071 Williston Road, South Burlington, VT" Multiple exact matches in OSM. -->
    <tag k="addr:city" v="South Burlington"/>
    <tag k="addr:housenumber" v="2071"/>
    <tag k="addr:street" v="Williston Road"/>
    <tag k="addr:state" v="VT"/>
    <tag k="ref:vcgi:esiteid" v="228888"/>
  </node>
  <node id="-1768" visible="true" lat="44.45792003" lon="-73.14320834">
    <!-- multiple: "3017 Williston Road, South Burlington, VT" Multiple exact matches in OSM. -->
    <tag k="addr:city" v="South Burlington"/>
    <tag k="addr:housenumber" v="3017"/>
    <tag k="addr:street" v="Williston Road"/>
    <tag k="addr:state" v="VT"/>
    <tag k="ref:vcgi:esiteid" v="228893"/>
  </node>
  <node id="-1778" visible="true" lat="44.45784133" lon="-73.14517918">
    <!-- multiple: "2073 Williston Road, South Burlington, VT" Multiple exact matches in OSM. -->
    <tag k="addr:city" v="South Burlington"/>
    <tag k="addr:housenumber" v="2073"/>
    <tag k="addr:street" v="Williston Road"/>
    <tag k="addr:state" v="VT"/>
    <tag k="ref:vcgi:esiteid" v="228904"/>
  </node>
  <node id="-1785" visible="true" lat="44.45775699" lon="-73.14610122">
    <!-- multiple: "2071 Williston Road, South Burlington, VT" Multiple exact matches in OSM. -->
    <tag k="addr:city" v="South Burlington"/>
    <tag k="addr:housenumber" v="2071"/>
    <tag k="addr:street" v="Williston Road"/>
    <tag k="addr:state" v="VT"/>
    <tag k="ref:vcgi:esiteid" v="228912"/>
  </node>
  <node id="-1822" visible="true" lat="44.45695956" lon="-73.14821337">
    <!-- multiple: "102 Kimball Avenue, South Burlington, VT" Multiple exact matches in OSM. -->
    <tag k="addr:city" v="South Burlington"/>
    <tag k="addr:housenumber" v="102"/>
    <tag k="addr:street" v="Kimball Avenue"/>
    <tag k="addr:state" v="VT"/>
    <tag k="ref:vcgi:esiteid" v="228962"/>
  </node>
  <node id="-1826" visible="true" lat="44.45669573" lon="-73.18009444">
    <!-- multiple: "425 Dorset Street, South Burlington, VT" Multiple exact matches in OSM. -->
    <tag k="addr:city" v="South Burlington"/>
    <tag k="addr:housenumber" v="425"/>
    <tag k="addr:street" v="Dorset Street"/>
    <tag k="addr:state" v="VT"/>
    <tag k="ref:vcgi:esiteid" v="228967"/>
  </node>
  <node id="-1833" visible="true" lat="44.45648995" lon="-73.18060465">
    <!-- multiple: "425 Dorset Street, South Burlington, VT" Multiple exact matches in OSM. -->
    <tag k="addr:city" v="South Burlington"/>
    <tag k="addr:housenumber" v="425"/>
    <tag k="addr:street" v="Dorset Street"/>
    <tag k="addr:state" v="VT"/>
    <tag k="ref:vcgi:esiteid" v="228974"/>
  </node>
  <node id="-1837" visible="true" lat="44.45670636" lon="-73.17727343">
    <!-- multiple: "500 Dorset Street, South Burlington, VT" Multiple exact matches in OSM. -->
    <tag k="addr:city" v="South Burlington"/>
    <tag k="addr:housenumber" v="500"/>
    <tag k="addr:street" v="Dorset Street"/>
    <tag k="addr:state" v="VT"/>
    <tag k="ref:vcgi:esiteid" v="228978"/>
  </node>
  <node id="-1845" visible="true" lat="44.45635624" lon="-73.18005225">
    <!-- multiple: "425 Dorset Street, South Burlington, VT" Multiple exact matches in OSM. -->
    <tag k="addr:city" v="South Burlington"/>
    <tag k="addr:housenumber" v="425"/>
    <tag k="addr:street" v="Dorset Street"/>
    <tag k="addr:state" v="VT"/>
    <tag k="ref:vcgi:esiteid" v="228988"/>
  </node>
  <node id="-1850" visible="true" lat="44.45612617" lon="-73.14800336">
    <!-- multiple: "102 Kimball Avenue, South Burlington, VT" Multiple exact matches in OSM. -->
    <tag k="addr:city" v="South Burlington"/>
    <tag k="addr:housenumber" v="102"/>
    <tag k="addr:street" v="Kimball Avenue"/>
    <tag k="addr:state" v="VT"/>
    <tag k="ref:vcgi:esiteid" v="228997"/>
  </node>
  <node id="-1851" visible="true" lat="44.45598189" lon="-73.18015976">
    <!-- multiple: "435 Dorset Street, South Burlington, VT" Multiple exact matches in OSM. -->
    <tag k="addr:city" v="South Burlington"/>
    <tag k="addr:housenumber" v="435"/>
    <tag k="addr:street" v="Dorset Street"/>
    <tag k="addr:state" v="VT"/>
    <tag k="ref:vcgi:esiteid" v="229000"/>
  </node>
  <node id="-1860" visible="true" lat="44.45573726" lon="-73.18096064">
    <!-- multiple: "435 Dorset Street, South Burlington, VT" Multiple exact matches in OSM. -->
    <tag k="addr:city" v="South Burlington"/>
    <tag k="addr:housenumber" v="435"/>
    <tag k="addr:street" v="Dorset Street"/>
    <tag k="addr:state" v="VT"/>
    <tag k="ref:vcgi:esiteid" v="229013"/>
  </node>
  <node id="-1863" visible="true" lat="44.45551332" lon="-73.17981944">
    <!-- multiple: "435 Dorset Street, South Burlington, VT" Multiple exact matches in OSM. -->
    <tag k="addr:city" v="South Burlington"/>
    <tag k="addr:housenumber" v="435"/>
    <tag k="addr:street" v="Dorset Street"/>
    <tag k="addr:state" v="VT"/>
    <tag k="ref:vcgi:esiteid" v="229017"/>
  </node>
  <node id="-1864" visible="true" lat="44.45570368" lon="-73.18041686">
    <!-- multiple: "435 Dorset Street, South Burlington, VT" Multiple exact matches in OSM. -->
    <tag k="addr:city" v="South Burlington"/>
    <tag k="addr:housenumber" v="435"/>
    <tag k="addr:street" v="Dorset Street"/>
    <tag k="addr:state" v="VT"/>
    <tag k="ref:vcgi:esiteid" v="229018"/>
  </node>
  <node id="-1870" visible="true" lat="44.45536996" lon="-73.18049708">
    <!-- multiple: "435 Dorset Street, South Burlington, VT" Multiple exact matches in OSM. -->
    <tag k="addr:city" v="South Burlington"/>
    <tag k="addr:housenumber" v="435"/>
    <tag k="addr:street" v="Dorset Street"/>
    <tag k="addr:state" v="VT"/>
    <tag k="ref:vcgi:esiteid" v="229027"/>
  </node>
  <node id="-1872" visible="true" lat="44.45559739" lon="-73.16304554">
    <!-- multiple: "150 Kennedy Drive, South Burlington, VT" Multiple exact matches in OSM. -->
    <tag k="addr:city" v="South Burlington"/>
    <tag k="addr:housenumber" v="150"/>
    <tag k="addr:street" v="Kennedy Drive"/>
    <tag k="addr:state" v="VT"/>
    <tag k="ref:vcgi:esiteid" v="229029"/>
  </node>
  <node id="-1873" visible="true" lat="44.45545829" lon="-73.16812985">
    <!-- multiple: "100 Kennedy Drive, South Burlington, VT" Multiple exact matches in OSM. -->
    <tag k="addr:city" v="South Burlington"/>
    <tag k="addr:housenumber" v="100"/>
    <tag k="addr:street" v="Kennedy Drive"/>
    <tag k="addr:state" v="VT"/>
    <tag k="ref:vcgi:esiteid" v="229031"/>
  </node>
  <node id="-1880" visible="true" lat="44.45502594" lon="-73.20573404">
    <!-- multiple: "40 Proctor Avenue, South Burlington, VT" Multiple exact matches in OSM. -->
    <tag k="addr:city" v="South Burlington"/>
    <tag k="addr:housenumber" v="40"/>
    <tag k="addr:street" v="Proctor Avenue"/>
    <tag k="addr:state" v="VT"/>
    <tag k="ref:vcgi:esiteid" v="229040"/>
  </node>
  <node id="-1883" visible="true" lat="44.45511234" lon="-73.18003327">
    <!-- multiple: "435 Dorset Street, South Burlington, VT" Multiple exact matches in OSM. -->
    <tag k="addr:city" v="South Burlington"/>
    <tag k="addr:housenumber" v="435"/>
    <tag k="addr:street" v="Dorset Street"/>
    <tag k="addr:state" v="VT"/>
    <tag k="ref:vcgi:esiteid" v="229046"/>
  </node>
  <node id="-1884" visible="true" lat="44.45479286" lon="-73.20578694">
    <!-- multiple: "40 Proctor Avenue, South Burlington, VT" Multiple exact matches in OSM. -->
    <tag k="addr:city" v="South Burlington"/>
    <tag k="addr:housenumber" v="40"/>
    <tag k="addr:street" v="Proctor Avenue"/>
    <tag k="addr:state" v="VT"/>
    <tag k="ref:vcgi:esiteid" v="229047"/>
  </node>
  <node id="-1888" visible="true" lat="44.45513777" lon="-73.16820294">
    <!-- multiple: "100 Kennedy Drive, South Burlington, VT" Multiple exact matches in OSM. -->
    <tag k="addr:city" v="South Burlington"/>
    <tag k="addr:housenumber" v="100"/>
    <tag k="addr:street" v="Kennedy Drive"/>
    <tag k="addr:state" v="VT"/>
    <tag k="ref:vcgi:esiteid" v="229052"/>
  </node>
  <node id="-1899" visible="true" lat="44.45466782" lon="-73.20580175">
    <!-- multiple: "40 Proctor Avenue, South Burlington, VT" Multiple exact matches in OSM. -->
    <tag k="addr:city" v="South Burlington"/>
    <tag k="addr:housenumber" v="40"/>
    <tag k="addr:street" v="Proctor Avenue"/>
    <tag k="addr:state" v="VT"/>
    <tag k="ref:vcgi:esiteid" v="229067"/>
  </node>
  <node id="-1911" visible="true" lat="44.45481651" lon="-73.16222286">
    <!-- multiple: "125 Kennedy Drive, South Burlington, VT" Multiple exact matches in OSM. -->
    <tag k="addr:city" v="South Burlington"/>
    <tag k="addr:housenumber" v="125"/>
    <tag k="addr:street" v="Kennedy Drive"/>
    <tag k="addr:state" v="VT"/>
    <tag k="ref:vcgi:esiteid" v="229084"/>
  </node>
  <node id="-1926" visible="true" lat="44.45492358" lon="-73.17789102">
    <!-- multiple: "550 Dorset Street, South Burlington, VT" Multiple exact matches in OSM. -->
    <tag k="addr:city" v="South Burlington"/>
    <tag k="addr:housenumber" v="550"/>
    <tag k="addr:street" v="Dorset Street"/>
    <tag k="addr:state" v="VT"/>
    <tag k="ref:vcgi:esiteid" v="229100"/>
  </node>
  <node id="-1930" visible="true" lat="44.45466902" lon="-73.16296436">
    <!-- multiple: "125 Kennedy Drive, South Burlington, VT" Multiple exact matches in OSM. -->
    <tag k="addr:city" v="South Burlington"/>
    <tag k="addr:housenumber" v="125"/>
    <tag k="addr:street" v="Kennedy Drive"/>
    <tag k="addr:state" v="VT"/>
    <tag k="ref:vcgi:esiteid" v="229105"/>
  </node>
  <node id="-1931" visible="true" lat="44.45467379" lon="-73.16618912">
    <!-- multiple: "110 Kennedy Drive, South Burlington, VT" Multiple exact matches in OSM. -->
    <tag k="addr:city" v="South Burlington"/>
    <tag k="addr:housenumber" v="110"/>
    <tag k="addr:street" v="Kennedy Drive"/>
    <tag k="addr:state" v="VT"/>
    <tag k="ref:vcgi:esiteid" v="229106"/>
  </node>
  <node id="-1936" visible="true" lat="44.4545796" lon="-73.16339992">
    <!-- multiple: "125 Kennedy Drive, South Burlington, VT" Multiple exact matches in OSM. -->
    <tag k="addr:city" v="South Burlington"/>
    <tag k="addr:housenumber" v="125"/>
    <tag k="addr:street" v="Kennedy Drive"/>
    <tag k="addr:state" v="VT"/>
    <tag k="ref:vcgi:esiteid" v="229111"/>
  </node>
  <node id="-1966" visible="true" lat="44.45419474" lon="-73.1624541">
    <!-- multiple: "630 Hinesburg Road, South Burlington, VT" Multiple exact matches in OSM. -->
    <tag k="addr:city" v="South Burlington"/>
    <tag k="addr:housenumber" v="630"/>
    <tag k="addr:street" v="Hinesburg Road"/>
    <tag k="addr:state" v="VT"/>
    <tag k="ref:vcgi:esiteid" v="229146"/>
  </node>
  <node id="-1983" visible="true" lat="44.45396834" lon="-73.16196632">
    <!-- multiple: "630 Hinesburg Road, South Burlington, VT" Multiple exact matches in OSM. -->
    <tag k="addr:city" v="South Burlington"/>
    <tag k="addr:housenumber" v="630"/>
    <tag k="addr:street" v="Hinesburg Road"/>
    <tag k="addr:state" v="VT"/>
    <tag k="ref:vcgi:esiteid" v="229166"/>
  </node>
  <node id="-1986" visible="true" lat="44.45213998" lon="-73.16798723">
    <!-- multiple: "8 Timber Lane, South Burlington, VT" Multiple exact matches in OSM. -->
    <tag k="addr:city" v="South Burlington"/>
    <tag k="addr:housenumber" v="8"/>
    <tag k="addr:street" v="Timber Lane"/>
    <tag k="addr:state" v="VT"/>
    <tag k="ref:vcgi:esiteid" v="229173"/>
  </node>
  <node id="-1996" visible="true" lat="44.45370755" lon="-73.16252434">
    <!-- multiple: "630 Hinesburg Road, South Burlington, VT" Multiple exact matches in OSM. -->
    <tag k="addr:city" v="South Burlington"/>
    <tag k="addr:housenumber" v="630"/>
    <tag k="addr:street" v="Hinesburg Road"/>
    <tag k="addr:state" v="VT"/>
    <tag k="ref:vcgi:esiteid" v="229187"/>
  </node>
  <node id="-1999" visible="true" lat="44.4535302" lon="-73.20822565">
    <!-- multiple: "434 Shelburne Road, South Burlington, VT" Multiple exact matches in OSM. -->
    <tag k="addr:city" v="South Burlington"/>
    <tag k="addr:housenumber" v="434"/>
    <tag k="addr:street" v="Shelburne Road"/>
    <tag k="addr:state" v="VT"/>
    <tag k="ref:vcgi:esiteid" v="229190"/>
  </node>
  <node id="-2001" visible="true" lat="44.45360734" lon="-73.16179757">
    <!-- multiple: "630 Hinesburg Road, South Burlington, VT" Multiple exact matches in OSM. -->
    <tag k="addr:city" v="South Burlington"/>
    <tag k="addr:housenumber" v="630"/>
    <tag k="addr:street" v="Hinesburg Road"/>
    <tag k="addr:state" v="VT"/>
    <tag k="ref:vcgi:esiteid" v="229193"/>
  </node>
  <node id="-2005" visible="true" lat="44.45331631" lon="-73.2082725">
    <!-- multiple: "434 Shelburne Road, South Burlington, VT" Multiple exact matches in OSM. -->
    <tag k="addr:city" v="South Burlington"/>
    <tag k="addr:housenumber" v="434"/>
    <tag k="addr:street" v="Shelburne Road"/>
    <tag k="addr:state" v="VT"/>
    <tag k="ref:vcgi:esiteid" v="229198"/>
  </node>
  <node id="-2036" visible="true" lat="44.45296464" lon="-73.20844259">
    <!-- multiple: "430 Shelburne Road, South Burlington, VT" Multiple exact matches in OSM. -->
    <tag k="addr:city" v="South Burlington"/>
    <tag k="addr:housenumber" v="430"/>
    <tag k="addr:street" v="Shelburne Road"/>
    <tag k="addr:state" v="VT"/>
    <tag k="ref:vcgi:esiteid" v="229240"/>
  </node>
  <node id="-2044" visible="true" lat="44.45266615" lon="-73.20026235">
    <!-- multiple: "99 Proctor Avenue, South Burlington, VT" Multiple exact matches in OSM. -->
    <tag k="addr:city" v="South Burlington"/>
    <tag k="addr:housenumber" v="99"/>
    <tag k="addr:street" v="Proctor Avenue"/>
    <tag k="addr:state" v="VT"/>
    <tag k="ref:vcgi:esiteid" v="229248"/>
  </node>
  <node id="-2089" visible="true" lat="44.45217836" lon="-73.16731714">
    <!-- multiple: "8 Timber Lane, South Burlington, VT" Multiple exact matches in OSM. -->
    <tag k="addr:city" v="South Burlington"/>
    <tag k="addr:housenumber" v="8"/>
    <tag k="addr:street" v="Timber Lane"/>
    <tag k="addr:state" v="VT"/>
    <tag k="ref:vcgi:esiteid" v="229307"/>
  </node>
  <node id="-2134" visible="true" lat="44.451726" lon="-73.16760711">
    <!-- multiple: "8 Timber Lane, South Burlington, VT" Multiple exact matches in OSM. -->
    <tag k="addr:city" v="South Burlington"/>
    <tag k="addr:housenumber" v="8"/>
    <tag k="addr:street" v="Timber Lane"/>
    <tag k="addr:state" v="VT"/>
    <tag k="ref:vcgi:esiteid" v="229366"/>
  </node>
  <node id="-2262" visible="true" lat="44.44876428" lon="-73.20809437">
    <!-- multiple: "580 Shelburne Road, South Burlington, VT" Multiple exact matches in OSM. -->
    <tag k="addr:city" v="South Burlington"/>
    <tag k="addr:housenumber" v="580"/>
    <tag k="addr:street" v="Shelburne Road"/>
    <tag k="addr:state" v="VT"/>
    <tag k="ref:vcgi:esiteid" v="229530"/>
  </node>
  <node id="-2362" visible="true" lat="44.44653697" lon="-73.20737151">
    <!-- multiple: "46 Swift Street, South Burlington, VT" Multiple exact matches in OSM. -->
    <tag k="addr:city" v="South Burlington"/>
    <tag k="addr:housenumber" v="46"/>
    <tag k="addr:street" v="Swift Street"/>
    <tag k="addr:state" v="VT"/>
    <tag k="ref:vcgi:esiteid" v="229652"/>
  </node>
  <node id="-2369" visible="true" lat="44.44638882" lon="-73.20537908">
    <!-- multiple: "7 Farrell Street, South Burlington, VT" Multiple exact matches in OSM. -->
    <tag k="addr:city" v="South Burlington"/>
    <tag k="addr:housenumber" v="7"/>
    <tag k="addr:street" v="Farrell Street"/>
    <tag k="addr:state" v="VT"/>
    <tag k="ref:vcgi:esiteid" v="229664"/>
  </node>
  <node id="-2378" visible="true" lat="44.44600652" lon="-73.20395504">
    <!-- multiple: "10 Farrell Street, South Burlington, VT" Multiple exact matches in OSM. -->
    <tag k="addr:city" v="South Burlington"/>
    <tag k="addr:housenumber" v="10"/>
    <tag k="addr:street" v="Farrell Street"/>
    <tag k="addr:state" v="VT"/>
    <tag k="ref:vcgi:esiteid" v="229675"/>
  </node>
  <node id="-2384" visible="true" lat="44.44601896" lon="-73.20747179">
    <!-- multiple: "46 Swift Street, South Burlington, VT" Multiple exact matches in OSM. -->
    <tag k="addr:city" v="South Burlington"/>
    <tag k="addr:housenumber" v="46"/>
    <tag k="addr:street" v="Swift Street"/>
    <tag k="addr:state" v="VT"/>
    <tag k="ref:vcgi:esiteid" v="229684"/>
  </node>
  <node id="-2398" visible="true" lat="44.44594006" lon="-73.18329427">
    <!-- multiple: "911 Dorset Street, South Burlington, VT" Multiple exact matches in OSM. -->
    <tag k="addr:city" v="South Burlington"/>
    <tag k="addr:housenumber" v="911"/>
    <tag k="addr:street" v="Dorset Street"/>
    <tag k="addr:state" v="VT"/>
    <tag k="ref:vcgi:esiteid" v="229700"/>
  </node>
  <node id="-2429" visible="true" lat="44.4454684" lon="-73.18355678">
    <!-- multiple: "911 Dorset Street, South Burlington, VT" Multiple exact matches in OSM. -->
    <tag k="addr:city" v="South Burlington"/>
    <tag k="addr:housenumber" v="911"/>
    <tag k="addr:street" v="Dorset Street"/>
    <tag k="addr:state" v="VT"/>
    <tag k="ref:vcgi:esiteid" v="229744"/>
  </node>
  <node id="-2430" visible="true" lat="44.44541674" lon="-73.20590704">
    <!-- multiple: "79 Swift Street, South Burlington, VT" Multiple exact matches in OSM. -->
    <tag k="addr:city" v="South Burlington"/>
    <tag k="addr:housenumber" v="79"/>
    <tag k="addr:street" v="Swift Street"/>
    <tag k="addr:state" v="VT"/>
    <tag k="ref:vcgi:esiteid" v="229745"/>
  </node>
  <node id="-2440" visible="true" lat="44.4451343" lon="-73.20598802">
    <!-- multiple: "79 Swift Street, South Burlington, VT" Multiple exact matches in OSM. -->
    <tag k="addr:city" v="South Burlington"/>
    <tag k="addr:housenumber" v="79"/>
    <tag k="addr:street" v="Swift Street"/>
    <tag k="addr:state" v="VT"/>
    <tag k="ref:vcgi:esiteid" v="229759"/>
  </node>
  <node id="-2472" visible="true" lat="44.44499617" lon="-73.15787098">
    <!-- multiple: "896 Hinesburg Road, South Burlington, VT" Multiple exact matches in OSM. -->
    <tag k="addr:city" v="South Burlington"/>
    <tag k="addr:housenumber" v="896"/>
    <tag k="addr:street" v="Hinesburg Road"/>
    <tag k="addr:state" v="VT"/>
    <tag k="ref:vcgi:esiteid" v="229795"/>
  </node>
  <node id="-2486" visible="true" lat="44.44495301" lon="-73.15819838">
    <!-- multiple: "896 Hinesburg Road, South Burlington, VT" Multiple exact matches in OSM. -->
    <tag k="addr:city" v="South Burlington"/>
    <tag k="addr:housenumber" v="896"/>
    <tag k="addr:street" v="Hinesburg Road"/>
    <tag k="addr:state" v="VT"/>
    <tag k="ref:vcgi:esiteid" v="229810"/>
  </node>
  <node id="-2501" visible="true" lat="44.44457856" lon="-73.20918105">
    <!-- multiple: "794 Shelburne Road, South Burlington, VT" Multiple exact matches in OSM. -->
    <tag k="addr:city" v="South Burlington"/>
    <tag k="addr:housenumber" v="794"/>
    <tag k="addr:street" v="Shelburne Road"/>
    <tag k="addr:state" v="VT"/>
    <tag k="ref:vcgi:esiteid" v="229828"/>
  </node>
  <node id="-2621" visible="true" lat="44.4425671" lon="-73.2092288">
    <!-- multiple: "960 Shelburne Road, South Burlington, VT" Multiple exact matches in OSM. -->
    <tag k="addr:city" v="South Burlington"/>
    <tag k="addr:housenumber" v="960"/>
    <tag k="addr:street" v="Shelburne Road"/>
    <tag k="addr:state" v="VT"/>
    <tag k="ref:vcgi:esiteid" v="229977"/>
  </node>
  <node id="-2628" visible="true" lat="44.44255337" lon="-73.21071463">
    <!-- multiple: "977 Shelburne Road, South Burlington, VT" Multiple exact matches in OSM. -->
    <tag k="addr:city" v="South Burlington"/>
    <tag k="addr:housenumber" v="977"/>
    <tag k="addr:street" v="Shelburne Road"/>
    <tag k="addr:state" v="VT"/>
    <tag k="ref:vcgi:esiteid" v="229984"/>
  </node>
  <node id="-2748" visible="true" lat="44.44021968" lon="-73.21047666">
    <!-- multiple: "1041 Shelburne Road, South Burlington, VT" Multiple exact matches in OSM. -->
    <tag k="addr:city" v="South Burlington"/>
    <tag k="addr:housenumber" v="1041"/>
    <tag k="addr:street" v="Shelburne Road"/>
    <tag k="addr:state" v="VT"/>
    <tag k="ref:vcgi:esiteid" v="230133"/>
  </node>
  <node id="-2751" visible="true" lat="44.44045354" lon="-73.20930955">
    <!-- multiple: "1030 Shelburne Road, South Burlington, VT" Multiple exact matches in OSM. -->
    <tag k="addr:city" v="South Burlington"/>
    <tag k="addr:housenumber" v="1030"/>
    <tag k="addr:street" v="Shelburne Road"/>
    <tag k="addr:state" v="VT"/>
    <tag k="ref:vcgi:esiteid" v="230136"/>
  </node>
  <node id="-2788" visible="true" lat="44.43948579" lon="-73.21994865">
    <!-- multiple: "110 Central Avenue, South Burlington, VT" Multiple exact matches in OSM. -->
    <tag k="addr:city" v="South Burlington"/>
    <tag k="addr:housenumber" v="110"/>
    <tag k="addr:street" v="Central Avenue"/>
    <tag k="addr:state" v="VT"/>
    <tag k="ref:vcgi:esiteid" v="230183"/>
  </node>
  <node id="-2792" visible="true" lat="44.43930015" lon="-73.21997227">
    <!-- multiple: "110 Central Avenue, South Burlington, VT" Multiple exact matches in OSM. -->
    <tag k="addr:city" v="South Burlington"/>
    <tag k="addr:housenumber" v="110"/>
    <tag k="addr:street" v="Central Avenue"/>
    <tag k="addr:state" v="VT"/>
    <tag k="ref:vcgi:esiteid" v="230187"/>
  </node>
  <node id="-3170" visible="true" lat="44.43625009" lon="-73.15486217">
    <!-- multiple: "1398 Hinesburg Road, South Burlington, VT" Multiple exact matches in OSM. -->
    <tag k="addr:city" v="South Burlington"/>
    <tag k="addr:housenumber" v="1398"/>
    <tag k="addr:street" v="Hinesburg Road"/>
    <tag k="addr:state" v="VT"/>
    <tag k="ref:vcgi:esiteid" v="230611"/>
  </node>
  <node id="-3186" visible="true" lat="44.4356266" lon="-73.21222738">
    <!-- multiple: "1233 Shelburne Road, South Burlington, VT" Multiple exact matches in OSM. -->
    <tag k="addr:city" v="South Burlington"/>
    <tag k="addr:housenumber" v="1233"/>
    <tag k="addr:street" v="Shelburne Road"/>
    <tag k="addr:state" v="VT"/>
    <tag k="ref:vcgi:esiteid" v="230631"/>
  </node>
  <node id="-3192" visible="true" lat="44.43559389" lon="-73.21187689">
    <!-- multiple: "1233 Shelburne Road, South Burlington, VT" Multiple exact matches in OSM. -->
    <tag k="addr:city" v="South Burlington"/>
    <tag k="addr:housenumber" v="1233"/>
    <tag k="addr:street" v="Shelburne Road"/>
    <tag k="addr:state" v="VT"/>
    <tag k="ref:vcgi:esiteid" v="230638"/>
  </node>
  <node id="-3209" visible="true" lat="44.43570761" lon="-73.21105679">
    <!-- multiple: "1233 Shelburne Road, South Burlington, VT" Multiple exact matches in OSM. -->
    <tag k="addr:city" v="South Burlington"/>
    <tag k="addr:housenumber" v="1233"/>
    <tag k="addr:street" v="Shelburne Road"/>
    <tag k="addr:state" v="VT"/>
    <tag k="ref:vcgi:esiteid" v="230657"/>
  </node>
  <node id="-3219" visible="true" lat="44.43586553" lon="-73.15459732">
    <!-- multiple: "1398 Hinesburg Road, South Burlington, VT" Multiple exact matches in OSM. -->
    <tag k="addr:city" v="South Burlington"/>
    <tag k="addr:housenumber" v="1398"/>
    <tag k="addr:street" v="Hinesburg Road"/>
    <tag k="addr:state" v="VT"/>
    <tag k="ref:vcgi:esiteid" v="230671"/>
  </node>
  <node id="-3232" visible="true" lat="44.43536706" lon="-73.21147828">
    <!-- multiple: "1233 Shelburne Road, South Burlington, VT" Multiple exact matches in OSM. -->
    <tag k="addr:city" v="South Burlington"/>
    <tag k="addr:housenumber" v="1233"/>
    <tag k="addr:street" v="Shelburne Road"/>
    <tag k="addr:state" v="VT"/>
    <tag k="ref:vcgi:esiteid" v="230686"/>
  </node>
  <node id="-3247" visible="true" lat="44.43531098" lon="-73.21220386">
    <!-- multiple: "1233 Shelburne Road, South Burlington, VT" Multiple exact matches in OSM. -->
    <tag k="addr:city" v="South Burlington"/>
    <tag k="addr:housenumber" v="1233"/>
    <tag k="addr:street" v="Shelburne Road"/>
    <tag k="addr:state" v="VT"/>
    <tag k="ref:vcgi:esiteid" v="230703"/>
  </node>
  <node id="-3260" visible="true" lat="44.43509012" lon="-73.21183153">
    <!-- multiple: "1233 Shelburne Road, South Burlington, VT" Multiple exact matches in OSM. -->
    <tag k="addr:city" v="South Burlington"/>
    <tag k="addr:housenumber" v="1233"/>
    <tag k="addr:street" v="Shelburne Road"/>
    <tag k="addr:state" v="VT"/>
    <tag k="ref:vcgi:esiteid" v="230717"/>
  </node>
  <node id="-3344" visible="true" lat="44.43451859" lon="-73.21152292">
    <!-- multiple: "1301 Shelburne Road, South Burlington, VT" Multiple exact matches in OSM. -->
    <tag k="addr:city" v="South Burlington"/>
    <tag k="addr:housenumber" v="1301"/>
    <tag k="addr:street" v="Shelburne Road"/>
    <tag k="addr:state" v="VT"/>
    <tag k="ref:vcgi:esiteid" v="230814"/>
  </node>
  <node id="-3384" visible="true" lat="44.43426386" lon="-73.21004649">
    <!-- multiple: "1330 Shelburne Road, South Burlington, VT" Multiple exact matches in OSM. -->
    <tag k="addr:city" v="South Burlington"/>
    <tag k="addr:housenumber" v="1330"/>
    <tag k="addr:street" v="Shelburne Road"/>
    <tag k="addr:state" v="VT"/>
    <tag k="ref:vcgi:esiteid" v="230857"/>
  </node>
  <node id="-3423" visible="true" lat="44.43354211" lon="-73.2186963">
    <!-- multiple: "1195 Shelburne Road, South Burlington, VT" Multiple exact matches in OSM. -->
    <tag k="addr:city" v="South Burlington"/>
    <tag k="addr:housenumber" v="1195"/>
    <tag k="addr:street" v="Shelburne Road"/>
    <tag k="addr:state" v="VT"/>
    <tag k="ref:vcgi:esiteid" v="230900"/>
  </node>
  <node id="-3575" visible="true" lat="44.43121464" lon="-73.20674956">
    <!-- multiple: "75 Green Mountain Drive, South Burlington, VT" Multiple exact matches in OSM. -->
    <tag k="addr:city" v="South Burlington"/>
    <tag k="addr:housenumber" v="75"/>
    <tag k="addr:street" v="Green Mountain Drive"/>
    <tag k="addr:state" v="VT"/>
    <tag k="ref:vcgi:esiteid" v="231083"/>
  </node>
  <node id="-3662" visible="true" lat="44.428718" lon="-73.21177483">
    <!-- multiple: "1525 Shelburne Road, South Burlington, VT" Multiple exact matches in OSM. -->
    <tag k="addr:city" v="South Burlington"/>
    <tag k="addr:housenumber" v="1525"/>
    <tag k="addr:street" v="Shelburne Road"/>
    <tag k="addr:state" v="VT"/>
    <tag k="ref:vcgi:esiteid" v="231188"/>
  </node>
  <node id="-3812" visible="true" lat="44.42555516" lon="-73.2056069">
    <!-- multiple: "25 Bay Crest Drive, South Burlington, VT" Multiple exact matches in OSM. -->
    <tag k="addr:city" v="South Burlington"/>
    <tag k="addr:housenumber" v="25"/>
    <tag k="addr:street" v="Bay Crest Drive"/>
    <tag k="addr:state" v="VT"/>
    <tag k="ref:vcgi:esiteid" v="231364"/>
  </node>
  <node id="-3814" visible="true" lat="44.4255801" lon="-73.20466782">
    <!-- multiple: "25 Bay Crest Drive, South Burlington, VT" Multiple exact matches in OSM. -->
    <tag k="addr:city" v="South Burlington"/>
    <tag k="addr:housenumber" v="25"/>
    <tag k="addr:street" v="Bay Crest Drive"/>
    <tag k="addr:state" v="VT"/>
    <tag k="ref:vcgi:esiteid" v="231367"/>
  </node>
  <node id="-3817" visible="true" lat="44.42520818" lon="-73.20548252">
    <!-- multiple: "25 Bay Crest Drive, South Burlington, VT" Multiple exact matches in OSM. -->
    <tag k="addr:city" v="South Burlington"/>
    <tag k="addr:housenumber" v="25"/>
    <tag k="addr:street" v="Bay Crest Drive"/>
    <tag k="addr:state" v="VT"/>
    <tag k="ref:vcgi:esiteid" v="231370"/>
  </node>
  <node id="-3820" visible="true" lat="44.42507716" lon="-73.20500013">
    <!-- multiple: "25 Bay Crest Drive, South Burlington, VT" Multiple exact matches in OSM. -->
    <tag k="addr:city" v="South Burlington"/>
    <tag k="addr:housenumber" v="25"/>
    <tag k="addr:street" v="Bay Crest Drive"/>
    <tag k="addr:state" v="VT"/>
    <tag k="ref:vcgi:esiteid" v="231374"/>
  </node>
  <node id="-3821" visible="true" lat="44.42529593" lon="-73.20418804">
    <!-- multiple: "25 Bay Crest Drive, South Burlington, VT" Multiple exact matches in OSM. -->
    <tag k="addr:city" v="South Burlington"/>
    <tag k="addr:housenumber" v="25"/>
    <tag k="addr:street" v="Bay Crest Drive"/>
    <tag k="addr:state" v="VT"/>
    <tag k="ref:vcgi:esiteid" v="231376"/>
  </node>
  <node id="-3828" visible="true" lat="44.42499536" lon="-73.2037793">
    <!-- multiple: "25 Bay Crest Drive, South Burlington, VT" Multiple exact matches in OSM. -->
    <tag k="addr:city" v="South Burlington"/>
    <tag k="addr:housenumber" v="25"/>
    <tag k="addr:street" v="Bay Crest Drive"/>
    <tag k="addr:state" v="VT"/>
    <tag k="ref:vcgi:esiteid" v="231387"/>
  </node>
  <node id="-3852" visible="true" lat="44.4242835" lon="-73.20337254">
    <!-- multiple: "33 Harbor View Road, South Burlington, VT" Multiple exact matches in OSM. -->
    <tag k="addr:city" v="South Burlington"/>
    <tag k="addr:housenumber" v="33"/>
    <tag k="addr:street" v="Harbor View Road"/>
    <tag k="addr:state" v="VT"/>
    <tag k="ref:vcgi:esiteid" v="231424"/>
  </node>
  <node id="-3855" visible="true" lat="44.4240475" lon="-73.20383025">
    <!-- multiple: "33 Harbor View Road, South Burlington, VT" Multiple exact matches in OSM. -->
    <tag k="addr:city" v="South Burlington"/>
    <tag k="addr:housenumber" v="33"/>
    <tag k="addr:street" v="Harbor View Road"/>
    <tag k="addr:state" v="VT"/>
    <tag k="ref:vcgi:esiteid" v="231427"/>
  </node>
  <node id="-3857" visible="true" lat="44.42411755" lon="-73.20300934">
    <!-- multiple: "33 Harbor View Road, South Burlington, VT" Multiple exact matches in OSM. -->
    <tag k="addr:city" v="South Burlington"/>
    <tag k="addr:housenumber" v="33"/>
    <tag k="addr:street" v="Harbor View Road"/>
    <tag k="addr:state" v="VT"/>
    <tag k="ref:vcgi:esiteid" v="231429"/>
  </node>
  <node id="-3884" visible="true" lat="44.42234159" lon="-73.21231365">
    <!-- multiple: "1835 Shelburne Road, South Burlington, VT" Multiple exact matches in OSM. -->
    <tag k="addr:city" v="South Burlington"/>
    <tag k="addr:housenumber" v="1835"/>
    <tag k="addr:street" v="Shelburne Road"/>
    <tag k="addr:state" v="VT"/>
    <tag k="ref:vcgi:esiteid" v="231461"/>
  </node>
  <node id="-3888" visible="true" lat="44.42217415" lon="-73.21269361">
    <!-- multiple: "1835 Shelburne Road, South Burlington, VT" Multiple exact matches in OSM. -->
    <tag k="addr:city" v="South Burlington"/>
    <tag k="addr:housenumber" v="1835"/>
    <tag k="addr:street" v="Shelburne Road"/>
    <tag k="addr:state" v="VT"/>
    <tag k="ref:vcgi:esiteid" v="231467"/>
  </node>
  <node id="-3893" visible="true" lat="44.42235302" lon="-73.20551834">
    <!-- multiple: "100 Allen Road, South Burlington, VT" Multiple exact matches in OSM. -->
    <tag k="addr:city" v="South Burlington"/>
    <tag k="addr:housenumber" v="100"/>
    <tag k="addr:street" v="Allen Road"/>
    <tag k="addr:state" v="VT"/>
    <tag k="ref:vcgi:esiteid" v="231475"/>
  </node>
  <node id="-3896" visible="true" lat="44.42173415" lon="-73.20530599">
    <!-- multiple: "100 Allen Road, South Burlington, VT" Multiple exact matches in OSM. -->
    <tag k="addr:city" v="South Burlington"/>
    <tag k="addr:housenumber" v="100"/>
    <tag k="addr:street" v="Allen Road"/>
    <tag k="addr:state" v="VT"/>
    <tag k="ref:vcgi:esiteid" v="231478"/>
  </node>
  <node id="-3937" visible="true" lat="44.40998537" lon="-73.16497297">
    <!-- multiple: "500 Cheesefactory Road, South Burlington, VT" Multiple exact matches in OSM. -->
    <tag k="addr:city" v="South Burlington"/>
    <tag k="addr:housenumber" v="500"/>
    <tag k="addr:street" v="Cheesefactory Road"/>
    <tag k="addr:state" v="VT"/>
    <tag k="ref:vcgi:esiteid" v="231532"/>
  </node>
  <node id="-3938" visible="true" lat="44.40964679" lon="-73.16494296">
    <!-- multiple: "500 Cheesefactory Road, South Burlington, VT" Multiple exact matches in OSM. -->
    <tag k="addr:city" v="South Burlington"/>
    <tag k="addr:housenumber" v="500"/>
    <tag k="addr:street" v="Cheesefactory Road"/>
    <tag k="addr:state" v="VT"/>
    <tag k="ref:vcgi:esiteid" v="231533"/>
  </node>
  <node id="-3951" visible="true" lat="44.46752565" lon="-73.17329657">
    <!-- multiple: "1272 Williston Road, South Burlington, VT" Multiple exact matches in OSM. -->
    <tag k="addr:city" v="South Burlington"/>
    <tag k="addr:housenumber" v="1272"/>
    <tag k="addr:street" v="Williston Road"/>
    <tag k="addr:state" v="VT"/>
    <tag k="ref:vcgi:esiteid" v="231552"/>
  </node>
  <node id="-3959" visible="true" lat="44.44000072" lon="-73.20885817">
    <!-- multiple: "1030 Shelburne Road, South Burlington, VT" Multiple exact matches in OSM. -->
    <tag k="addr:city" v="South Burlington"/>
    <tag k="addr:housenumber" v="1030"/>
    <tag k="addr:street" v="Shelburne Road"/>
    <tag k="addr:state" v="VT"/>
    <tag k="ref:vcgi:esiteid" v="231564"/>
  </node>
  <node id="-3960" visible="true" lat="44.43819345" lon="-73.20961675">
    <!-- multiple: "1110 Shelburne Road, South Burlington, VT" Multiple exact matches in OSM. -->
    <tag k="addr:city" v="South Burlington"/>
    <tag k="addr:housenumber" v="1110"/>
    <tag k="addr:street" v="Shelburne Road"/>
    <tag k="addr:state" v="VT"/>
    <tag k="ref:vcgi:esiteid" v="231565"/>
  </node>
  <node id="-4008" visible="true" lat="44.48175811" lon="-73.17060089">
    <!-- multiple: "1015 Airport Parkway, South Burlington, VT" Multiple exact matches in OSM. -->
    <tag k="addr:city" v="South Burlington"/>
    <tag k="addr:housenumber" v="1015"/>
    <tag k="addr:street" v="Airport Parkway"/>
    <tag k="addr:state" v="VT"/>
    <tag k="ref:vcgi:esiteid" v="231625"/>
  </node>
  <node id="-4029" visible="true" lat="44.48382572" lon="-73.16015824">
    <!-- multiple: "60 Ethan Allen Drive, South Burlington, VT" Multiple exact matches in OSM. -->
    <tag k="addr:city" v="South Burlington"/>
    <tag k="addr:housenumber" v="60"/>
    <tag k="addr:street" v="Ethan Allen Drive"/>
    <tag k="addr:state" v="VT"/>
    <tag k="ref:vcgi:esiteid" v="231647"/>
  </node>
  <node id="-4038" visible="true" lat="44.48348936" lon="-73.15661408">
    <!-- multiple: "80 Ethan Allen Drive, South Burlington, VT" Multiple exact matches in OSM. -->
    <tag k="addr:city" v="South Burlington"/>
    <tag k="addr:housenumber" v="80"/>
    <tag k="addr:street" v="Ethan Allen Drive"/>
    <tag k="addr:state" v="VT"/>
    <tag k="ref:vcgi:esiteid" v="231656"/>
  </node>
  <node id="-4039" visible="true" lat="44.48300044" lon="-73.15814837">
    <!-- multiple: "75 Ethan Allen Drive, South Burlington, VT" Multiple exact matches in OSM. -->
    <tag k="addr:city" v="South Burlington"/>
    <tag k="addr:housenumber" v="75"/>
    <tag k="addr:street" v="Ethan Allen Drive"/>
    <tag k="addr:state" v="VT"/>
    <tag k="ref:vcgi:esiteid" v="231657"/>
  </node>
  <node id="-4063" visible="true" lat="44.47183762" lon="-73.18995599">
    <!-- multiple: "801 Williston Road, South Burlington, VT" Multiple exact matches in OSM. -->
    <tag k="addr:city" v="South Burlington"/>
    <tag k="addr:housenumber" v="801"/>
    <tag k="addr:street" v="Williston Road"/>
    <tag k="addr:state" v="VT"/>
    <tag k="ref:vcgi:esiteid" v="231681"/>
  </node>
  <node id="-4064" visible="true" lat="44.47154696" lon="-73.18920246">
    <!-- multiple: "811 Williston Road, South Burlington, VT" Multiple exact matches in OSM. -->
    <tag k="addr:city" v="South Burlington"/>
    <tag k="addr:housenumber" v="811"/>
    <tag k="addr:street" v="Williston Road"/>
    <tag k="addr:state" v="VT"/>
    <tag k="ref:vcgi:esiteid" v="231682"/>
  </node>
  <node id="-4066" visible="true" lat="44.47058476" lon="-73.1877581">
    <!-- multiple: "861 Williston Road, South Burlington, VT" Multiple exact matches in OSM. -->
    <tag k="addr:city" v="South Burlington"/>
    <tag k="addr:housenumber" v="861"/>
    <tag k="addr:street" v="Williston Road"/>
    <tag k="addr:state" v="VT"/>
    <tag k="ref:vcgi:esiteid" v="231686"/>
  </node>
  <node id="-4105" visible="true" lat="44.4648945" lon="-73.18421071">
    <!-- multiple: "155 Dorset Street, South Burlington, VT" Multiple exact matches in OSM. -->
    <tag k="addr:city" v="South Burlington"/>
    <tag k="addr:housenumber" v="155"/>
    <tag k="addr:street" v="Dorset Street"/>
    <tag k="addr:state" v="VT"/>
    <tag k="ref:vcgi:esiteid" v="231731"/>
  </node>
  <node id="-4110" visible="true" lat="44.4628305" lon="-73.17980358">
    <!-- multiple: "222 Dorset Street, South Burlington, VT" Multiple exact matches in OSM. -->
    <tag k="addr:city" v="South Burlington"/>
    <tag k="addr:housenumber" v="222"/>
    <tag k="addr:street" v="Dorset Street"/>
    <tag k="addr:state" v="VT"/>
    <tag k="ref:vcgi:esiteid" v="231737"/>
  </node>
  <node id="-4112" visible="true" lat="44.46496027" lon="-73.17894327">
    <!-- multiple: "150 Dorset Street, South Burlington, VT" Multiple exact matches in OSM. -->
    <tag k="addr:city" v="South Burlington"/>
    <tag k="addr:housenumber" v="150"/>
    <tag k="addr:street" v="Dorset Street"/>
    <tag k="addr:state" v="VT"/>
    <tag k="ref:vcgi:esiteid" v="231739"/>
  </node>
  <node id="-4115" visible="true" lat="44.46611856" lon="-73.1789766">
    <!-- multiple: "4 Market Street, South Burlington, VT" Multiple exact matches in OSM. -->
    <tag k="addr:city" v="South Burlington"/>
    <tag k="addr:housenumber" v="4"/>
    <tag k="addr:street" v="Market Street"/>
    <tag k="addr:state" v="VT"/>
    <tag k="ref:vcgi:esiteid" v="231742"/>
  </node>
  <node id="-4118" visible="true" lat="44.46746855" lon="-73.18033417">
    <!-- multiple: "100 Dorset Street, South Burlington, VT" Multiple exact matches in OSM. -->
    <tag k="addr:city" v="South Burlington"/>
    <tag k="addr:housenumber" v="100"/>
    <tag k="addr:street" v="Dorset Street"/>
    <tag k="addr:state" v="VT"/>
    <tag k="ref:vcgi:esiteid" v="231745"/>
  </node>
  <node id="-4120" visible="true" lat="44.46879579" lon="-73.1807216">
    <!-- multiple: "1055 Williston Road, South Burlington, VT" Multiple exact matches in OSM. -->
    <tag k="addr:city" v="South Burlington"/>
    <tag k="addr:housenumber" v="1055"/>
    <tag k="addr:street" v="Williston Road"/>
    <tag k="addr:state" v="VT"/>
    <tag k="ref:vcgi:esiteid" v="231747"/>
  </node>
  <node id="-4122" visible="true" lat="44.46816968" lon="-73.1793118">
    <!-- multiple: "1117 Williston Road, South Burlington, VT" Multiple exact matches in OSM. -->
    <tag k="addr:city" v="South Burlington"/>
    <tag k="addr:housenumber" v="1117"/>
    <tag k="addr:street" v="Williston Road"/>
    <tag k="addr:state" v="VT"/>
    <tag k="ref:vcgi:esiteid" v="231749"/>
  </node>
  <node id="-4124" visible="true" lat="44.46890553" lon="-73.17803001">
    <!-- multiple: "1150 Williston Road, South Burlington, VT" Multiple exact matches in OSM. -->
    <tag k="addr:city" v="South Burlington"/>
    <tag k="addr:housenumber" v="1150"/>
    <tag k="addr:street" v="Williston Road"/>
    <tag k="addr:state" v="VT"/>
    <tag k="ref:vcgi:esiteid" v="231751"/>
  </node>
  <node id="-4455" visible="true" lat="44.41465467" lon="-73.17882719">
    <!-- multiple: "8 Catkin Drive, South Burlington, VT" Multiple exact matches in OSM. -->
    <tag k="addr:city" v="South Burlington"/>
    <tag k="addr:housenumber" v="8"/>
    <tag k="addr:street" v="Catkin Drive"/>
    <tag k="addr:state" v="VT"/>
    <tag k="ref:vcgi:esiteid" v="232107"/>
  </node>
  <node id="-6697" visible="true" lat="44.44736378" lon="-73.17476285">
    <!-- multiple: "600 Swift Street, South Burlington, VT" Multiple exact matches in OSM. -->
    <tag k="addr:city" v="South Burlington"/>
    <tag k="addr:housenumber" v="600"/>
    <tag k="addr:street" v="Swift Street"/>
    <tag k="addr:state" v="VT"/>
    <tag k="ref:vcgi:esiteid" v="333214"/>
  </node>
  <node id="-7265" visible="true" lat="44.42550887" lon="-73.16031803">
    <!-- multiple: "1547 Hinesburg Road, South Burlington, VT" Multiple exact matches in OSM. -->
    <tag k="addr:city" v="South Burlington"/>
    <tag k="addr:housenumber" v="1547"/>
    <tag k="addr:street" v="Hinesburg Road"/>
    <tag k="addr:state" v="VT"/>
    <tag k="ref:vcgi:esiteid" v="750086"/>
  </node>
  <node id="-7378" visible="true" lat="44.48347929" lon="-73.15615299">
    <!-- multiple: "82 Ethan Allen Drive, South Burlington, VT" Multiple exact matches in OSM. -->
    <tag k="addr:city" v="South Burlington"/>
    <tag k="addr:housenumber" v="82"/>
    <tag k="addr:street" v="Ethan Allen Drive"/>
    <tag k="addr:state" v="VT"/>
    <tag k="ref:vcgi:esiteid" v="754223"/>
  </node>
  <node id="-7382" visible="true" lat="44.45569501" lon="-73.17984619">
    <!-- multiple: "435 Dorset Street, South Burlington, VT" Multiple exact matches in OSM. -->
    <tag k="addr:city" v="South Burlington"/>
    <tag k="addr:housenumber" v="435"/>
    <tag k="addr:street" v="Dorset Street"/>
    <tag k="addr:state" v="VT"/>
    <tag k="ref:vcgi:esiteid" v="754753"/>
  </node>
  <node id="-7383" visible="true" lat="44.4553204" lon="-73.17977535">
    <!-- multiple: "435 Dorset Street, South Burlington, VT" Multiple exact matches in OSM. -->
    <tag k="addr:city" v="South Burlington"/>
    <tag k="addr:housenumber" v="435"/>
    <tag k="addr:street" v="Dorset Street"/>
    <tag k="addr:state" v="VT"/>
    <tag k="ref:vcgi:esiteid" v="754754"/>
  </node>
  <node id="-7386" visible="true" lat="44.455209" lon="-73.18048881">
    <!-- multiple: "435 Dorset Street, South Burlington, VT" Multiple exact matches in OSM. -->
    <tag k="addr:city" v="South Burlington"/>
    <tag k="addr:housenumber" v="435"/>
    <tag k="addr:street" v="Dorset Street"/>
    <tag k="addr:state" v="VT"/>
    <tag k="ref:vcgi:esiteid" v="754757"/>
  </node>
  <node id="-7387" visible="true" lat="44.4555262" lon="-73.18120309">
    <!-- multiple: "435 Dorset Street, South Burlington, VT" Multiple exact matches in OSM. -->
    <tag k="addr:city" v="South Burlington"/>
    <tag k="addr:housenumber" v="435"/>
    <tag k="addr:street" v="Dorset Street"/>
    <tag k="addr:state" v="VT"/>
    <tag k="ref:vcgi:esiteid" v="754758"/>
  </node>
  <node id="-7395" visible="true" lat="44.4558352" lon="-73.18129396">
    <!-- multiple: "435 Dorset Street, South Burlington, VT" Multiple exact matches in OSM. -->
    <tag k="addr:city" v="South Burlington"/>
    <tag k="addr:housenumber" v="435"/>
    <tag k="addr:street" v="Dorset Street"/>
    <tag k="addr:state" v="VT"/>
    <tag k="ref:vcgi:esiteid" v="754766"/>
  </node>
  <node id="-7396" visible="true" lat="44.45593274" lon="-73.18040995">
    <!-- multiple: "435 Dorset Street, South Burlington, VT" Multiple exact matches in OSM. -->
    <tag k="addr:city" v="South Burlington"/>
    <tag k="addr:housenumber" v="435"/>
    <tag k="addr:street" v="Dorset Street"/>
    <tag k="addr:state" v="VT"/>
    <tag k="ref:vcgi:esiteid" v="754767"/>
  </node>
  <node id="-7397" visible="true" lat="44.45599245" lon="-73.17987873">
    <!-- multiple: "435 Dorset Street, South Burlington, VT" Multiple exact matches in OSM. -->
    <tag k="addr:city" v="South Burlington"/>
    <tag k="addr:housenumber" v="435"/>
    <tag k="addr:street" v="Dorset Street"/>
    <tag k="addr:state" v="VT"/>
    <tag k="ref:vcgi:esiteid" v="754768"/>
  </node>
  <node id="-7567" visible="true" lat="44.43698264" lon="-73.21081544">
    <!-- multiple: "1185 Shelburne Road, South Burlington, VT" Multiple exact matches in OSM. -->
    <tag k="addr:city" v="South Burlington"/>
    <tag k="addr:housenumber" v="1185"/>
    <tag k="addr:street" v="Shelburne Road"/>
    <tag k="addr:state" v="VT"/>
    <tag k="ref:vcgi:esiteid" v="755359"/>
  </node>
  <node id="-7577" visible="true" lat="44.48400729" lon="-73.16044344">
    <!-- multiple: "60 Ethan Allen Drive, South Burlington, VT" Multiple exact matches in OSM. -->
    <tag k="addr:city" v="South Burlington"/>
    <tag k="addr:housenumber" v="60"/>
    <tag k="addr:street" v="Ethan Allen Drive"/>
    <tag k="addr:state" v="VT"/>
    <tag k="ref:vcgi:esiteid" v="755960"/>
  </node>
  <node id="-7578" visible="true" lat="44.48261045" lon="-73.15802466">
    <!-- multiple: "75 Ethan Allen Drive, South Burlington, VT" Multiple exact matches in OSM. -->
    <tag k="addr:city" v="South Burlington"/>
    <tag k="addr:housenumber" v="75"/>
    <tag k="addr:street" v="Ethan Allen Drive"/>
    <tag k="addr:state" v="VT"/>
    <tag k="ref:vcgi:esiteid" v="755961"/>
  </node>
  <node id="-7579" visible="true" lat="44.48302608" lon="-73.15769257">
    <!-- multiple: "75 Ethan Allen Drive, South Burlington, VT" Multiple exact matches in OSM. -->
    <tag k="addr:city" v="South Burlington"/>
    <tag k="addr:housenumber" v="75"/>
    <tag k="addr:street" v="Ethan Allen Drive"/>
    <tag k="addr:state" v="VT"/>
    <tag k="ref:vcgi:esiteid" v="755962"/>
  </node>
  <node id="-7582" visible="true" lat="44.48387082" lon="-73.15674421">
    <!-- multiple: "82 Ethan Allen Drive, South Burlington, VT" Multiple exact matches in OSM. -->
    <tag k="addr:city" v="South Burlington"/>
    <tag k="addr:housenumber" v="82"/>
    <tag k="addr:street" v="Ethan Allen Drive"/>
    <tag k="addr:state" v="VT"/>
    <tag k="ref:vcgi:esiteid" v="755965"/>
  </node>
  <node id="-7892" visible="true" lat="44.45478548" lon="-73.16867644">
    <!-- multiple: "100 Kennedy Drive, South Burlington, VT" Multiple exact matches in OSM. -->
    <tag k="addr:city" v="South Burlington"/>
    <tag k="addr:housenumber" v="100"/>
    <tag k="addr:street" v="Kennedy Drive"/>
    <tag k="addr:state" v="VT"/>
    <tag k="ref:vcgi:esiteid" v="771095"/>
  </node>
</osm>
