<?xml version="1.0" encoding="UTF-8"?>
<osm version="0.6" generator="JOSM" upload="false">
  <node id="-3563" visible="true" lat="43.27686333" lon="-72.51377241">
    <tag k="addr:housenumber" v="108"/>
    <tag k="addr:street" v="Porter Way"/>
    <tag k="addr:state" v="VT"/>
    <tag k="ref:vcgi:esiteid" v="238109"/>
  </node>
  <node id="-3989" visible="true" lat="43.32300043" lon="-72.47738341">
    <tag k="addr:housenumber" v="45"/>
    <tag k="addr:street" v="Trombley Road"/>
    <tag k="addr:state" v="VT"/>
    <tag k="ref:vcgi:esiteid" v="646461"/>
  </node>
  <node id="-4242" visible="true" lat="43.29860078" lon="-72.48148609">
    <tag k="addr:housenumber" v="8"/>
    <tag k="addr:street" v="Summer Street"/>
    <tag k="addr:state" v="VT"/>
    <tag k="ref:vcgi:esiteid" v="771144"/>
  </node>
  <node id="-4243" visible="true" lat="43.27576927" lon="-72.51017354">
    <tag k="addr:housenumber" v="425"/>
    <tag k="addr:street" v="Redfield Drive"/>
    <tag k="addr:state" v="VT"/>
    <tag k="ref:vcgi:esiteid" v="771380"/>
  </node>
  <node id="-4244" visible="true" lat="43.27524638" lon="-72.51378667">
    <tag k="addr:housenumber" v="71"/>
    <tag k="addr:street" v="Redfield Drive"/>
    <tag k="addr:state" v="VT"/>
    <tag k="ref:vcgi:esiteid" v="771381"/>
  </node>
  <node id="-4245" visible="true" lat="43.27446942" lon="-72.51344349">
    <tag k="addr:housenumber" v="284"/>
    <tag k="addr:street" v="Porter Way"/>
    <tag k="addr:state" v="VT"/>
    <tag k="ref:vcgi:esiteid" v="771382"/>
  </node>
  <node id="-4246" visible="true" lat="43.27531396" lon="-72.51434711">
    <tag k="addr:housenumber" v="189"/>
    <tag k="addr:street" v="Porter Way"/>
    <tag k="addr:state" v="VT"/>
    <tag k="ref:vcgi:esiteid" v="771383"/>
  </node>
  <node id="-4247" visible="true" lat="43.30021278" lon="-72.51704826">
    <tag k="addr:housenumber" v="74"/>
    <tag k="addr:street" v="Bellows Road"/>
    <tag k="addr:state" v="VT"/>
    <tag k="ref:vcgi:esiteid" v="771865"/>
  </node>
  <node id="-4248" visible="true" lat="43.32376299" lon="-72.42721706">
    <tag k="addr:housenumber" v="124"/>
    <tag k="addr:street" v="Bugbee Road"/>
    <tag k="addr:state" v="VT"/>
    <tag k="ref:vcgi:esiteid" v="771876"/>
  </node>
  <node id="-4249" visible="true" lat="43.30333431" lon="-72.49505285">
    <tag k="addr:housenumber" v="5"/>
    <tag k="addr:street" v="Fairground Road"/>
    <tag k="addr:state" v="VT"/>
    <tag k="ref:vcgi:esiteid" v="772096"/>
  </node>
  <node id="-4250" visible="true" lat="43.30596177" lon="-72.49603476">
    <tag k="addr:housenumber" v="11"/>
    <tag k="addr:street" v="Fairground Road"/>
    <tag k="addr:state" v="VT"/>
    <tag k="ref:vcgi:esiteid" v="772097"/>
  </node>
  <node id="-4251" visible="true" lat="43.32400662" lon="-72.51991187">
    <tag k="addr:housenumber" v="401"/>
    <tag k="addr:street" v="Edgewood Road"/>
    <tag k="addr:state" v="VT"/>
    <tag k="ref:vcgi:esiteid" v="772266"/>
  </node>
  <node id="-4252" visible="true" lat="43.33621157" lon="-72.52929951">
    <tag k="addr:housenumber" v="14"/>
    <tag k="addr:street" v="Cemetery Road"/>
    <tag k="addr:state" v="VT"/>
    <tag k="ref:vcgi:esiteid" v="772544"/>
  </node>
  <node id="-4253" visible="true" lat="43.33619143" lon="-72.5306702">
    <tag k="addr:housenumber" v="24"/>
    <tag k="addr:street" v="Cemetery Road"/>
    <tag k="addr:state" v="VT"/>
    <tag k="ref:vcgi:esiteid" v="772545"/>
  </node>
</osm>
