<?xml version="1.0" encoding="UTF-8"?>
<osm version="0.6" generator="JOSM" upload="false">
  <node id="-188" visible="true" lat="43.33758105" lon="-72.50511345">
    <!-- multiple: "87 Reservoir Road, , VT" Multiple exact matches in OSM. -->
    <tag k="addr:housenumber" v="87"/>
    <tag k="addr:street" v="Reservoir Road"/>
    <tag k="addr:state" v="VT"/>
    <tag k="ref:vcgi:esiteid" v="234441"/>
  </node>
  <node id="-194" visible="true" lat="43.33722693" lon="-72.50497832">
    <!-- multiple: "87 Reservoir Road, , VT" Multiple exact matches in OSM. -->
    <tag k="addr:housenumber" v="87"/>
    <tag k="addr:street" v="Reservoir Road"/>
    <tag k="addr:state" v="VT"/>
    <tag k="ref:vcgi:esiteid" v="234448"/>
  </node>
  <node id="-401" visible="true" lat="43.33328049" lon="-72.52005749">
    <!-- multiple: "8 Maple Street, , VT" Multiple exact matches in OSM. -->
    <tag k="addr:housenumber" v="8"/>
    <tag k="addr:street" v="Maple Street"/>
    <tag k="addr:state" v="VT"/>
    <tag k="ref:vcgi:esiteid" v="234678"/>
  </node>
  <node id="-527" visible="true" lat="43.33106909" lon="-72.50858773">
    <!-- multiple: "35 Reservoir Road, , VT" Multiple exact matches in OSM. -->
    <tag k="addr:housenumber" v="35"/>
    <tag k="addr:street" v="Reservoir Road"/>
    <tag k="addr:state" v="VT"/>
    <tag k="ref:vcgi:esiteid" v="234816"/>
  </node>
  <node id="-533" visible="true" lat="43.3309805" lon="-72.52557121">
    <!-- multiple: "11 Church Street, , VT" Multiple exact matches in OSM. -->
    <tag k="addr:housenumber" v="11"/>
    <tag k="addr:street" v="Church Street"/>
    <tag k="addr:state" v="VT"/>
    <tag k="ref:vcgi:esiteid" v="234823"/>
  </node>
  <node id="-539" visible="true" lat="43.33089056" lon="-72.52486182">
    <!-- multiple: "14 Church Street, , VT" Multiple exact matches in OSM. -->
    <tag k="addr:housenumber" v="14"/>
    <tag k="addr:street" v="Church Street"/>
    <tag k="addr:state" v="VT"/>
    <tag k="ref:vcgi:esiteid" v="234832"/>
  </node>
  <node id="-545" visible="true" lat="43.33070183" lon="-72.50796007">
    <!-- multiple: "35 Reservoir Road, , VT" Multiple exact matches in OSM. -->
    <tag k="addr:housenumber" v="35"/>
    <tag k="addr:street" v="Reservoir Road"/>
    <tag k="addr:state" v="VT"/>
    <tag k="ref:vcgi:esiteid" v="234838"/>
  </node>
  <node id="-644" visible="true" lat="43.32757186" lon="-72.5105133">
    <!-- multiple: "5 Reservoir Road, , VT" Multiple exact matches in OSM. -->
    <tag k="addr:housenumber" v="5"/>
    <tag k="addr:street" v="Reservoir Road"/>
    <tag k="addr:state" v="VT"/>
    <tag k="ref:vcgi:esiteid" v="234954"/>
  </node>
  <node id="-654" visible="true" lat="43.32710461" lon="-72.51092087">
    <!-- multiple: "5 Reservoir Road, , VT" Multiple exact matches in OSM. -->
    <tag k="addr:housenumber" v="5"/>
    <tag k="addr:street" v="Reservoir Road"/>
    <tag k="addr:state" v="VT"/>
    <tag k="ref:vcgi:esiteid" v="234965"/>
  </node>
  <node id="-668" visible="true" lat="43.32629013" lon="-72.51069641">
    <!-- multiple: "407 River Street, , VT" Multiple exact matches in OSM. -->
    <tag k="addr:housenumber" v="407"/>
    <tag k="addr:street" v="River Street"/>
    <tag k="addr:state" v="VT"/>
    <tag k="ref:vcgi:esiteid" v="234983"/>
  </node>
  <node id="-758" visible="true" lat="43.32299416" lon="-72.52565407">
    <!-- multiple: "903 French Meadow Road, , VT" Multiple exact matches in OSM. -->
    <tag k="addr:housenumber" v="903"/>
    <tag k="addr:street" v="French Meadow Road"/>
    <tag k="addr:state" v="VT"/>
    <tag k="ref:vcgi:esiteid" v="235076"/>
  </node>
  <node id="-762" visible="true" lat="43.32285689" lon="-72.52548801">
    <!-- multiple: "903 French Meadow Road, , VT" Multiple exact matches in OSM. -->
    <tag k="addr:housenumber" v="903"/>
    <tag k="addr:street" v="French Meadow Road"/>
    <tag k="addr:state" v="VT"/>
    <tag k="ref:vcgi:esiteid" v="235080"/>
  </node>
  <node id="-825" visible="true" lat="43.32031732" lon="-72.50743947">
    <!-- multiple: "360 River Street, , VT" Multiple exact matches in OSM. -->
    <tag k="addr:housenumber" v="360"/>
    <tag k="addr:street" v="River Street"/>
    <tag k="addr:state" v="VT"/>
    <tag k="ref:vcgi:esiteid" v="235147"/>
  </node>
  <node id="-831" visible="true" lat="43.3203926" lon="-72.50672912">
    <!-- multiple: "360 River Street, , VT" Multiple exact matches in OSM. -->
    <tag k="addr:housenumber" v="360"/>
    <tag k="addr:street" v="River Street"/>
    <tag k="addr:state" v="VT"/>
    <tag k="ref:vcgi:esiteid" v="235154"/>
  </node>
  <node id="-859" visible="true" lat="43.31926169" lon="-72.45473573">
    <!-- multiple: "222 Barlow Road, , VT" Multiple exact matches in OSM. -->
    <tag k="addr:housenumber" v="222"/>
    <tag k="addr:street" v="Barlow Road"/>
    <tag k="addr:state" v="VT"/>
    <tag k="ref:vcgi:esiteid" v="235184"/>
  </node>
  <node id="-1127" visible="true" lat="43.30770873" lon="-72.5008316">
    <!-- multiple: "49 Fairground Road, , VT" Multiple exact matches in OSM. -->
    <tag k="addr:housenumber" v="49"/>
    <tag k="addr:street" v="Fairground Road"/>
    <tag k="addr:state" v="VT"/>
    <tag k="ref:vcgi:esiteid" v="235470"/>
  </node>
  <node id="-1140" visible="true" lat="43.30744161" lon="-72.50059394">
    <!-- multiple: "49 Fairground Road, , VT" Multiple exact matches in OSM. -->
    <tag k="addr:housenumber" v="49"/>
    <tag k="addr:street" v="Fairground Road"/>
    <tag k="addr:state" v="VT"/>
    <tag k="ref:vcgi:esiteid" v="235483"/>
  </node>
  <node id="-1170" visible="true" lat="43.30576521" lon="-72.49859121">
    <!-- multiple: "33 Fairground Road, , VT" Multiple exact matches in OSM. -->
    <tag k="addr:housenumber" v="33"/>
    <tag k="addr:street" v="Fairground Road"/>
    <tag k="addr:state" v="VT"/>
    <tag k="ref:vcgi:esiteid" v="235518"/>
  </node>
  <node id="-1172" visible="true" lat="43.30577468" lon="-72.4994812">
    <!-- multiple: "33 Fairground Road, , VT" Multiple exact matches in OSM. -->
    <tag k="addr:housenumber" v="33"/>
    <tag k="addr:street" v="Fairground Road"/>
    <tag k="addr:state" v="VT"/>
    <tag k="ref:vcgi:esiteid" v="235520"/>
  </node>
  <node id="-1614" visible="true" lat="43.29981415" lon="-72.49614212">
    <!-- multiple: "39 Chester Road, , VT" Multiple exact matches in OSM. -->
    <tag k="addr:housenumber" v="39"/>
    <tag k="addr:street" v="Chester Road"/>
    <tag k="addr:state" v="VT"/>
    <tag k="ref:vcgi:esiteid" v="236012"/>
  </node>
  <node id="-1669" visible="true" lat="43.29951095" lon="-72.49568176">
    <!-- multiple: "35 Chester Road, , VT" Multiple exact matches in OSM. -->
    <tag k="addr:housenumber" v="35"/>
    <tag k="addr:street" v="Chester Road"/>
    <tag k="addr:state" v="VT"/>
    <tag k="ref:vcgi:esiteid" v="236073"/>
  </node>
  <node id="-1674" visible="true" lat="43.2995149" lon="-72.48130715">
    <!-- multiple: "6 Main Street, , VT" Multiple exact matches in OSM. -->
    <tag k="addr:housenumber" v="6"/>
    <tag k="addr:street" v="Main Street"/>
    <tag k="addr:state" v="VT"/>
    <tag k="ref:vcgi:esiteid" v="236079"/>
  </node>
  <node id="-1710" visible="true" lat="43.2993113" lon="-72.49603465">
    <!-- multiple: "35 Chester Road, , VT" Multiple exact matches in OSM. -->
    <tag k="addr:housenumber" v="35"/>
    <tag k="addr:street" v="Chester Road"/>
    <tag k="addr:state" v="VT"/>
    <tag k="ref:vcgi:esiteid" v="236127"/>
  </node>
  <node id="-1725" visible="true" lat="43.29858038" lon="-72.4807315">
    <!-- multiple: "30 Pleasant Street, , VT" Multiple exact matches in OSM. -->
    <tag k="addr:housenumber" v="30"/>
    <tag k="addr:street" v="Pleasant Street"/>
    <tag k="addr:state" v="VT"/>
    <tag k="ref:vcgi:esiteid" v="236144"/>
  </node>
  <node id="-1852" visible="true" lat="43.29805034" lon="-72.48171279">
    <!-- multiple: "56 Main Street, , VT" Multiple exact matches in OSM. -->
    <tag k="addr:housenumber" v="56"/>
    <tag k="addr:street" v="Main Street"/>
    <tag k="addr:state" v="VT"/>
    <tag k="ref:vcgi:esiteid" v="236286"/>
  </node>
  <node id="-2261" visible="true" lat="43.29392433" lon="-72.47741523">
    <!-- multiple: "50 Clinton Street, , VT" Multiple exact matches in OSM. -->
    <tag k="addr:housenumber" v="50"/>
    <tag k="addr:street" v="Clinton Street"/>
    <tag k="addr:state" v="VT"/>
    <tag k="ref:vcgi:esiteid" v="236736"/>
  </node>
  <node id="-2721" visible="true" lat="43.28864851" lon="-72.4603391">
    <!-- multiple: "53 Skitchewaug Trail, , VT" Multiple exact matches in OSM. -->
    <tag k="addr:housenumber" v="53"/>
    <tag k="addr:street" v="Skitchewaug Trail"/>
    <tag k="addr:state" v="VT"/>
    <tag k="ref:vcgi:esiteid" v="237231"/>
  </node>
  <node id="-2811" visible="true" lat="43.28738972" lon="-72.53775478">
    <!-- multiple: "305 Lacross Road, , VT" Multiple exact matches in OSM. -->
    <tag k="addr:housenumber" v="305"/>
    <tag k="addr:street" v="Lacross Road"/>
    <tag k="addr:state" v="VT"/>
    <tag k="ref:vcgi:esiteid" v="237327"/>
  </node>
  <node id="-2812" visible="true" lat="43.28744538" lon="-72.53814827">
    <!-- multiple: "305 Lacross Road, , VT" Multiple exact matches in OSM. -->
    <tag k="addr:housenumber" v="305"/>
    <tag k="addr:street" v="Lacross Road"/>
    <tag k="addr:state" v="VT"/>
    <tag k="ref:vcgi:esiteid" v="237328"/>
  </node>
  <node id="-2830" visible="true" lat="43.28712552" lon="-72.4139884">
    <!-- multiple: "858 Connecticut River Road, , VT" Multiple exact matches in OSM. -->
    <tag k="addr:housenumber" v="858"/>
    <tag k="addr:street" v="Connecticut River Road"/>
    <tag k="addr:state" v="VT"/>
    <tag k="ref:vcgi:esiteid" v="237348"/>
  </node>
  <node id="-2932" visible="true" lat="43.28336783" lon="-72.48188152">
    <!-- multiple: "221 Southridge Street, , VT" Multiple exact matches in OSM. -->
    <tag k="addr:housenumber" v="221"/>
    <tag k="addr:street" v="Southridge Street"/>
    <tag k="addr:state" v="VT"/>
    <tag k="ref:vcgi:esiteid" v="237459"/>
  </node>
  <node id="-2937" visible="true" lat="43.28310801" lon="-72.48187488">
    <!-- multiple: "221 Southridge Street, , VT" Multiple exact matches in OSM. -->
    <tag k="addr:housenumber" v="221"/>
    <tag k="addr:street" v="Southridge Street"/>
    <tag k="addr:state" v="VT"/>
    <tag k="ref:vcgi:esiteid" v="237464"/>
  </node>
  <node id="-3103" visible="true" lat="43.27324081" lon="-72.53940344">
    <!-- multiple: "175 Pleasant Valley Road, , VT" Multiple exact matches in OSM. -->
    <tag k="addr:housenumber" v="175"/>
    <tag k="addr:street" v="Pleasant Valley Road"/>
    <tag k="addr:state" v="VT"/>
    <tag k="ref:vcgi:esiteid" v="237643"/>
  </node>
  <node id="-3107" visible="true" lat="43.27308636" lon="-72.5393512">
    <!-- multiple: "175 Pleasant Valley Road, , VT" Multiple exact matches in OSM. -->
    <tag k="addr:housenumber" v="175"/>
    <tag k="addr:street" v="Pleasant Valley Road"/>
    <tag k="addr:state" v="VT"/>
    <tag k="ref:vcgi:esiteid" v="237647"/>
  </node>
  <node id="-3127" visible="true" lat="43.2718126" lon="-72.45132623">
    <!-- multiple: "72 Paddock Road, , VT" Multiple exact matches in OSM. -->
    <tag k="addr:housenumber" v="72"/>
    <tag k="addr:street" v="Paddock Road"/>
    <tag k="addr:state" v="VT"/>
    <tag k="ref:vcgi:esiteid" v="237668"/>
  </node>
  <node id="-3177" visible="true" lat="43.26916503" lon="-72.45535278">
    <!-- multiple: "68 Randall Hill Road, , VT" Multiple exact matches in OSM. -->
    <tag k="addr:housenumber" v="68"/>
    <tag k="addr:street" v="Randall Hill Road"/>
    <tag k="addr:state" v="VT"/>
    <tag k="ref:vcgi:esiteid" v="237719"/>
  </node>
  <node id="-3178" visible="true" lat="43.26909256" lon="-72.45523834">
    <!-- multiple: "68 Randall Hill Road, , VT" Multiple exact matches in OSM. -->
    <tag k="addr:housenumber" v="68"/>
    <tag k="addr:street" v="Randall Hill Road"/>
    <tag k="addr:state" v="VT"/>
    <tag k="ref:vcgi:esiteid" v="237720"/>
  </node>
  <node id="-3236" visible="true" lat="43.26400316" lon="-72.43643189">
    <!-- multiple: "14 Missing Link Road, , VT" Multiple exact matches in OSM. -->
    <tag k="addr:housenumber" v="14"/>
    <tag k="addr:street" v="Missing Link Road"/>
    <tag k="addr:state" v="VT"/>
    <tag k="ref:vcgi:esiteid" v="237779"/>
  </node>
  <node id="-3293" visible="true" lat="43.26005003" lon="-72.49112164">
    <!-- multiple: "398 Brockway Mills Road, , VT" Multiple exact matches in OSM. -->
    <tag k="addr:housenumber" v="398"/>
    <tag k="addr:street" v="Brockway Mills Road"/>
    <tag k="addr:state" v="VT"/>
    <tag k="ref:vcgi:esiteid" v="237836"/>
  </node>
  <node id="-3354" visible="true" lat="43.25422562" lon="-72.53924995">
    <!-- multiple: "154 Whitney Road, , VT" Multiple exact matches in OSM. -->
    <tag k="addr:housenumber" v="154"/>
    <tag k="addr:street" v="Whitney Road"/>
    <tag k="addr:state" v="VT"/>
    <tag k="ref:vcgi:esiteid" v="237899"/>
  </node>
  <node id="-3355" visible="true" lat="43.25406673" lon="-72.53923092">
    <!-- multiple: "154 Whitney Road, , VT" Multiple exact matches in OSM. -->
    <tag k="addr:housenumber" v="154"/>
    <tag k="addr:street" v="Whitney Road"/>
    <tag k="addr:state" v="VT"/>
    <tag k="ref:vcgi:esiteid" v="237900"/>
  </node>
  <node id="-3425" visible="true" lat="43.24457536" lon="-72.5249564">
    <!-- multiple: "397 Boedtker Road, , VT" Multiple exact matches in OSM. -->
    <tag k="addr:housenumber" v="397"/>
    <tag k="addr:street" v="Boedtker Road"/>
    <tag k="addr:state" v="VT"/>
    <tag k="ref:vcgi:esiteid" v="237971"/>
  </node>
  <node id="-3427" visible="true" lat="43.24432472" lon="-72.52550805">
    <!-- multiple: "397 Boedtker Road, , VT" Multiple exact matches in OSM. -->
    <tag k="addr:housenumber" v="397"/>
    <tag k="addr:street" v="Boedtker Road"/>
    <tag k="addr:state" v="VT"/>
    <tag k="ref:vcgi:esiteid" v="237973"/>
  </node>
  <node id="-3555" visible="true" lat="43.2687497" lon="-72.4383743">
    <!-- multiple: "700 Charlestown Road, , VT" Multiple exact matches in OSM. -->
    <tag k="addr:housenumber" v="700"/>
    <tag k="addr:street" v="Charlestown Road"/>
    <tag k="addr:state" v="VT"/>
    <tag k="ref:vcgi:esiteid" v="238101"/>
  </node>
  <node id="-3890" visible="true" lat="43.28120904" lon="-72.48660952">
    <!-- multiple: "90 Wcfr Drive, , VT" Multiple exact matches in OSM. -->
    <tag k="addr:housenumber" v="90"/>
    <tag k="addr:street" v="Wcfr Drive"/>
    <tag k="addr:state" v="VT"/>
    <tag k="ref:vcgi:esiteid" v="344485"/>
  </node>
  <node id="-3933" visible="true" lat="43.30028682" lon="-72.49674167">
    <!-- multiple: "39 Chester Road, , VT" Multiple exact matches in OSM. -->
    <tag k="addr:housenumber" v="39"/>
    <tag k="addr:street" v="Chester Road"/>
    <tag k="addr:state" v="VT"/>
    <tag k="ref:vcgi:esiteid" v="452975"/>
  </node>
  <node id="-3958" visible="true" lat="43.28074558" lon="-72.48666377">
    <!-- multiple: "90 Wcfr Drive, , VT" Multiple exact matches in OSM. -->
    <tag k="addr:housenumber" v="90"/>
    <tag k="addr:street" v="Wcfr Drive"/>
    <tag k="addr:state" v="VT"/>
    <tag k="ref:vcgi:esiteid" v="610251"/>
  </node>
  <node id="-4056" visible="true" lat="43.30381364" lon="-72.48994786">
    <!-- multiple: "205 River Street, , VT" Multiple exact matches in OSM. -->
    <tag k="addr:housenumber" v="205"/>
    <tag k="addr:street" v="River Street"/>
    <tag k="addr:state" v="VT"/>
    <tag k="ref:vcgi:esiteid" v="757614"/>
  </node>
  <node id="-4210" visible="true" lat="43.28694017" lon="-72.4140365">
    <!-- multiple: "858 Connecticut River Road, , VT" Multiple exact matches in OSM. -->
    <tag k="addr:housenumber" v="858"/>
    <tag k="addr:street" v="Connecticut River Road"/>
    <tag k="addr:state" v="VT"/>
    <tag k="ref:vcgi:esiteid" v="769355"/>
  </node>
  <node id="-4211" visible="true" lat="43.26002461" lon="-72.49125649">
    <!-- multiple: "398 Brockway Mills Road, , VT" Multiple exact matches in OSM. -->
    <tag k="addr:housenumber" v="398"/>
    <tag k="addr:street" v="Brockway Mills Road"/>
    <tag k="addr:state" v="VT"/>
    <tag k="ref:vcgi:esiteid" v="769356"/>
  </node>
  <node id="-4212" visible="true" lat="43.32613963" lon="-72.51051052">
    <!-- multiple: "407 River Street, , VT" Multiple exact matches in OSM. -->
    <tag k="addr:housenumber" v="407"/>
    <tag k="addr:street" v="River Street"/>
    <tag k="addr:state" v="VT"/>
    <tag k="ref:vcgi:esiteid" v="769361"/>
  </node>
</osm>
