<?xml version="1.0" encoding="UTF-8"?>
<osm version="0.6" generator="JOSM" upload="false">
  <node id="-564" visible="true" lat="43.76865046" lon="-72.70636987">
    <tag k="addr:city" v="Stockbridge"/>
    <tag k="addr:housenumber" v="3600"/>
    <tag k="addr:street" v="Vermont Route 107"/>
    <tag k="addr:state" v="VT"/>
    <tag k="ref:vcgi:esiteid" v="249285"/>
  </node>
  <node id="-701" visible="true" lat="43.76827563" lon="-72.76530671">
    <tag k="addr:city" v="Stockbridge"/>
    <tag k="addr:housenumber" v="559"/>
    <tag k="addr:street" v="Joe Manning Road"/>
    <tag k="addr:state" v="VT"/>
    <tag k="ref:vcgi:esiteid" v="646700"/>
  </node>
  <node id="-737" visible="true" lat="43.7563517" lon="-72.80502537">
    <tag k="addr:city" v="Stockbridge"/>
    <tag k="addr:housenumber" v="956"/>
    <tag k="addr:street" v="Tweed River Drive"/>
    <tag k="addr:state" v="VT"/>
    <tag k="ref:vcgi:esiteid" v="771330"/>
  </node>
  <node id="-738" visible="true" lat="43.74320553" lon="-72.74514742">
    <tag k="addr:city" v="Stockbridge"/>
    <tag k="addr:housenumber" v="871"/>
    <tag k="addr:street" v="Taggart Hill Road South"/>
    <tag k="addr:state" v="VT"/>
    <tag k="ref:vcgi:esiteid" v="771572"/>
  </node>
  <node id="-739" visible="true" lat="43.76323916" lon="-72.73707668">
    <tag k="addr:city" v="Stockbridge"/>
    <tag k="addr:housenumber" v="949"/>
    <tag k="addr:street" v="Blackmer Boulevard"/>
    <tag k="addr:state" v="VT"/>
    <tag k="ref:vcgi:esiteid" v="771582"/>
  </node>
</osm>
