<?xml version="1.0" encoding="UTF-8"?>
<osm version="0.6" generator="JOSM" upload="false">
  <node id="-424" visible="true" lat="44.50231309" lon="-72.75945079">
    <!-- conflict: "110 Ranch Brook Road, Stowe, VT" No match in OSM, but a different address exists <5m away: "5041 Mountain Road, Stowe, VT" -->
    <tag k="addr:city" v="Stowe"/>
    <tag k="addr:housenumber" v="110"/>
    <tag k="addr:street" v="Ranch Brook Road"/>
    <tag k="addr:state" v="VT"/>
    <tag k="ref:vcgi:esiteid" v="249718"/>
  </node>
  <node id="-1032" visible="true" lat="44.47939947" lon="-72.72283094">
    <!-- conflict: "64 Mountain Road, Stowe, VT" No match in OSM, but a different address exists <5m away: "2438 Mountain Road, Stowe, VT" -->
    <tag k="addr:city" v="Stowe"/>
    <tag k="addr:housenumber" v="64"/>
    <tag k="addr:street" v="Mountain Road"/>
    <tag k="addr:state" v="VT"/>
    <tag k="ref:vcgi:esiteid" v="250356"/>
  </node>
  <node id="-1060" visible="true" lat="44.47828446" lon="-72.69329033">
    <!-- conflict: "133 Cape Cod Road, Stowe, VT" No match in OSM, but a different address exists <5m away: "103 Cape Cod Road, Stowe, VT" -->
    <tag k="addr:city" v="Stowe"/>
    <tag k="addr:housenumber" v="133"/>
    <tag k="addr:street" v="Cape Cod Road"/>
    <tag k="addr:state" v="VT"/>
    <tag k="ref:vcgi:esiteid" v="250385"/>
  </node>
  <node id="-1090" visible="true" lat="44.47733538" lon="-72.68831854">
    <!-- conflict: "83 Mayo Farm Road, Stowe, VT" No match in OSM, but a different address exists <5m away: "258 Weeks Hill Road, Stowe, VT" -->
    <tag k="addr:city" v="Stowe"/>
    <tag k="addr:housenumber" v="83"/>
    <tag k="addr:street" v="Mayo Farm Road"/>
    <tag k="addr:state" v="VT"/>
    <tag k="ref:vcgi:esiteid" v="250422"/>
  </node>
  <node id="-3603" visible="true" lat="44.45293835" lon="-72.69048896">
    <!-- conflict: "535 Sylvan Park Road, Stowe, VT" No match in OSM, but a different address exists <5m away: "537 Sylvan Park Road, Stowe, VT" -->
    <tag k="addr:city" v="Stowe"/>
    <tag k="addr:housenumber" v="535"/>
    <tag k="addr:street" v="Sylvan Park Road"/>
    <tag k="addr:state" v="VT"/>
    <tag k="ref:vcgi:esiteid" v="655466"/>
  </node>
</osm>
