<?xml version="1.0" encoding="UTF-8"?>
<osm version="0.6" generator="JOSM" upload="false">
  <node id="-107" visible="true" lat="43.89495331" lon="-72.25539858">
    <!-- multiple: "1051 West Fairlee Road, , VT" Multiple exact matches in OSM. -->
    <tag k="addr:housenumber" v="1051"/>
    <tag k="addr:street" v="West Fairlee Road"/>
    <tag k="addr:state" v="VT"/>
    <tag k="ref:vcgi:esiteid" v="258475"/>
  </node>
  <node id="-109" visible="true" lat="43.89450838" lon="-72.25278105">
    <!-- multiple: "865 West Fairlee Road, , VT" Multiple exact matches in OSM. -->
    <tag k="addr:housenumber" v="865"/>
    <tag k="addr:street" v="West Fairlee Road"/>
    <tag k="addr:state" v="VT"/>
    <tag k="ref:vcgi:esiteid" v="258478"/>
  </node>
  <node id="-110" visible="true" lat="43.89446184" lon="-72.25228171">
    <!-- multiple: "859 West Fairlee Road, , VT" Multiple exact matches in OSM. -->
    <tag k="addr:housenumber" v="859"/>
    <tag k="addr:street" v="West Fairlee Road"/>
    <tag k="addr:state" v="VT"/>
    <tag k="ref:vcgi:esiteid" v="258479"/>
  </node>
  <node id="-111" visible="true" lat="43.89428661" lon="-72.25155833">
    <!-- multiple: "799 West Fairlee Road, , VT" Multiple exact matches in OSM. -->
    <tag k="addr:housenumber" v="799"/>
    <tag k="addr:street" v="West Fairlee Road"/>
    <tag k="addr:state" v="VT"/>
    <tag k="ref:vcgi:esiteid" v="258480"/>
  </node>
  <node id="-112" visible="true" lat="43.89350854" lon="-72.24900208">
    <!-- multiple: "671 West Fairlee Road, , VT" Multiple exact matches in OSM. -->
    <tag k="addr:housenumber" v="671"/>
    <tag k="addr:street" v="West Fairlee Road"/>
    <tag k="addr:state" v="VT"/>
    <tag k="ref:vcgi:esiteid" v="258481"/>
  </node>
  <node id="-418" visible="true" lat="43.85723566" lon="-72.24424876">
    <!-- multiple: "940 Five Corners Road, , VT" Multiple exact matches in OSM. -->
    <tag k="addr:housenumber" v="940"/>
    <tag k="addr:street" v="Five Corners Road"/>
    <tag k="addr:state" v="VT"/>
    <tag k="ref:vcgi:esiteid" v="258796"/>
  </node>
  <node id="-518" visible="true" lat="43.84374038" lon="-72.18453315">
    <!-- multiple: "5378 U.S. Route 5, , VT" Multiple exact matches in OSM. -->
    <tag k="addr:housenumber" v="5378"/>
    <tag k="addr:street" v="U.S. Route 5"/>
    <tag k="addr:state" v="VT"/>
    <tag k="ref:vcgi:esiteid" v="258899"/>
  </node>
  <node id="-536" visible="true" lat="43.84238401" lon="-72.24751126">
    <!-- multiple: "4706 Vermont Route 113, , VT" Multiple exact matches in OSM. -->
    <tag k="addr:housenumber" v="4706"/>
    <tag k="addr:street" v="Vermont Route 113"/>
    <tag k="addr:state" v="VT"/>
    <tag k="ref:vcgi:esiteid" v="258917"/>
  </node>
  <node id="-950" visible="true" lat="43.81451014" lon="-72.23061296">
    <!-- multiple: "304 Academy Road, , VT" Multiple exact matches in OSM. -->
    <tag k="addr:housenumber" v="304"/>
    <tag k="addr:street" v="Academy Road"/>
    <tag k="addr:state" v="VT"/>
    <tag k="ref:vcgi:esiteid" v="259349"/>
  </node>
  <node id="-1087" visible="true" lat="43.80633693" lon="-72.18884947">
    <!-- multiple: "225 Pavillion Road, , VT" Multiple exact matches in OSM. -->
    <tag k="addr:housenumber" v="225"/>
    <tag k="addr:street" v="Pavillion Road"/>
    <tag k="addr:state" v="VT"/>
    <tag k="ref:vcgi:esiteid" v="259492"/>
  </node>
  <node id="-1257" visible="true" lat="43.78837476" lon="-72.25323075">
    <!-- multiple: "35 Campbell Flats Road, , VT" Multiple exact matches in OSM. -->
    <tag k="addr:housenumber" v="35"/>
    <tag k="addr:street" v="Campbell Flats Road"/>
    <tag k="addr:state" v="VT"/>
    <tag k="ref:vcgi:esiteid" v="259663"/>
  </node>
  <node id="-1270" visible="true" lat="43.78622413" lon="-72.25493953">
    <!-- multiple: "237 Main Street, , VT" Multiple exact matches in OSM. -->
    <tag k="addr:housenumber" v="237"/>
    <tag k="addr:street" v="Main Street"/>
    <tag k="addr:state" v="VT"/>
    <tag k="ref:vcgi:esiteid" v="259676"/>
  </node>
  <node id="-1316" visible="true" lat="43.8500007" lon="-72.29553729">
    <!-- multiple: "3174 Route 132, , VT" Multiple exact matches in OSM. -->
    <tag k="addr:housenumber" v="3174"/>
    <tag k="addr:street" v="Route 132"/>
    <tag k="addr:state" v="VT"/>
    <tag k="ref:vcgi:esiteid" v="259725"/>
  </node>
  <node id="-1550" visible="true" lat="43.81039763" lon="-72.23508465">
    <!-- multiple: "622 Academy Road, , VT" Multiple exact matches in OSM. -->
    <tag k="addr:housenumber" v="622"/>
    <tag k="addr:street" v="Academy Road"/>
    <tag k="addr:state" v="VT"/>
    <tag k="ref:vcgi:esiteid" v="445366"/>
  </node>
  <node id="-1556" visible="true" lat="43.81744374" lon="-72.32642291">
    <!-- multiple: "738 New Boston Road, , VT" Multiple exact matches in OSM. -->
    <tag k="addr:housenumber" v="738"/>
    <tag k="addr:street" v="New Boston Road"/>
    <tag k="addr:state" v="VT"/>
    <tag k="ref:vcgi:esiteid" v="448969"/>
  </node>
  <node id="-1577" visible="true" lat="43.89340478" lon="-72.24852616">
    <!-- multiple: "643 West Fairlee Road, , VT" Multiple exact matches in OSM. -->
    <tag k="addr:housenumber" v="643"/>
    <tag k="addr:street" v="West Fairlee Road"/>
    <tag k="addr:state" v="VT"/>
    <tag k="ref:vcgi:esiteid" v="454868"/>
  </node>
  <node id="-1578" visible="true" lat="43.89368808" lon="-72.24957215">
    <!-- multiple: "703 West Fairlee Road, , VT" Multiple exact matches in OSM. -->
    <tag k="addr:housenumber" v="703"/>
    <tag k="addr:street" v="West Fairlee Road"/>
    <tag k="addr:state" v="VT"/>
    <tag k="ref:vcgi:esiteid" v="454869"/>
  </node>
</osm>
