<?xml version="1.0" encoding="UTF-8"?>
<osm version="0.6" generator="JOSM" upload="false">
  <node id="-114" visible="true" lat="43.89355087" lon="-72.25582885">
    <!-- offset: "1067 West Fairlee Road, , VT" Significant offset - 235.5m -->
    <tag k="addr:housenumber" v="1067"/>
    <tag k="addr:street" v="West Fairlee Road"/>
    <tag k="addr:state" v="VT"/>
    <tag k="ref:vcgi:esiteid" v="258483"/>
  </node>
  <node id="-928" visible="true" lat="43.81591414" lon="-72.21265576">
    <!-- offset: "300 Latham Road, , VT" Significant offset - 178.9m -->
    <tag k="addr:housenumber" v="300"/>
    <tag k="addr:street" v="Latham Road"/>
    <tag k="addr:state" v="VT"/>
    <tag k="ref:vcgi:esiteid" v="259323"/>
  </node>
  <node id="-1033" visible="true" lat="43.81277546" lon="-72.23537487">
    <!-- offset: "622 Academy Road, , VT" Significant offset - 265.4m -->
    <tag k="addr:housenumber" v="622"/>
    <tag k="addr:street" v="Academy Road"/>
    <tag k="addr:state" v="VT"/>
    <tag k="ref:vcgi:esiteid" v="259437"/>
  </node>
  <node id="-1638" visible="true" lat="43.88513422" lon="-72.21975061">
    <!-- offset: "262 Bragg Road, , VT" Significant offset - 145.2m -->
    <tag k="addr:housenumber" v="262"/>
    <tag k="addr:street" v="Bragg Road"/>
    <tag k="addr:state" v="VT"/>
    <tag k="ref:vcgi:esiteid" v="753496"/>
  </node>
  <node id="-1702" visible="true" lat="43.79185477" lon="-72.24061961">
    <!-- offset: "755 Burnham Road, , VT" Significant offset - 130.2m -->
    <tag k="addr:housenumber" v="755"/>
    <tag k="addr:street" v="Burnham Road"/>
    <tag k="addr:state" v="VT"/>
    <tag k="ref:vcgi:esiteid" v="770718"/>
  </node>
</osm>
