<?xml version="1.0" encoding="UTF-8"?>
<osm version="0.6" generator="JOSM" upload="false">
  <node id="-457" visible="true" lat="43.84959344" lon="-72.22229709">
    <tag k="addr:housenumber" v="2239"/>
    <tag k="addr:street" v="Houghton Hill Road"/>
    <tag k="addr:state" v="VT"/>
    <tag k="ref:vcgi:esiteid" v="258838"/>
  </node>
  <node id="-1302" visible="true" lat="43.88304189" lon="-72.24404386">
    <tag k="addr:housenumber" v="448"/>
    <tag k="addr:street" v="Robinson Hill Road"/>
    <tag k="addr:state" v="VT"/>
    <tag k="ref:vcgi:esiteid" v="259710"/>
  </node>
  <node id="-1704" visible="true" lat="43.7971184" lon="-72.19619142">
    <tag k="addr:housenumber" v="9"/>
    <tag k="addr:street" v="Vaughan Farms Road"/>
    <tag k="addr:state" v="VT"/>
    <tag k="ref:vcgi:esiteid" v="771284"/>
  </node>
  <node id="-1707" visible="true" lat="43.79704411" lon="-72.21343399">
    <tag k="addr:housenumber" v="944"/>
    <tag k="addr:street" v="Quail John Road"/>
    <tag k="addr:state" v="VT"/>
    <tag k="ref:vcgi:esiteid" v="771628"/>
  </node>
  <node id="-1709" visible="true" lat="43.87066794" lon="-72.2363704">
    <tag k="addr:housenumber" v="2005"/>
    <tag k="addr:street" v="Five Corners Road"/>
    <tag k="addr:state" v="VT"/>
    <tag k="ref:vcgi:esiteid" v="771828"/>
  </node>
</osm>
