<?xml version="1.0" encoding="UTF-8"?>
<osm version="0.6" generator="JOSM" upload="false">
  <node id="-122" visible="true" lat="45.00003052" lon="-72.37944794">
    <!-- offset: "604 Bear Mountain Road, , VT" Significant offset - 478.7m -->
    <tag k="addr:housenumber" v="604"/>
    <tag k="addr:street" v="Bear Mountain Road"/>
    <tag k="addr:state" v="VT"/>
    <tag k="ref:vcgi:esiteid" v="261737"/>
  </node>
  <node id="-911" visible="true" lat="44.85172572" lon="-72.40556168">
    <!-- offset: "5063 Loop Road, , VT" Significant offset - 306.2m -->
    <tag k="addr:housenumber" v="5063"/>
    <tag k="addr:street" v="Loop Road"/>
    <tag k="addr:state" v="VT"/>
    <tag k="ref:vcgi:esiteid" v="281250"/>
  </node>
  <node id="-1015" visible="true" lat="44.85177065" lon="-72.40171657">
    <!-- offset: "5065 Loop Road, , VT" Significant offset - 334.5m -->
    <tag k="addr:housenumber" v="5065"/>
    <tag k="addr:street" v="Loop Road"/>
    <tag k="addr:state" v="VT"/>
    <tag k="ref:vcgi:esiteid" v="762083"/>
  </node>
  <node id="-1016" visible="true" lat="44.84388537" lon="-72.40469789">
    <!-- offset: "132 Carter Road, , VT" Significant offset - 113.8m -->
    <tag k="addr:housenumber" v="132"/>
    <tag k="addr:street" v="Carter Road"/>
    <tag k="addr:state" v="VT"/>
    <tag k="ref:vcgi:esiteid" v="762086"/>
  </node>
  <node id="-1024" visible="true" lat="44.84142767" lon="-72.39294135">
    <!-- offset: "165 Robtoy Road, , VT" Significant offset - 170.2m -->
    <tag k="addr:housenumber" v="165"/>
    <tag k="addr:street" v="Robtoy Road"/>
    <tag k="addr:state" v="VT"/>
    <tag k="ref:vcgi:esiteid" v="764379"/>
  </node>
  <node id="-1040" visible="true" lat="44.98064693" lon="-72.38442767">
    <!-- offset: "843 River Road, , VT" Significant offset - 272.4m -->
    <tag k="addr:housenumber" v="843"/>
    <tag k="addr:street" v="River Road"/>
    <tag k="addr:state" v="VT"/>
    <tag k="ref:vcgi:esiteid" v="770661"/>
  </node>
</osm>
