<?xml version="1.0" encoding="UTF-8"?>
<osm version="0.6" generator="JOSM" upload="false">
  <node id="-386" visible="true" lat="43.90429306" lon="-72.46271514">
    <tag k="addr:housenumber" v="25"/>
    <tag k="addr:street" v="1 Coutu Court"/>
    <tag k="addr:state" v="VT"/>
    <tag k="ref:vcgi:esiteid" v="262909"/>
  </node>
  <node id="-388" visible="true" lat="43.90371704" lon="-72.46083831">
    <tag k="addr:housenumber" v="24"/>
    <tag k="addr:street" v="1 Coutu Court"/>
    <tag k="addr:state" v="VT"/>
    <tag k="ref:vcgi:esiteid" v="262911"/>
  </node>
  <node id="-888" visible="true" lat="43.88901982" lon="-72.49456586">
    <tag k="addr:housenumber" v="191"/>
    <tag k="addr:street" v="Fairground Road"/>
    <tag k="addr:state" v="VT"/>
    <tag k="ref:vcgi:esiteid" v="646679"/>
  </node>
  <node id="-999" visible="true" lat="43.94822407" lon="-72.47736145">
    <tag k="addr:housenumber" v="95"/>
    <tag k="addr:street" v="Hanson Road"/>
    <tag k="addr:state" v="VT"/>
    <tag k="ref:vcgi:esiteid" v="771313"/>
  </node>
  <node id="-1000" visible="true" lat="43.8520413" lon="-72.4667991">
    <tag k="addr:housenumber" v="377"/>
    <tag k="addr:street" v="Potash Hill Road"/>
    <tag k="addr:state" v="VT"/>
    <tag k="ref:vcgi:esiteid" v="772396"/>
  </node>
</osm>
