<?xml version="1.0" encoding="UTF-8"?>
<osm version="0.6" generator="JOSM" upload="false">
  <node id="-121" visible="true" lat="44.61723936" lon="-72.90826221">
    <!-- multiple: "10 Covey Road, Underhill, VT" Multiple exact matches in OSM. -->
    <tag k="addr:city" v="Underhill"/>
    <tag k="addr:housenumber" v="10"/>
    <tag k="addr:street" v="Covey Road"/>
    <tag k="addr:state" v="VT"/>
    <tag k="ref:vcgi:esiteid" v="263345"/>
  </node>
  <node id="-299" visible="true" lat="44.57947637" lon="-72.94110283">
    <!-- multiple: "810 Vermont Route 15, Underhill, VT" Multiple exact matches in OSM. -->
    <tag k="addr:city" v="Underhill"/>
    <tag k="addr:housenumber" v="810"/>
    <tag k="addr:street" v="Vermont Route 15"/>
    <tag k="addr:state" v="VT"/>
    <tag k="ref:vcgi:esiteid" v="263524"/>
  </node>
  <node id="-344" visible="true" lat="44.57051888" lon="-72.93522347">
    <!-- multiple: "35 Gerts Knob Road, Underhill, VT" Multiple exact matches in OSM. -->
    <tag k="addr:city" v="Underhill"/>
    <tag k="addr:housenumber" v="35"/>
    <tag k="addr:street" v="Gerts Knob Road"/>
    <tag k="addr:state" v="VT"/>
    <tag k="ref:vcgi:esiteid" v="263571"/>
  </node>
  <node id="-621" visible="true" lat="44.53862327" lon="-72.88914865">
    <!-- multiple: "225 Irish Settlement Road, Underhill, VT" Multiple exact matches in OSM. -->
    <tag k="addr:city" v="Underhill"/>
    <tag k="addr:housenumber" v="225"/>
    <tag k="addr:street" v="Irish Settlement Road"/>
    <tag k="addr:state" v="VT"/>
    <tag k="ref:vcgi:esiteid" v="263850"/>
  </node>
  <node id="-828" visible="true" lat="44.52327306" lon="-72.94277704">
    <!-- multiple: "23 Park Street, Underhill, VT" Multiple exact matches in OSM. -->
    <tag k="addr:city" v="Underhill"/>
    <tag k="addr:housenumber" v="23"/>
    <tag k="addr:street" v="Park Street"/>
    <tag k="addr:state" v="VT"/>
    <tag k="ref:vcgi:esiteid" v="264060"/>
  </node>
  <node id="-906" visible="true" lat="44.51595514" lon="-72.91606343">
    <!-- multiple: "185 River Road, Underhill, VT" Multiple exact matches in OSM. -->
    <tag k="addr:city" v="Underhill"/>
    <tag k="addr:housenumber" v="185"/>
    <tag k="addr:street" v="River Road"/>
    <tag k="addr:state" v="VT"/>
    <tag k="ref:vcgi:esiteid" v="264139"/>
  </node>
  <node id="-991" visible="true" lat="44.50807303" lon="-72.89824815">
    <!-- multiple: "15 Pleasant Valley Road, Underhill, VT" Multiple exact matches in OSM. -->
    <tag k="addr:city" v="Underhill"/>
    <tag k="addr:housenumber" v="15"/>
    <tag k="addr:street" v="Pleasant Valley Road"/>
    <tag k="addr:state" v="VT"/>
    <tag k="ref:vcgi:esiteid" v="264225"/>
  </node>
  <node id="-996" visible="true" lat="44.50785827" lon="-72.90359497">
    <!-- multiple: "278 River Road, Underhill, VT" Multiple exact matches in OSM. -->
    <tag k="addr:city" v="Underhill"/>
    <tag k="addr:housenumber" v="278"/>
    <tag k="addr:street" v="River Road"/>
    <tag k="addr:state" v="VT"/>
    <tag k="ref:vcgi:esiteid" v="264230"/>
  </node>
  <node id="-1460" visible="true" lat="44.58336199" lon="-72.93519378">
    <!-- multiple: "26 North Underhill Station Road, Underhill, VT" Multiple exact matches in OSM. -->
    <tag k="addr:city" v="Underhill"/>
    <tag k="addr:housenumber" v="26"/>
    <tag k="addr:street" v="North Underhill Station Road"/>
    <tag k="addr:state" v="VT"/>
    <tag k="ref:vcgi:esiteid" v="759943"/>
  </node>
  <node id="-1563" visible="true" lat="44.5065447" lon="-72.90562048">
    <!-- multiple: "16 Range Road, Underhill, VT" Multiple exact matches in OSM. -->
    <tag k="addr:city" v="Underhill"/>
    <tag k="addr:housenumber" v="16"/>
    <tag k="addr:street" v="Range Road"/>
    <tag k="addr:state" v="VT"/>
    <tag k="ref:vcgi:esiteid" v="768882"/>
  </node>
</osm>
