<?xml version="1.0" encoding="UTF-8"?>
<osm version="0.6" generator="JOSM" upload="false">
  <node id="-341" visible="true" lat="44.57077667" lon="-72.92158477">
    <!-- offset: "7 Metcalf View, Underhill, VT" Significant offset - 104.6m -->
    <tag k="addr:city" v="Underhill"/>
    <tag k="addr:housenumber" v="7"/>
    <tag k="addr:street" v="Metcalf View"/>
    <tag k="addr:state" v="VT"/>
    <tag k="ref:vcgi:esiteid" v="263568"/>
  </node>
  <node id="-411" visible="true" lat="44.5630021" lon="-72.94343681">
    <!-- offset: "14 Repa Road, Underhill, VT" Significant offset - 501.2m -->
    <tag k="addr:city" v="Underhill"/>
    <tag k="addr:housenumber" v="14"/>
    <tag k="addr:street" v="Repa Road"/>
    <tag k="addr:state" v="VT"/>
    <tag k="ref:vcgi:esiteid" v="263639"/>
  </node>
  <node id="-563" visible="true" lat="44.54635116" lon="-72.91022764">
    <!-- offset: "141 Upper English Settlement Road, Underhill, VT" Significant offset - 133.8m -->
    <tag k="addr:city" v="Underhill"/>
    <tag k="addr:housenumber" v="141"/>
    <tag k="addr:street" v="Upper English Settlement Road"/>
    <tag k="addr:state" v="VT"/>
    <tag k="ref:vcgi:esiteid" v="263791"/>
  </node>
  <node id="-914" visible="true" lat="44.5147946" lon="-72.92692566">
    <!-- offset: "128 River Road, Underhill, VT" Significant offset - 176.1m -->
    <tag k="addr:city" v="Underhill"/>
    <tag k="addr:housenumber" v="128"/>
    <tag k="addr:street" v="River Road"/>
    <tag k="addr:state" v="VT"/>
    <tag k="ref:vcgi:esiteid" v="264147"/>
  </node>
  <node id="-1528" visible="true" lat="44.54990957" lon="-72.88315292">
    <!-- offset: "317 Irish Settlement Road, Underhill, VT" Significant offset - 109.1m -->
    <tag k="addr:city" v="Underhill"/>
    <tag k="addr:housenumber" v="317"/>
    <tag k="addr:street" v="Irish Settlement Road"/>
    <tag k="addr:state" v="VT"/>
    <tag k="ref:vcgi:esiteid" v="767007"/>
  </node>
</osm>
