<?xml version="1.0" encoding="UTF-8"?>
<osm version="0.6" generator="JOSM" upload="false">
  <node id="-791" visible="true" lat="44.48428176" lon="-72.28062216">
    <tag k="addr:housenumber" v="220"/>
    <tag k="addr:street" v="Birch Road"/>
    <tag k="addr:state" v="VT"/>
    <tag k="ref:vcgi:esiteid" v="753414"/>
  </node>
  <node id="-793" visible="true" lat="44.48481849" lon="-72.27744038">
    <tag k="addr:housenumber" v="341"/>
    <tag k="addr:street" v="Birch Road"/>
    <tag k="addr:state" v="VT"/>
    <tag k="ref:vcgi:esiteid" v="753416"/>
  </node>
  <node id="-825" visible="true" lat="44.44226259" lon="-72.26841272">
    <tag k="addr:housenumber" v="995"/>
    <tag k="addr:street" v="Route 215"/>
    <tag k="addr:state" v="VT"/>
    <tag k="ref:vcgi:esiteid" v="771367"/>
  </node>
  <node id="-826" visible="true" lat="44.52837431" lon="-72.26500659">
    <tag k="addr:housenumber" v="2070"/>
    <tag k="addr:street" v="Orton Road"/>
    <tag k="addr:state" v="VT"/>
    <tag k="ref:vcgi:esiteid" v="771796"/>
  </node>
  <node id="-827" visible="true" lat="44.45470718" lon="-72.26110472">
    <tag k="addr:housenumber" v="5845"/>
    <tag k="addr:street" v="Vermont Route 15"/>
    <tag k="addr:state" v="VT"/>
    <tag k="ref:vcgi:esiteid" v="772547"/>
  </node>
  <node id="-828" visible="true" lat="44.47118032" lon="-72.22971519">
    <tag k="addr:housenumber" v="1574"/>
    <tag k="addr:street" v="Noyestar Road"/>
    <tag k="addr:state" v="VT"/>
    <tag k="ref:vcgi:esiteid" v="772551"/>
  </node>
  <node id="-829" visible="true" lat="44.45839156" lon="-72.30281142">
    <tag k="addr:housenumber" v="185"/>
    <tag k="addr:street" v="Ferguson Hill"/>
    <tag k="addr:state" v="VT"/>
    <tag k="ref:vcgi:esiteid" v="772620"/>
  </node>
  <node id="-830" visible="true" lat="44.44786424" lon="-72.20581245">
    <tag k="addr:housenumber" v="1215"/>
    <tag k="addr:street" v="Maple Lane"/>
    <tag k="addr:state" v="VT"/>
    <tag k="ref:vcgi:esiteid" v="772627"/>
  </node>
  <node id="-831" visible="true" lat="44.45381197" lon="-72.25214107">
    <tag k="addr:housenumber" v="273"/>
    <tag k="addr:street" v="Greaves Road"/>
    <tag k="addr:state" v="VT"/>
    <tag k="ref:vcgi:esiteid" v="772653"/>
  </node>
</osm>
