<?xml version="1.0" encoding="UTF-8"?>
<osm version="0.6" generator="JOSM" upload="false">
  <node id="-1811" visible="true" lat="44.14153419" lon="-72.88302293">
    <tag k="addr:city" v="Warren"/>
    <tag k="addr:housenumber" v="71"/>
    <tag k="addr:street" v="Golf Course Road"/>
    <tag k="addr:state" v="VT"/>
    <tag k="ref:vcgi:esiteid" v="767152"/>
  </node>
  <node id="-1832" visible="true" lat="44.13643722" lon="-72.87633754">
    <tag k="addr:city" v="Warren"/>
    <tag k="addr:housenumber" v="142"/>
    <tag k="addr:street" v="Norwegian Lane"/>
    <tag k="addr:state" v="VT"/>
    <tag k="ref:vcgi:esiteid" v="771141"/>
  </node>
  <node id="-1833" visible="true" lat="44.14158756" lon="-72.88252377">
    <tag k="addr:city" v="Warren"/>
    <tag k="addr:housenumber" v="80"/>
    <tag k="addr:street" v="Domino Drive"/>
    <tag k="addr:state" v="VT"/>
    <tag k="ref:vcgi:esiteid" v="771453"/>
  </node>
  <node id="-1834" visible="true" lat="44.14183559" lon="-72.88229177">
    <tag k="addr:city" v="Warren"/>
    <tag k="addr:housenumber" v="79"/>
    <tag k="addr:street" v="Domino Drive"/>
    <tag k="addr:state" v="VT"/>
    <tag k="ref:vcgi:esiteid" v="771454"/>
  </node>
  <node id="-1835" visible="true" lat="44.12448174" lon="-72.88207414">
    <tag k="addr:city" v="Warren"/>
    <tag k="addr:housenumber" v="1495"/>
    <tag k="addr:street" v="West Hill Road"/>
    <tag k="addr:state" v="VT"/>
    <tag k="ref:vcgi:esiteid" v="771587"/>
  </node>
  <node id="-1836" visible="true" lat="44.10437293" lon="-72.88802771">
    <tag k="addr:city" v="Warren"/>
    <tag k="addr:housenumber" v="32"/>
    <tag k="addr:street" v="Meadow View Lane"/>
    <tag k="addr:state" v="VT"/>
    <tag k="ref:vcgi:esiteid" v="771615"/>
  </node>
  <node id="-1837" visible="true" lat="44.14925377" lon="-72.88212591">
    <tag k="addr:city" v="Warren"/>
    <tag k="addr:housenumber" v="3203"/>
    <tag k="addr:street" v="German Flats Road"/>
    <tag k="addr:state" v="VT"/>
    <tag k="ref:vcgi:esiteid" v="771919"/>
  </node>
  <node id="-1838" visible="true" lat="44.14076416" lon="-72.84918676">
    <tag k="addr:city" v="Warren"/>
    <tag k="addr:housenumber" v="157"/>
    <tag k="addr:street" v="Lower Pines Road"/>
    <tag k="addr:state" v="VT"/>
    <tag k="ref:vcgi:esiteid" v="771955"/>
  </node>
  <node id="-1839" visible="true" lat="44.10974396" lon="-72.85606636">
    <tag k="addr:city" v="Warren"/>
    <tag k="addr:housenumber" v="599"/>
    <tag k="addr:street" v="Main Street"/>
    <tag k="addr:state" v="VT"/>
    <tag k="ref:vcgi:esiteid" v="772051"/>
  </node>
  <node id="-1840" visible="true" lat="44.12833583" lon="-72.91574825">
    <tag k="addr:city" v="Warren"/>
    <tag k="addr:housenumber" v="1725"/>
    <tag k="addr:street" v="Lincoln Peak Work Road"/>
    <tag k="addr:state" v="VT"/>
    <tag k="ref:vcgi:esiteid" v="772087"/>
  </node>
  <node id="-1841" visible="true" lat="44.1281261" lon="-72.90582945">
    <tag k="addr:city" v="Warren"/>
    <tag k="addr:housenumber" v="1435"/>
    <tag k="addr:street" v="Lincoln Peak Work Road"/>
    <tag k="addr:state" v="VT"/>
    <tag k="ref:vcgi:esiteid" v="772088"/>
  </node>
  <node id="-1842" visible="true" lat="44.12869524" lon="-72.91459909">
    <tag k="addr:city" v="Warren"/>
    <tag k="addr:housenumber" v="1721"/>
    <tag k="addr:street" v="Lincoln Peak Work Road"/>
    <tag k="addr:state" v="VT"/>
    <tag k="ref:vcgi:esiteid" v="772089"/>
  </node>
  <node id="-1848" visible="true" lat="44.13609262" lon="-72.91088013">
    <tag k="addr:city" v="Warren"/>
    <tag k="addr:housenumber" v="850"/>
    <tag k="addr:street" v="Lincoln Peak Work Road"/>
    <tag k="addr:state" v="VT"/>
    <tag k="ref:vcgi:esiteid" v="772103"/>
  </node>
  <node id="-1851" visible="true" lat="44.11970937" lon="-72.82230713">
    <tag k="addr:city" v="Warren"/>
    <tag k="addr:housenumber" v="612"/>
    <tag k="addr:street" v="Woods Road South"/>
    <tag k="addr:state" v="VT"/>
    <tag k="ref:vcgi:esiteid" v="772299"/>
  </node>
  <node id="-1852" visible="true" lat="44.13532722" lon="-72.89622756">
    <tag k="addr:city" v="Warren"/>
    <tag k="addr:housenumber" v="135"/>
    <tag k="addr:street" v="Gate House Lane"/>
    <tag k="addr:state" v="VT"/>
    <tag k="ref:vcgi:esiteid" v="772303"/>
  </node>
  <node id="-1853" visible="true" lat="44.13490094" lon="-72.89891419">
    <tag k="addr:city" v="Warren"/>
    <tag k="addr:housenumber" v="275"/>
    <tag k="addr:street" v="Gate House Lane"/>
    <tag k="addr:state" v="VT"/>
    <tag k="ref:vcgi:esiteid" v="772304"/>
  </node>
  <node id="-1854" visible="true" lat="44.13341423" lon="-72.91655062">
    <tag k="addr:city" v="Warren"/>
    <tag k="addr:housenumber" v="1270"/>
    <tag k="addr:street" v="Lincoln Peak Work Road"/>
    <tag k="addr:state" v="VT"/>
    <tag k="ref:vcgi:esiteid" v="772305"/>
  </node>
  <node id="-1855" visible="true" lat="44.06880864" lon="-72.83498079">
    <tag k="addr:city" v="Warren"/>
    <tag k="addr:housenumber" v="70"/>
    <tag k="addr:street" v="Birch Street"/>
    <tag k="addr:state" v="VT"/>
    <tag k="ref:vcgi:esiteid" v="772559"/>
  </node>
  <node id="-1856" visible="true" lat="44.11913576" lon="-72.88828595">
    <tag k="addr:city" v="Warren"/>
    <tag k="addr:housenumber" v="1908"/>
    <tag k="addr:street" v="West Hill Road"/>
    <tag k="addr:state" v="VT"/>
    <tag k="ref:vcgi:esiteid" v="772659"/>
  </node>
</osm>
