<?xml version="1.0" encoding="UTF-8"?>
<osm version="0.6" generator="JOSM" upload="false">
  <node id="-100" visible="true" lat="44.01265013" lon="-72.39192019">
    <!-- multiple: "203 Corinth Road, , VT" Multiple exact matches in OSM. -->
    <tag k="addr:housenumber" v="203"/>
    <tag k="addr:street" v="Corinth Road"/>
    <tag k="addr:state" v="VT"/>
    <tag k="ref:vcgi:esiteid" v="65809"/>
  </node>
  <node id="-244" visible="true" lat="44.1074028" lon="-72.43351745">
    <!-- multiple: "2980 Vermont Route 110, , VT" Multiple exact matches in OSM. -->
    <tag k="addr:housenumber" v="2980"/>
    <tag k="addr:street" v="Vermont Route 110"/>
    <tag k="addr:state" v="VT"/>
    <tag k="ref:vcgi:esiteid" v="272822"/>
  </node>
  <node id="-564" visible="true" lat="44.10786978" lon="-72.43155883">
    <!-- multiple: "72 School Lane, , VT" Multiple exact matches in OSM. -->
    <tag k="addr:housenumber" v="72"/>
    <tag k="addr:street" v="School Lane"/>
    <tag k="addr:state" v="VT"/>
    <tag k="ref:vcgi:esiteid" v="273152"/>
  </node>
  <node id="-568" visible="true" lat="44.06138017" lon="-72.36156973">
    <!-- multiple: "1087 Beaver Brook Road, , VT" Multiple exact matches in OSM. -->
    <tag k="addr:housenumber" v="1087"/>
    <tag k="addr:street" v="Beaver Brook Road"/>
    <tag k="addr:state" v="VT"/>
    <tag k="ref:vcgi:esiteid" v="273158"/>
  </node>
  <node id="-583" visible="true" lat="44.04835163" lon="-72.42778939">
    <!-- multiple: "2940 Pepper Road, , VT" Multiple exact matches in OSM. -->
    <tag k="addr:housenumber" v="2940"/>
    <tag k="addr:street" v="Pepper Road"/>
    <tag k="addr:state" v="VT"/>
    <tag k="ref:vcgi:esiteid" v="273175"/>
  </node>
  <node id="-625" visible="true" lat="44.04861052" lon="-72.42813707">
    <!-- multiple: "2940 Pepper Road, , VT" Multiple exact matches in OSM. -->
    <tag k="addr:housenumber" v="2940"/>
    <tag k="addr:street" v="Pepper Road"/>
    <tag k="addr:state" v="VT"/>
    <tag k="ref:vcgi:esiteid" v="310001"/>
  </node>
  <node id="-665" visible="true" lat="44.04787722" lon="-72.49194812">
    <!-- multiple: "118 Edwards Road, , VT" Multiple exact matches in OSM. -->
    <tag k="addr:housenumber" v="118"/>
    <tag k="addr:street" v="Edwards Road"/>
    <tag k="addr:state" v="VT"/>
    <tag k="ref:vcgi:esiteid" v="332455"/>
  </node>
  <node id="-688" visible="true" lat="44.06549551" lon="-72.49303819">
    <!-- multiple: "1736 Williamstown Road, , VT" Multiple exact matches in OSM. -->
    <tag k="addr:housenumber" v="1736"/>
    <tag k="addr:street" v="Williamstown Road"/>
    <tag k="addr:state" v="VT"/>
    <tag k="ref:vcgi:esiteid" v="448643"/>
  </node>
  <node id="-724" visible="true" lat="44.12908918" lon="-72.44433342">
    <!-- multiple: "1571 Lowery Road, , VT" Multiple exact matches in OSM. -->
    <tag k="addr:housenumber" v="1571"/>
    <tag k="addr:street" v="Lowery Road"/>
    <tag k="addr:state" v="VT"/>
    <tag k="ref:vcgi:esiteid" v="611448"/>
  </node>
</osm>
