<?xml version="1.0" encoding="UTF-8"?>
<osm version="0.6" generator="JOSM" upload="false">
  <node id="-112" visible="true" lat="44.43027952" lon="-72.74249554">
    <!-- multiple: "669 Cottonbrook Road, , VT" Multiple exact matches in OSM. -->
    <tag k="addr:housenumber" v="669"/>
    <tag k="addr:street" v="Cottonbrook Road"/>
    <tag k="addr:state" v="VT"/>
    <tag k="ref:vcgi:esiteid" v="251822"/>
  </node>
  <node id="-735" visible="true" lat="44.36911987" lon="-72.72923329">
    <!-- multiple: "2657 Waterbury Stowe Road, , VT" Multiple exact matches in OSM. -->
    <tag k="addr:housenumber" v="2657"/>
    <tag k="addr:street" v="Waterbury Stowe Road"/>
    <tag k="addr:state" v="VT"/>
    <tag k="ref:vcgi:esiteid" v="273877"/>
  </node>
  <node id="-738" visible="true" lat="44.36919379" lon="-72.7286565">
    <!-- multiple: "2653 Waterbury Stowe Road, , VT" Multiple exact matches in OSM. -->
    <tag k="addr:housenumber" v="2653"/>
    <tag k="addr:street" v="Waterbury Stowe Road"/>
    <tag k="addr:state" v="VT"/>
    <tag k="ref:vcgi:esiteid" v="273880"/>
  </node>
  <node id="-1319" visible="true" lat="44.3461729" lon="-72.7451692">
    <!-- multiple: "758 Waterbury Stowe Road, , VT" Multiple exact matches in OSM. -->
    <tag k="addr:housenumber" v="758"/>
    <tag k="addr:street" v="Waterbury Stowe Road"/>
    <tag k="addr:state" v="VT"/>
    <tag k="ref:vcgi:esiteid" v="274501"/>
  </node>
  <node id="-1330" visible="true" lat="44.34565456" lon="-72.74675276">
    <!-- multiple: "713 Waterbury Stowe Road, , VT" Multiple exact matches in OSM. -->
    <tag k="addr:housenumber" v="713"/>
    <tag k="addr:street" v="Waterbury Stowe Road"/>
    <tag k="addr:state" v="VT"/>
    <tag k="ref:vcgi:esiteid" v="274514"/>
  </node>
  <node id="-1445" visible="true" lat="44.34228184" lon="-72.759014">
    <!-- multiple: "47 North Main Street, , VT" Multiple exact matches in OSM. -->
    <tag k="addr:housenumber" v="47"/>
    <tag k="addr:street" v="North Main Street"/>
    <tag k="addr:state" v="VT"/>
    <tag k="ref:vcgi:esiteid" v="274652"/>
  </node>
  <node id="-1463" visible="true" lat="44.34180993" lon="-72.76016409">
    <!-- multiple: "52 North Main Street, , VT" Multiple exact matches in OSM. -->
    <tag k="addr:housenumber" v="52"/>
    <tag k="addr:street" v="North Main Street"/>
    <tag k="addr:state" v="VT"/>
    <tag k="ref:vcgi:esiteid" v="274671"/>
  </node>
  <node id="-1465" visible="true" lat="44.34188485" lon="-72.75955337">
    <!-- multiple: "47 North Main Street, , VT" Multiple exact matches in OSM. -->
    <tag k="addr:housenumber" v="47"/>
    <tag k="addr:street" v="North Main Street"/>
    <tag k="addr:state" v="VT"/>
    <tag k="ref:vcgi:esiteid" v="274674"/>
  </node>
  <node id="-1540" visible="true" lat="44.33971357" lon="-72.7587383">
    <!-- multiple: "28 North Main Street, , VT" Multiple exact matches in OSM. -->
    <tag k="addr:housenumber" v="28"/>
    <tag k="addr:street" v="North Main Street"/>
    <tag k="addr:state" v="VT"/>
    <tag k="ref:vcgi:esiteid" v="274773"/>
  </node>
  <node id="-1569" visible="true" lat="44.33912306" lon="-72.75312006">
    <!-- multiple: "47 Stowe Street, , VT" Multiple exact matches in OSM. -->
    <tag k="addr:housenumber" v="47"/>
    <tag k="addr:street" v="Stowe Street"/>
    <tag k="addr:state" v="VT"/>
    <tag k="ref:vcgi:esiteid" v="274807"/>
  </node>
  <node id="-1617" visible="true" lat="44.33823973" lon="-72.75939501">
    <!-- multiple: "16 Winooski Street, , VT" Multiple exact matches in OSM. -->
    <tag k="addr:housenumber" v="16"/>
    <tag k="addr:street" v="Winooski Street"/>
    <tag k="addr:state" v="VT"/>
    <tag k="ref:vcgi:esiteid" v="274864"/>
  </node>
  <node id="-1624" visible="true" lat="44.33809753" lon="-72.7590929">
    <!-- multiple: "16 Winooski Street, , VT" Multiple exact matches in OSM. -->
    <tag k="addr:housenumber" v="16"/>
    <tag k="addr:street" v="Winooski Street"/>
    <tag k="addr:state" v="VT"/>
    <tag k="ref:vcgi:esiteid" v="274873"/>
  </node>
  <node id="-1681" visible="true" lat="44.3374805" lon="-72.75581904">
    <!-- multiple: "14 South Main Street, , VT" Multiple exact matches in OSM. -->
    <tag k="addr:housenumber" v="14"/>
    <tag k="addr:street" v="South Main Street"/>
    <tag k="addr:state" v="VT"/>
    <tag k="ref:vcgi:esiteid" v="274938"/>
  </node>
  <node id="-1762" visible="true" lat="44.33451775" lon="-72.75461967">
    <!-- multiple: "40 Randall Street, , VT" Multiple exact matches in OSM. -->
    <tag k="addr:housenumber" v="40"/>
    <tag k="addr:street" v="Randall Street"/>
    <tag k="addr:state" v="VT"/>
    <tag k="ref:vcgi:esiteid" v="275047"/>
  </node>
  <node id="-1769" visible="true" lat="44.33438031" lon="-72.7547408">
    <!-- multiple: "40 Randall Street, , VT" Multiple exact matches in OSM. -->
    <tag k="addr:housenumber" v="40"/>
    <tag k="addr:street" v="Randall Street"/>
    <tag k="addr:state" v="VT"/>
    <tag k="ref:vcgi:esiteid" v="275055"/>
  </node>
  <node id="-1797" visible="true" lat="44.33247694" lon="-72.75136229">
    <!-- multiple: "109 South Main Street, , VT" Multiple exact matches in OSM. -->
    <tag k="addr:housenumber" v="109"/>
    <tag k="addr:street" v="South Main Street"/>
    <tag k="addr:state" v="VT"/>
    <tag k="ref:vcgi:esiteid" v="275098"/>
  </node>
  <node id="-1802" visible="true" lat="44.3322424" lon="-72.75120602">
    <!-- multiple: "109 South Main Street, , VT" Multiple exact matches in OSM. -->
    <tag k="addr:housenumber" v="109"/>
    <tag k="addr:street" v="South Main Street"/>
    <tag k="addr:state" v="VT"/>
    <tag k="ref:vcgi:esiteid" v="275105"/>
  </node>
  <node id="-1805" visible="true" lat="44.33215561" lon="-72.75175208">
    <!-- multiple: "109 South Main Street, , VT" Multiple exact matches in OSM. -->
    <tag k="addr:housenumber" v="109"/>
    <tag k="addr:street" v="South Main Street"/>
    <tag k="addr:state" v="VT"/>
    <tag k="ref:vcgi:esiteid" v="275111"/>
  </node>
  <node id="-1840" visible="true" lat="44.33019658" lon="-72.74781558">
    <!-- multiple: "150 South Main Street, , VT" Multiple exact matches in OSM. -->
    <tag k="addr:housenumber" v="150"/>
    <tag k="addr:street" v="South Main Street"/>
    <tag k="addr:state" v="VT"/>
    <tag k="ref:vcgi:esiteid" v="275173"/>
  </node>
  <node id="-1844" visible="true" lat="44.32977727" lon="-72.74822305">
    <!-- multiple: "149 South Main Street, , VT" Multiple exact matches in OSM. -->
    <tag k="addr:housenumber" v="149"/>
    <tag k="addr:street" v="South Main Street"/>
    <tag k="addr:state" v="VT"/>
    <tag k="ref:vcgi:esiteid" v="275178"/>
  </node>
  <node id="-2026" visible="true" lat="44.33629717" lon="-72.75081684">
    <!-- multiple: "5 Pilgrim Park Road, , VT" Multiple exact matches in OSM. -->
    <tag k="addr:housenumber" v="5"/>
    <tag k="addr:street" v="Pilgrim Park Road"/>
    <tag k="addr:state" v="VT"/>
    <tag k="ref:vcgi:esiteid" v="316524"/>
  </node>
  <node id="-2203" visible="true" lat="44.41176753" lon="-72.69210887">
    <!-- multiple: "1183 South Hollow Road, , VT" Multiple exact matches in OSM. -->
    <tag k="addr:housenumber" v="1183"/>
    <tag k="addr:street" v="South Hollow Road"/>
    <tag k="addr:state" v="VT"/>
    <tag k="ref:vcgi:esiteid" v="340818"/>
  </node>
  <node id="-2333" visible="true" lat="44.39462861" lon="-72.72005287">
    <!-- multiple: "11 Cabin Lane, , VT" Multiple exact matches in OSM. -->
    <tag k="addr:housenumber" v="11"/>
    <tag k="addr:street" v="Cabin Lane"/>
    <tag k="addr:state" v="VT"/>
    <tag k="ref:vcgi:esiteid" v="454315"/>
  </node>
  <node id="-2643" visible="true" lat="44.33999157" lon="-72.76044732">
    <!-- multiple: "36 North Main Street, , VT" Multiple exact matches in OSM. -->
    <tag k="addr:housenumber" v="36"/>
    <tag k="addr:street" v="North Main Street"/>
    <tag k="addr:state" v="VT"/>
    <tag k="ref:vcgi:esiteid" v="1050598"/>
  </node>
</osm>
