<?xml version="1.0" encoding="UTF-8"?>
<osm version="0.6" generator="JOSM" upload="false">
  <node id="-550" visible="true" lat="44.34789521" lon="-71.91876465">
    <!-- offset: "847 Lower Waterford Road, Waterford, VT" Significant offset - 210.6m -->
    <tag k="addr:city" v="Waterford"/>
    <tag k="addr:housenumber" v="847"/>
    <tag k="addr:street" v="Lower Waterford Road"/>
    <tag k="addr:state" v="VT"/>
    <tag k="ref:vcgi:esiteid" v="275831"/>
  </node>
  <node id="-551" visible="true" lat="44.34913807" lon="-71.95273355">
    <!-- offset: "5044 Duck Pond Road, Waterford, VT" Significant offset - 113.5m -->
    <tag k="addr:city" v="Waterford"/>
    <tag k="addr:housenumber" v="5044"/>
    <tag k="addr:street" v="Duck Pond Road"/>
    <tag k="addr:state" v="VT"/>
    <tag k="ref:vcgi:esiteid" v="275832"/>
  </node>
  <node id="-778" visible="true" lat="44.39053026" lon="-71.99435173">
    <!-- offset: "713 Simpson Brook Road, Waterford, VT" Significant offset - 129.4m -->
    <tag k="addr:city" v="Waterford"/>
    <tag k="addr:housenumber" v="713"/>
    <tag k="addr:street" v="Simpson Brook Road"/>
    <tag k="addr:state" v="VT"/>
    <tag k="ref:vcgi:esiteid" v="611413"/>
  </node>
  <node id="-793" visible="true" lat="44.41542268" lon="-71.92013797">
    <!-- offset: "596 Cross Road, Waterford, VT" Significant offset - 335.8m -->
    <tag k="addr:city" v="Waterford"/>
    <tag k="addr:housenumber" v="596"/>
    <tag k="addr:street" v="Cross Road"/>
    <tag k="addr:state" v="VT"/>
    <tag k="ref:vcgi:esiteid" v="618040"/>
  </node>
  <node id="-801" visible="true" lat="44.38088329" lon="-72.0253154">
    <!-- offset: "218 U.S. Route 5, Waterford, VT" Significant offset - 165.8m -->
    <tag k="addr:city" v="Waterford"/>
    <tag k="addr:housenumber" v="218"/>
    <tag k="addr:street" v="U.S. Route 5"/>
    <tag k="addr:state" v="VT"/>
    <tag k="ref:vcgi:esiteid" v="753468"/>
  </node>
  <node id="-817" visible="true" lat="44.36992791" lon="-72.00611322">
    <!-- offset: "3129 Hale Road, Waterford, VT" Significant offset - 250.9m -->
    <tag k="addr:city" v="Waterford"/>
    <tag k="addr:housenumber" v="3129"/>
    <tag k="addr:street" v="Hale Road"/>
    <tag k="addr:state" v="VT"/>
    <tag k="ref:vcgi:esiteid" v="762320"/>
  </node>
</osm>
