<?xml version="1.0" encoding="UTF-8"?>
<osm version="0.6" generator="JOSM" upload="false">
  <node id="-1584" visible="true" lat="44.101232" lon="-72.54797309">
    <tag k="addr:housenumber" v="LOT12"/>
    <tag k="addr:street" v="Vermont Route 14"/>
    <tag k="addr:state" v="VT"/>
    <tag k="ref:vcgi:esiteid" v="613183"/>
  </node>
  <node id="-1622" visible="true" lat="44.12496523" lon="-72.53352157">
    <tag k="addr:housenumber" v="115"/>
    <tag k="addr:street" v="Railroad Street"/>
    <tag k="addr:state" v="VT"/>
    <tag k="ref:vcgi:esiteid" v="646543"/>
  </node>
  <node id="-1623" visible="true" lat="44.12454602" lon="-72.53385985">
    <tag k="addr:housenumber" v="77"/>
    <tag k="addr:street" v="Railroad Street"/>
    <tag k="addr:state" v="VT"/>
    <tag k="ref:vcgi:esiteid" v="646544"/>
  </node>
  <node id="-1624" visible="true" lat="44.12447557" lon="-72.53374609">
    <tag k="addr:housenumber" v="73"/>
    <tag k="addr:street" v="Railroad Street"/>
    <tag k="addr:state" v="VT"/>
    <tag k="ref:vcgi:esiteid" v="646545"/>
  </node>
  <node id="-1625" visible="true" lat="44.12477475" lon="-72.53344212">
    <tag k="addr:housenumber" v="89"/>
    <tag k="addr:street" v="Railroad Street"/>
    <tag k="addr:state" v="VT"/>
    <tag k="ref:vcgi:esiteid" v="646546"/>
  </node>
  <node id="-1626" visible="true" lat="44.10369139" lon="-72.60869966">
    <tag k="addr:housenumber" v="219"/>
    <tag k="addr:street" v="Emzaga Drive"/>
    <tag k="addr:state" v="VT"/>
    <tag k="ref:vcgi:esiteid" v="646607"/>
  </node>
  <node id="-1627" visible="true" lat="44.12560583" lon="-72.59019335">
    <tag k="addr:housenumber" v="155"/>
    <tag k="addr:street" v="Anderson Drive"/>
    <tag k="addr:state" v="VT"/>
    <tag k="ref:vcgi:esiteid" v="646614"/>
  </node>
  <node id="-1628" visible="true" lat="44.12545559" lon="-72.58986518">
    <tag k="addr:housenumber" v="127"/>
    <tag k="addr:street" v="Anderson Drive"/>
    <tag k="addr:state" v="VT"/>
    <tag k="ref:vcgi:esiteid" v="646615"/>
  </node>
  <node id="-1629" visible="true" lat="44.1250447" lon="-72.58911082">
    <tag k="addr:housenumber" v="221"/>
    <tag k="addr:street" v="Anderson Drive"/>
    <tag k="addr:state" v="VT"/>
    <tag k="ref:vcgi:esiteid" v="646616"/>
  </node>
  <node id="-1630" visible="true" lat="44.12485309" lon="-72.58992781">
    <tag k="addr:housenumber" v="176"/>
    <tag k="addr:street" v="Anderson Drive"/>
    <tag k="addr:state" v="VT"/>
    <tag k="ref:vcgi:esiteid" v="646617"/>
  </node>
  <node id="-1631" visible="true" lat="44.12505694" lon="-72.55927643">
    <tag k="addr:housenumber" v="191"/>
    <tag k="addr:street" v="Beede Mountain Road"/>
    <tag k="addr:state" v="VT"/>
    <tag k="ref:vcgi:esiteid" v="646665"/>
  </node>
  <node id="-1637" visible="true" lat="44.10341432" lon="-72.60743493">
    <tag k="addr:housenumber" v="181"/>
    <tag k="addr:street" v="Emzaga Drive"/>
    <tag k="addr:state" v="VT"/>
    <tag k="ref:vcgi:esiteid" v="656208"/>
  </node>
  <node id="-1639" visible="true" lat="44.12702708" lon="-72.590812">
    <tag k="addr:housenumber" v="459"/>
    <tag k="addr:street" v="Cold Spring Road"/>
    <tag k="addr:state" v="VT"/>
    <tag k="ref:vcgi:esiteid" v="656304"/>
  </node>
  <node id="-1640" visible="true" lat="44.09561677" lon="-72.50987676">
    <tag k="addr:housenumber" v="2683"/>
    <tag k="addr:street" v="Baptist Street"/>
    <tag k="addr:state" v="VT"/>
    <tag k="ref:vcgi:esiteid" v="656433"/>
  </node>
  <node id="-1738" visible="true" lat="44.09406655" lon="-72.58990396">
    <tag k="addr:housenumber" v="1700"/>
    <tag k="addr:street" v="Weir Road"/>
    <tag k="addr:state" v="VT"/>
    <tag k="ref:vcgi:esiteid" v="771847"/>
  </node>
  <node id="-1739" visible="true" lat="44.09479178" lon="-72.58162148">
    <tag k="addr:housenumber" v="1709"/>
    <tag k="addr:street" v="Weir Road"/>
    <tag k="addr:state" v="VT"/>
    <tag k="ref:vcgi:esiteid" v="771848"/>
  </node>
  <node id="-1740" visible="true" lat="44.10365173" lon="-72.60576713">
    <tag k="addr:housenumber" v="128"/>
    <tag k="addr:street" v="Emzaga Drive"/>
    <tag k="addr:state" v="VT"/>
    <tag k="ref:vcgi:esiteid" v="772149"/>
  </node>
  <node id="-1741" visible="true" lat="44.10329456" lon="-72.54819773">
    <tag k="addr:housenumber" v="LOT33"/>
    <tag k="addr:street" v="Vermont Route 14"/>
    <tag k="addr:state" v="VT"/>
    <tag k="ref:vcgi:esiteid" v="772187"/>
  </node>
  <node id="-1742" visible="true" lat="44.10335693" lon="-72.54808654">
    <tag k="addr:housenumber" v="LOT34"/>
    <tag k="addr:street" v="Vermont Route 14"/>
    <tag k="addr:state" v="VT"/>
    <tag k="ref:vcgi:esiteid" v="772188"/>
  </node>
  <node id="-1743" visible="true" lat="44.10343933" lon="-72.54800306">
    <tag k="addr:housenumber" v="LOT35"/>
    <tag k="addr:street" v="Vermont Route 14"/>
    <tag k="addr:state" v="VT"/>
    <tag k="ref:vcgi:esiteid" v="772189"/>
  </node>
  <node id="-1744" visible="true" lat="44.10339223" lon="-72.54832241">
    <tag k="addr:housenumber" v="LOT52"/>
    <tag k="addr:street" v="Vermont Route 14"/>
    <tag k="addr:state" v="VT"/>
    <tag k="ref:vcgi:esiteid" v="772190"/>
  </node>
  <node id="-1745" visible="true" lat="44.1034922" lon="-72.54829093">
    <tag k="addr:housenumber" v="LOT53"/>
    <tag k="addr:street" v="Vermont Route 14"/>
    <tag k="addr:state" v="VT"/>
    <tag k="ref:vcgi:esiteid" v="772191"/>
  </node>
  <node id="-1746" visible="true" lat="44.1035823" lon="-72.54835664">
    <tag k="addr:housenumber" v="LOT54"/>
    <tag k="addr:street" v="Vermont Route 14"/>
    <tag k="addr:state" v="VT"/>
    <tag k="ref:vcgi:esiteid" v="772192"/>
  </node>
  <node id="-1747" visible="true" lat="44.10367234" lon="-72.54837724">
    <tag k="addr:housenumber" v="LOT55"/>
    <tag k="addr:street" v="Vermont Route 14"/>
    <tag k="addr:state" v="VT"/>
    <tag k="ref:vcgi:esiteid" v="772193"/>
  </node>
  <node id="-1748" visible="true" lat="44.10375495" lon="-72.54845338">
    <tag k="addr:housenumber" v="LOT56"/>
    <tag k="addr:street" v="Vermont Route 14"/>
    <tag k="addr:state" v="VT"/>
    <tag k="ref:vcgi:esiteid" v="772194"/>
  </node>
  <node id="-1749" visible="true" lat="44.10384256" lon="-72.54853297">
    <tag k="addr:housenumber" v="LOT57"/>
    <tag k="addr:street" v="Vermont Route 14"/>
    <tag k="addr:state" v="VT"/>
    <tag k="ref:vcgi:esiteid" v="772195"/>
  </node>
  <node id="-1754" visible="true" lat="44.10165016" lon="-72.54884714">
    <tag k="addr:housenumber" v="LOT17"/>
    <tag k="addr:street" v="Vermont Route 14"/>
    <tag k="addr:state" v="VT"/>
    <tag k="ref:vcgi:esiteid" v="772200"/>
  </node>
  <node id="-1755" visible="true" lat="44.10157019" lon="-72.54888203">
    <tag k="addr:housenumber" v="LOT18"/>
    <tag k="addr:street" v="Vermont Route 14"/>
    <tag k="addr:state" v="VT"/>
    <tag k="ref:vcgi:esiteid" v="772201"/>
  </node>
  <node id="-1756" visible="true" lat="44.10166438" lon="-72.54823295">
    <tag k="addr:housenumber" v="LOT1"/>
    <tag k="addr:street" v="Vermont Route 14"/>
    <tag k="addr:state" v="VT"/>
    <tag k="ref:vcgi:esiteid" v="772202"/>
  </node>
  <node id="-1757" visible="true" lat="44.10159194" lon="-72.54828518">
    <tag k="addr:housenumber" v="LOT2"/>
    <tag k="addr:street" v="Vermont Route 14"/>
    <tag k="addr:state" v="VT"/>
    <tag k="ref:vcgi:esiteid" v="772203"/>
  </node>
  <node id="-1758" visible="true" lat="44.10149949" lon="-72.54833745">
    <tag k="addr:housenumber" v="LOT3"/>
    <tag k="addr:street" v="Vermont Route 14"/>
    <tag k="addr:state" v="VT"/>
    <tag k="ref:vcgi:esiteid" v="772204"/>
  </node>
  <node id="-1759" visible="true" lat="44.10142709" lon="-72.5484209">
    <tag k="addr:housenumber" v="LOT4"/>
    <tag k="addr:street" v="Vermont Route 14"/>
    <tag k="addr:state" v="VT"/>
    <tag k="ref:vcgi:esiteid" v="772205"/>
  </node>
  <node id="-1760" visible="true" lat="44.10135715" lon="-72.54848006">
    <tag k="addr:housenumber" v="LOT5"/>
    <tag k="addr:street" v="Vermont Route 14"/>
    <tag k="addr:state" v="VT"/>
    <tag k="ref:vcgi:esiteid" v="772206"/>
  </node>
  <node id="-1761" visible="true" lat="44.10126972" lon="-72.54853926">
    <tag k="addr:housenumber" v="LOT6"/>
    <tag k="addr:street" v="Vermont Route 14"/>
    <tag k="addr:state" v="VT"/>
    <tag k="ref:vcgi:esiteid" v="772207"/>
  </node>
  <node id="-1762" visible="true" lat="44.10118727" lon="-72.54859151">
    <tag k="addr:housenumber" v="LOT7"/>
    <tag k="addr:street" v="Vermont Route 14"/>
    <tag k="addr:state" v="VT"/>
    <tag k="ref:vcgi:esiteid" v="772208"/>
  </node>
  <node id="-1763" visible="true" lat="44.10107984" lon="-72.54865769">
    <tag k="addr:housenumber" v="LOT8"/>
    <tag k="addr:street" v="Vermont Route 14"/>
    <tag k="addr:state" v="VT"/>
    <tag k="ref:vcgi:esiteid" v="772209"/>
  </node>
  <node id="-1764" visible="true" lat="44.1010249" lon="-72.54871334">
    <tag k="addr:housenumber" v="LOT9"/>
    <tag k="addr:street" v="Vermont Route 14"/>
    <tag k="addr:state" v="VT"/>
    <tag k="ref:vcgi:esiteid" v="772210"/>
  </node>
  <node id="-1765" visible="true" lat="44.10092249" lon="-72.54878993">
    <tag k="addr:housenumber" v="LOT10"/>
    <tag k="addr:street" v="Vermont Route 14"/>
    <tag k="addr:state" v="VT"/>
    <tag k="ref:vcgi:esiteid" v="772211"/>
  </node>
  <node id="-1766" visible="true" lat="44.10082502" lon="-72.54882833">
    <tag k="addr:housenumber" v="LOT11"/>
    <tag k="addr:street" v="Vermont Route 14"/>
    <tag k="addr:state" v="VT"/>
    <tag k="ref:vcgi:esiteid" v="772212"/>
  </node>
  <node id="-1767" visible="true" lat="44.10073759" lon="-72.54888753">
    <tag k="addr:housenumber" v="LOT12"/>
    <tag k="addr:street" v="Vermont Route 14"/>
    <tag k="addr:state" v="VT"/>
    <tag k="ref:vcgi:esiteid" v="772213"/>
  </node>
  <node id="-1768" visible="true" lat="44.10084337" lon="-72.54949795">
    <tag k="addr:housenumber" v="LOT39"/>
    <tag k="addr:street" v="Vermont Route 14"/>
    <tag k="addr:state" v="VT"/>
    <tag k="ref:vcgi:esiteid" v="772214"/>
  </node>
  <node id="-1769" visible="true" lat="44.10075589" lon="-72.54952245">
    <tag k="addr:housenumber" v="LOT40"/>
    <tag k="addr:street" v="Vermont Route 14"/>
    <tag k="addr:state" v="VT"/>
    <tag k="ref:vcgi:esiteid" v="772215"/>
  </node>
  <node id="-1770" visible="true" lat="44.10066094" lon="-72.54957473">
    <tag k="addr:housenumber" v="LOT41"/>
    <tag k="addr:street" v="Vermont Route 14"/>
    <tag k="addr:state" v="VT"/>
    <tag k="ref:vcgi:esiteid" v="772216"/>
  </node>
  <node id="-1771" visible="true" lat="44.10056849" lon="-72.54962353">
    <tag k="addr:housenumber" v="LOT42"/>
    <tag k="addr:street" v="Vermont Route 14"/>
    <tag k="addr:state" v="VT"/>
    <tag k="ref:vcgi:esiteid" v="772217"/>
  </node>
  <node id="-1772" visible="true" lat="44.10049854" lon="-72.54966533">
    <tag k="addr:housenumber" v="LOT43"/>
    <tag k="addr:street" v="Vermont Route 14"/>
    <tag k="addr:state" v="VT"/>
    <tag k="ref:vcgi:esiteid" v="772218"/>
  </node>
  <node id="-1773" visible="true" lat="44.100406" lon="-72.54964821">
    <tag k="addr:housenumber" v="LOT44"/>
    <tag k="addr:street" v="Vermont Route 14"/>
    <tag k="addr:state" v="VT"/>
    <tag k="ref:vcgi:esiteid" v="772219"/>
  </node>
  <node id="-1774" visible="true" lat="44.10032844" lon="-72.54960676">
    <tag k="addr:housenumber" v="LOT45"/>
    <tag k="addr:street" v="Vermont Route 14"/>
    <tag k="addr:state" v="VT"/>
    <tag k="ref:vcgi:esiteid" v="772220"/>
  </node>
  <node id="-1775" visible="true" lat="44.10021578" lon="-72.54949253">
    <tag k="addr:housenumber" v="LOT46"/>
    <tag k="addr:street" v="Vermont Route 14"/>
    <tag k="addr:state" v="VT"/>
    <tag k="ref:vcgi:esiteid" v="772221"/>
  </node>
  <node id="-1776" visible="true" lat="44.10013568" lon="-72.54942333">
    <tag k="addr:housenumber" v="LOT47"/>
    <tag k="addr:street" v="Vermont Route 14"/>
    <tag k="addr:state" v="VT"/>
    <tag k="ref:vcgi:esiteid" v="772222"/>
  </node>
  <node id="-1777" visible="true" lat="44.1000607" lon="-72.54944433">
    <tag k="addr:housenumber" v="LOT48"/>
    <tag k="addr:street" v="Vermont Route 14"/>
    <tag k="addr:state" v="VT"/>
    <tag k="ref:vcgi:esiteid" v="772223"/>
  </node>
  <node id="-1778" visible="true" lat="44.09996563" lon="-72.54940293">
    <tag k="addr:housenumber" v="LOT49"/>
    <tag k="addr:street" v="Vermont Route 14"/>
    <tag k="addr:state" v="VT"/>
    <tag k="ref:vcgi:esiteid" v="772224"/>
  </node>
  <node id="-1779" visible="true" lat="44.09988563" lon="-72.54941006">
    <tag k="addr:housenumber" v="LOT50"/>
    <tag k="addr:street" v="Vermont Route 14"/>
    <tag k="addr:state" v="VT"/>
    <tag k="ref:vcgi:esiteid" v="772225"/>
  </node>
  <node id="-1780" visible="true" lat="44.09978558" lon="-72.54937908">
    <tag k="addr:housenumber" v="LOT51"/>
    <tag k="addr:street" v="Vermont Route 14"/>
    <tag k="addr:state" v="VT"/>
    <tag k="ref:vcgi:esiteid" v="772226"/>
  </node>
  <node id="-1781" visible="true" lat="44.10042302" lon="-72.5492665">
    <tag k="addr:housenumber" v="LOT36"/>
    <tag k="addr:street" v="Vermont Route 14"/>
    <tag k="addr:state" v="VT"/>
    <tag k="ref:vcgi:esiteid" v="772227"/>
  </node>
  <node id="-1782" visible="true" lat="44.10050063" lon="-72.54934264">
    <tag k="addr:housenumber" v="LOT37"/>
    <tag k="addr:street" v="Vermont Route 14"/>
    <tag k="addr:state" v="VT"/>
    <tag k="ref:vcgi:esiteid" v="772228"/>
  </node>
  <node id="-1783" visible="true" lat="44.10059319" lon="-72.54938059">
    <tag k="addr:housenumber" v="LOT38"/>
    <tag k="addr:street" v="Vermont Route 14"/>
    <tag k="addr:state" v="VT"/>
    <tag k="ref:vcgi:esiteid" v="772229"/>
  </node>
  <node id="-1784" visible="true" lat="44.1002928" lon="-72.54910027">
    <tag k="addr:housenumber" v="LOT15"/>
    <tag k="addr:street" v="Vermont Route 14"/>
    <tag k="addr:state" v="VT"/>
    <tag k="ref:vcgi:esiteid" v="772230"/>
  </node>
  <node id="-1785" visible="true" lat="44.10100046" lon="-72.54915753">
    <tag k="addr:housenumber" v="LOT24"/>
    <tag k="addr:street" v="Vermont Route 14"/>
    <tag k="addr:state" v="VT"/>
    <tag k="ref:vcgi:esiteid" v="772231"/>
  </node>
  <node id="-1786" visible="true" lat="44.1011004" lon="-72.54909483">
    <tag k="addr:housenumber" v="LOT23"/>
    <tag k="addr:street" v="Vermont Route 14"/>
    <tag k="addr:state" v="VT"/>
    <tag k="ref:vcgi:esiteid" v="772232"/>
  </node>
  <node id="-1787" visible="true" lat="44.10117788" lon="-72.54907036">
    <tag k="addr:housenumber" v="LOT22"/>
    <tag k="addr:street" v="Vermont Route 14"/>
    <tag k="addr:state" v="VT"/>
    <tag k="ref:vcgi:esiteid" v="772233"/>
  </node>
  <node id="-1788" visible="true" lat="44.10128036" lon="-72.54904235">
    <tag k="addr:housenumber" v="LOT21"/>
    <tag k="addr:street" v="Vermont Route 14"/>
    <tag k="addr:state" v="VT"/>
    <tag k="ref:vcgi:esiteid" v="772234"/>
  </node>
  <node id="-1789" visible="true" lat="44.10137283" lon="-72.54901437">
    <tag k="addr:housenumber" v="LOT20"/>
    <tag k="addr:street" v="Vermont Route 14"/>
    <tag k="addr:state" v="VT"/>
    <tag k="ref:vcgi:esiteid" v="772235"/>
  </node>
  <node id="-1790" visible="true" lat="44.10146777" lon="-72.54895515">
    <tag k="addr:housenumber" v="LOT19"/>
    <tag k="addr:street" v="Vermont Route 14"/>
    <tag k="addr:state" v="VT"/>
    <tag k="ref:vcgi:esiteid" v="772236"/>
  </node>
  <node id="-1791" visible="true" lat="44.10186496" lon="-72.54866966">
    <tag k="addr:housenumber" v="LOT16"/>
    <tag k="addr:street" v="Vermont Route 14"/>
    <tag k="addr:state" v="VT"/>
    <tag k="ref:vcgi:esiteid" v="772237"/>
  </node>
  <node id="-1794" visible="true" lat="44.10054266" lon="-72.54896434">
    <tag k="addr:housenumber" v="LOT14"/>
    <tag k="addr:street" v="Vermont Route 14"/>
    <tag k="addr:state" v="VT"/>
    <tag k="ref:vcgi:esiteid" v="772240"/>
  </node>
  <node id="-1795" visible="true" lat="44.10064766" lon="-72.54895715">
    <tag k="addr:housenumber" v="LOT13"/>
    <tag k="addr:street" v="Vermont Route 14"/>
    <tag k="addr:state" v="VT"/>
    <tag k="ref:vcgi:esiteid" v="772241"/>
  </node>
  <node id="-1796" visible="true" lat="44.10174325" lon="-72.5490247">
    <tag k="addr:housenumber" v="LOT25"/>
    <tag k="addr:street" v="Vermont Route 14"/>
    <tag k="addr:state" v="VT"/>
    <tag k="ref:vcgi:esiteid" v="772242"/>
  </node>
  <node id="-1797" visible="true" lat="44.10164837" lon="-72.54912555">
    <tag k="addr:housenumber" v="LOT26"/>
    <tag k="addr:street" v="Vermont Route 14"/>
    <tag k="addr:state" v="VT"/>
    <tag k="ref:vcgi:esiteid" v="772243"/>
  </node>
  <node id="-1798" visible="true" lat="44.10156843" lon="-72.54918473">
    <tag k="addr:housenumber" v="LOT27"/>
    <tag k="addr:street" v="Vermont Route 14"/>
    <tag k="addr:state" v="VT"/>
    <tag k="ref:vcgi:esiteid" v="772244"/>
  </node>
  <node id="-1799" visible="true" lat="44.1014885" lon="-72.54924392">
    <tag k="addr:housenumber" v="LOT28"/>
    <tag k="addr:street" v="Vermont Route 14"/>
    <tag k="addr:state" v="VT"/>
    <tag k="ref:vcgi:esiteid" v="772245"/>
  </node>
  <node id="-1800" visible="true" lat="44.10142853" lon="-72.54927876">
    <tag k="addr:housenumber" v="LOT29"/>
    <tag k="addr:street" v="Vermont Route 14"/>
    <tag k="addr:state" v="VT"/>
    <tag k="ref:vcgi:esiteid" v="772246"/>
  </node>
  <node id="-1801" visible="true" lat="44.10136606" lon="-72.54930667">
    <tag k="addr:housenumber" v="LOT30"/>
    <tag k="addr:street" v="Vermont Route 14"/>
    <tag k="addr:state" v="VT"/>
    <tag k="ref:vcgi:esiteid" v="772247"/>
  </node>
  <node id="-1802" visible="true" lat="44.10128857" lon="-72.54932768">
    <tag k="addr:housenumber" v="LOT31"/>
    <tag k="addr:street" v="Vermont Route 14"/>
    <tag k="addr:state" v="VT"/>
    <tag k="ref:vcgi:esiteid" v="772248"/>
  </node>
  <node id="-1803" visible="true" lat="44.10120357" lon="-72.54933135">
    <tag k="addr:housenumber" v="LOT32"/>
    <tag k="addr:street" v="Vermont Route 14"/>
    <tag k="addr:state" v="VT"/>
    <tag k="ref:vcgi:esiteid" v="772249"/>
  </node>
  <node id="-1804" visible="true" lat="44.10315998" lon="-72.54980375">
    <tag k="addr:housenumber" v="TENT1"/>
    <tag k="addr:street" v="Vermont Route 14"/>
    <tag k="addr:state" v="VT"/>
    <tag k="ref:vcgi:esiteid" v="772250"/>
  </node>
  <node id="-1805" visible="true" lat="44.10310075" lon="-72.55004348">
    <tag k="addr:housenumber" v="TENT6"/>
    <tag k="addr:street" v="Vermont Route 14"/>
    <tag k="addr:state" v="VT"/>
    <tag k="ref:vcgi:esiteid" v="772251"/>
  </node>
  <node id="-1806" visible="true" lat="44.10291279" lon="-72.54969695">
    <tag k="addr:housenumber" v="TENT2"/>
    <tag k="addr:street" v="Vermont Route 14"/>
    <tag k="addr:state" v="VT"/>
    <tag k="ref:vcgi:esiteid" v="772252"/>
  </node>
  <node id="-1807" visible="true" lat="44.10274613" lon="-72.54972213">
    <tag k="addr:housenumber" v="TENT3"/>
    <tag k="addr:street" v="Vermont Route 14"/>
    <tag k="addr:state" v="VT"/>
    <tag k="ref:vcgi:esiteid" v="772253"/>
  </node>
  <node id="-1808" visible="true" lat="44.1025855" lon="-72.54980101">
    <tag k="addr:housenumber" v="TENT4"/>
    <tag k="addr:street" v="Vermont Route 14"/>
    <tag k="addr:state" v="VT"/>
    <tag k="ref:vcgi:esiteid" v="772254"/>
  </node>
  <node id="-1809" visible="true" lat="44.10238343" lon="-72.55007">
    <tag k="addr:housenumber" v="TENT5"/>
    <tag k="addr:street" v="Vermont Route 14"/>
    <tag k="addr:state" v="VT"/>
    <tag k="ref:vcgi:esiteid" v="772255"/>
  </node>
  <node id="-1810" visible="true" lat="44.10290432" lon="-72.55006461">
    <tag k="addr:housenumber" v="TENT7"/>
    <tag k="addr:street" v="Vermont Route 14"/>
    <tag k="addr:state" v="VT"/>
    <tag k="ref:vcgi:esiteid" v="772256"/>
  </node>
  <node id="-1811" visible="true" lat="44.10269891" lon="-72.55004445">
    <tag k="addr:housenumber" v="TENT8"/>
    <tag k="addr:street" v="Vermont Route 14"/>
    <tag k="addr:state" v="VT"/>
    <tag k="ref:vcgi:esiteid" v="772257"/>
  </node>
  <node id="-1812" visible="true" lat="44.10258292" lon="-72.55011495">
    <tag k="addr:housenumber" v="TENT9"/>
    <tag k="addr:street" v="Vermont Route 14"/>
    <tag k="addr:state" v="VT"/>
    <tag k="ref:vcgi:esiteid" v="772258"/>
  </node>
  <node id="-1813" visible="true" lat="44.10251162" lon="-72.55022666">
    <tag k="addr:housenumber" v="TENT10"/>
    <tag k="addr:street" v="Vermont Route 14"/>
    <tag k="addr:state" v="VT"/>
    <tag k="ref:vcgi:esiteid" v="772259"/>
  </node>
  <node id="-1814" visible="true" lat="44.10387364" lon="-72.54805143">
    <tag k="addr:housenumber" v="CABIN1"/>
    <tag k="addr:street" v="Vermont Route 14"/>
    <tag k="addr:state" v="VT"/>
    <tag k="ref:vcgi:esiteid" v="772260"/>
  </node>
  <node id="-1815" visible="true" lat="44.10401636" lon="-72.5479255">
    <tag k="addr:housenumber" v="CABIN2"/>
    <tag k="addr:street" v="Vermont Route 14"/>
    <tag k="addr:state" v="VT"/>
    <tag k="ref:vcgi:esiteid" v="772261"/>
  </node>
  <node id="-1816" visible="true" lat="44.10380657" lon="-72.54774095">
    <tag k="addr:housenumber" v="CABIN3"/>
    <tag k="addr:street" v="Vermont Route 14"/>
    <tag k="addr:state" v="VT"/>
    <tag k="ref:vcgi:esiteid" v="772262"/>
  </node>
  <node id="-1817" visible="true" lat="44.10377992" lon="-72.54738411">
    <tag k="addr:housenumber" v="LEANTO1"/>
    <tag k="addr:street" v="Vermont Route 14"/>
    <tag k="addr:state" v="VT"/>
    <tag k="ref:vcgi:esiteid" v="772263"/>
  </node>
  <node id="-1818" visible="true" lat="44.10391782" lon="-72.54721523">
    <tag k="addr:housenumber" v="LEANTO2"/>
    <tag k="addr:street" v="Vermont Route 14"/>
    <tag k="addr:state" v="VT"/>
    <tag k="ref:vcgi:esiteid" v="772264"/>
  </node>
  <node id="-1819" visible="true" lat="44.10413427" lon="-72.54702303">
    <tag k="addr:housenumber" v="LEANTO3"/>
    <tag k="addr:street" v="Vermont Route 14"/>
    <tag k="addr:state" v="VT"/>
    <tag k="ref:vcgi:esiteid" v="772265"/>
  </node>
  <node id="-1820" visible="true" lat="44.12386711" lon="-72.49503583">
    <tag k="addr:housenumber" v="610"/>
    <tag k="addr:street" v="Baptist Street"/>
    <tag k="addr:state" v="VT"/>
    <tag k="ref:vcgi:esiteid" v="772538"/>
  </node>
</osm>
