<?xml version="1.0" encoding="UTF-8"?>
<osm version="0.6" generator="JOSM" upload="false">
  <node id="-421" visible="true" lat="44.1264953" lon="-72.53688846">
    <!-- multiple: "43 Circle Street, , VT" Multiple exact matches in OSM. -->
    <tag k="addr:housenumber" v="43"/>
    <tag k="addr:street" v="Circle Street"/>
    <tag k="addr:state" v="VT"/>
    <tag k="ref:vcgi:esiteid" v="287437"/>
  </node>
  <node id="-429" visible="true" lat="44.1262611" lon="-72.53125759">
    <!-- multiple: "120 Vesper Road, , VT" Multiple exact matches in OSM. -->
    <tag k="addr:housenumber" v="120"/>
    <tag k="addr:street" v="Vesper Road"/>
    <tag k="addr:state" v="VT"/>
    <tag k="ref:vcgi:esiteid" v="287445"/>
  </node>
  <node id="-433" visible="true" lat="44.12624627" lon="-72.53149093">
    <!-- multiple: "120 Vesper Road, , VT" Multiple exact matches in OSM. -->
    <tag k="addr:housenumber" v="120"/>
    <tag k="addr:street" v="Vesper Road"/>
    <tag k="addr:state" v="VT"/>
    <tag k="ref:vcgi:esiteid" v="287449"/>
  </node>
  <node id="-437" visible="true" lat="44.12633739" lon="-72.54669037">
    <!-- multiple: "120 Hebert Road, , VT" Multiple exact matches in OSM. -->
    <tag k="addr:housenumber" v="120"/>
    <tag k="addr:street" v="Hebert Road"/>
    <tag k="addr:state" v="VT"/>
    <tag k="ref:vcgi:esiteid" v="287453"/>
  </node>
  <node id="-531" visible="true" lat="44.12445647" lon="-72.54264329">
    <!-- multiple: "21 High Street, , VT" Multiple exact matches in OSM. -->
    <tag k="addr:housenumber" v="21"/>
    <tag k="addr:street" v="High Street"/>
    <tag k="addr:state" v="VT"/>
    <tag k="ref:vcgi:esiteid" v="287554"/>
  </node>
  <node id="-578" visible="true" lat="44.12360381" lon="-72.54589159">
    <!-- multiple: "100 Brush Hill Road, , VT" Multiple exact matches in OSM. -->
    <tag k="addr:housenumber" v="100"/>
    <tag k="addr:street" v="Brush Hill Road"/>
    <tag k="addr:state" v="VT"/>
    <tag k="ref:vcgi:esiteid" v="287607"/>
  </node>
  <node id="-590" visible="true" lat="44.12332345" lon="-72.54806162">
    <!-- multiple: "111 Brush Hill Road, , VT" Multiple exact matches in OSM. -->
    <tag k="addr:housenumber" v="111"/>
    <tag k="addr:street" v="Brush Hill Road"/>
    <tag k="addr:state" v="VT"/>
    <tag k="ref:vcgi:esiteid" v="287619"/>
  </node>
  <node id="-621" visible="true" lat="44.12244033" lon="-72.54222106">
    <!-- multiple: "50 Brook Street, , VT" Multiple exact matches in OSM. -->
    <tag k="addr:housenumber" v="50"/>
    <tag k="addr:street" v="Brook Street"/>
    <tag k="addr:state" v="VT"/>
    <tag k="ref:vcgi:esiteid" v="287654"/>
  </node>
  <node id="-625" visible="true" lat="44.12242925" lon="-72.5424725">
    <!-- multiple: "64 Brook Street, , VT" Multiple exact matches in OSM. -->
    <tag k="addr:housenumber" v="64"/>
    <tag k="addr:street" v="Brook Street"/>
    <tag k="addr:state" v="VT"/>
    <tag k="ref:vcgi:esiteid" v="287658"/>
  </node>
  <node id="-627" visible="true" lat="44.12241991" lon="-72.54284256">
    <!-- multiple: "84 Brook Street, , VT" Multiple exact matches in OSM. -->
    <tag k="addr:housenumber" v="84"/>
    <tag k="addr:street" v="Brook Street"/>
    <tag k="addr:state" v="VT"/>
    <tag k="ref:vcgi:esiteid" v="287660"/>
  </node>
  <node id="-755" visible="true" lat="44.11831609" lon="-72.53746347">
    <!-- multiple: "241 Business Center Road, , VT" Multiple exact matches in OSM. -->
    <tag k="addr:housenumber" v="241"/>
    <tag k="addr:street" v="Business Center Road"/>
    <tag k="addr:state" v="VT"/>
    <tag k="ref:vcgi:esiteid" v="287802"/>
  </node>
  <node id="-1213" visible="true" lat="44.11859917" lon="-72.53714123">
    <!-- multiple: "241 Business Center Road, , VT" Multiple exact matches in OSM. -->
    <tag k="addr:housenumber" v="241"/>
    <tag k="addr:street" v="Business Center Road"/>
    <tag k="addr:state" v="VT"/>
    <tag k="ref:vcgi:esiteid" v="288273"/>
  </node>
  <node id="-1262" visible="true" lat="44.1261924" lon="-72.51997518">
    <!-- multiple: "845 Graniteville Road, , VT" Multiple exact matches in OSM. -->
    <tag k="addr:housenumber" v="845"/>
    <tag k="addr:street" v="Graniteville Road"/>
    <tag k="addr:state" v="VT"/>
    <tag k="ref:vcgi:esiteid" v="288325"/>
  </node>
  <node id="-1463" visible="true" lat="44.13671055" lon="-72.46850193">
    <!-- multiple: "307 McCarthy Road, , VT" Multiple exact matches in OSM. -->
    <tag k="addr:housenumber" v="307"/>
    <tag k="addr:street" v="McCarthy Road"/>
    <tag k="addr:state" v="VT"/>
    <tag k="ref:vcgi:esiteid" v="340619"/>
  </node>
  <node id="-1469" visible="true" lat="44.13753262" lon="-72.47043808">
    <!-- multiple: "189 McCarthy Road, , VT" Multiple exact matches in OSM. -->
    <tag k="addr:housenumber" v="189"/>
    <tag k="addr:street" v="McCarthy Road"/>
    <tag k="addr:state" v="VT"/>
    <tag k="ref:vcgi:esiteid" v="342504"/>
  </node>
  <node id="-1470" visible="true" lat="44.13713807" lon="-72.46921118">
    <!-- multiple: "261 McCarthy Road, , VT" Multiple exact matches in OSM. -->
    <tag k="addr:housenumber" v="261"/>
    <tag k="addr:street" v="McCarthy Road"/>
    <tag k="addr:state" v="VT"/>
    <tag k="ref:vcgi:esiteid" v="342505"/>
  </node>
  <node id="-1641" visible="true" lat="44.11693796" lon="-72.4798372">
    <!-- multiple: "1509 Tower Road, , VT" Multiple exact matches in OSM. -->
    <tag k="addr:housenumber" v="1509"/>
    <tag k="addr:street" v="Tower Road"/>
    <tag k="addr:state" v="VT"/>
    <tag k="ref:vcgi:esiteid" v="700010"/>
  </node>
</osm>
