<?xml version="1.0" encoding="UTF-8"?>
<osm version="0.6" generator="JOSM" upload="false">
  <node id="-848" visible="true" lat="44.45824432" lon="-73.11457061">
    <!-- conflict: "201 O'Brien Court, Williston, VT" Fuzzy match to "201 Obrien Court, Williston, VT" -->
    <tag k="addr:city" v="Williston"/>
    <tag k="addr:housenumber" v="201"/>
    <tag k="addr:street" v="O'Brien Court"/>
    <tag k="addr:state" v="VT"/>
    <tag k="ref:vcgi:esiteid" v="289334"/>
  </node>
  <node id="-852" visible="true" lat="44.45821762" lon="-73.11389923">
    <!-- conflict: "200 O'Brien Court, Williston, VT" Fuzzy match to "200 Obrien Court, Williston, VT" -->
    <tag k="addr:city" v="Williston"/>
    <tag k="addr:housenumber" v="200"/>
    <tag k="addr:street" v="O'Brien Court"/>
    <tag k="addr:state" v="VT"/>
    <tag k="ref:vcgi:esiteid" v="289338"/>
  </node>
  <node id="-866" visible="true" lat="44.45799255" lon="-73.11367034">
    <!-- conflict: "186 O'Brien Court, Williston, VT" Fuzzy match to "186 Obrien Court, Williston, VT" -->
    <tag k="addr:city" v="Williston"/>
    <tag k="addr:housenumber" v="186"/>
    <tag k="addr:street" v="O'Brien Court"/>
    <tag k="addr:state" v="VT"/>
    <tag k="ref:vcgi:esiteid" v="289353"/>
  </node>
  <node id="-867" visible="true" lat="44.45796966" lon="-73.1148529">
    <!-- conflict: "183 O'Brien Court, Williston, VT" Fuzzy match to "183 Obrien Court, Williston, VT" -->
    <tag k="addr:city" v="Williston"/>
    <tag k="addr:housenumber" v="183"/>
    <tag k="addr:street" v="O'Brien Court"/>
    <tag k="addr:state" v="VT"/>
    <tag k="ref:vcgi:esiteid" v="289355"/>
  </node>
  <node id="-876" visible="true" lat="44.45774841" lon="-73.11373901">
    <!-- conflict: "156 O'Brien Court, Williston, VT" Fuzzy match to "156 Obrien Court, Williston, VT" -->
    <tag k="addr:city" v="Williston"/>
    <tag k="addr:housenumber" v="156"/>
    <tag k="addr:street" v="O'Brien Court"/>
    <tag k="addr:state" v="VT"/>
    <tag k="ref:vcgi:esiteid" v="289365"/>
  </node>
  <node id="-879" visible="true" lat="44.45768737" lon="-73.11483001">
    <!-- conflict: "161 O'Brien Court, Williston, VT" Fuzzy match to "161 Obrien Court, Williston, VT" -->
    <tag k="addr:city" v="Williston"/>
    <tag k="addr:housenumber" v="161"/>
    <tag k="addr:street" v="O'Brien Court"/>
    <tag k="addr:state" v="VT"/>
    <tag k="ref:vcgi:esiteid" v="289369"/>
  </node>
  <node id="-885" visible="true" lat="44.45746994" lon="-73.11371612">
    <!-- conflict: "122 O'Brien Court, Williston, VT" Fuzzy match to "122 Obrien Court, Williston, VT" -->
    <tag k="addr:city" v="Williston"/>
    <tag k="addr:housenumber" v="122"/>
    <tag k="addr:street" v="O'Brien Court"/>
    <tag k="addr:state" v="VT"/>
    <tag k="ref:vcgi:esiteid" v="289376"/>
  </node>
  <node id="-891" visible="true" lat="44.45739746" lon="-73.1148529">
    <!-- conflict: "127 O'Brien Court, Williston, VT" Fuzzy match to "127 Obrien Court, Williston, VT" -->
    <tag k="addr:city" v="Williston"/>
    <tag k="addr:housenumber" v="127"/>
    <tag k="addr:street" v="O'Brien Court"/>
    <tag k="addr:state" v="VT"/>
    <tag k="ref:vcgi:esiteid" v="289382"/>
  </node>
  <node id="-906" visible="true" lat="44.45710373" lon="-73.11456298">
    <!-- conflict: "119 O'Brien Court, Williston, VT" Fuzzy match to "119 Obrien Court, Williston, VT" -->
    <tag k="addr:city" v="Williston"/>
    <tag k="addr:housenumber" v="119"/>
    <tag k="addr:street" v="O'Brien Court"/>
    <tag k="addr:state" v="VT"/>
    <tag k="ref:vcgi:esiteid" v="289398"/>
  </node>
  <node id="-908" visible="true" lat="44.4569931" lon="-73.11421203">
    <!-- conflict: "109 O'Brien Court, Williston, VT" Fuzzy match to "109 Obrien Court, Williston, VT" -->
    <tag k="addr:city" v="Williston"/>
    <tag k="addr:housenumber" v="109"/>
    <tag k="addr:street" v="O'Brien Court"/>
    <tag k="addr:state" v="VT"/>
    <tag k="ref:vcgi:esiteid" v="289401"/>
  </node>
  <node id="-913" visible="true" lat="44.45690536" lon="-73.11386108">
    <!-- conflict: "97 O'Brien Court, Williston, VT" Fuzzy match to "97 Obrien Court, Williston, VT" -->
    <tag k="addr:city" v="Williston"/>
    <tag k="addr:housenumber" v="97"/>
    <tag k="addr:street" v="O'Brien Court"/>
    <tag k="addr:state" v="VT"/>
    <tag k="ref:vcgi:esiteid" v="289406"/>
  </node>
  <node id="-917" visible="true" lat="44.45684051" lon="-73.11312103">
    <!-- conflict: "59 O'Brien Court, Williston, VT" Fuzzy match to "59 Obrien Court, Williston, VT" -->
    <tag k="addr:city" v="Williston"/>
    <tag k="addr:housenumber" v="59"/>
    <tag k="addr:street" v="O'Brien Court"/>
    <tag k="addr:state" v="VT"/>
    <tag k="ref:vcgi:esiteid" v="289411"/>
  </node>
  <node id="-918" visible="true" lat="44.45680999" lon="-73.11345672">
    <!-- conflict: "77 O'Brien Court, Williston, VT" Fuzzy match to "77 Obrien Court, Williston, VT" -->
    <tag k="addr:city" v="Williston"/>
    <tag k="addr:housenumber" v="77"/>
    <tag k="addr:street" v="O'Brien Court"/>
    <tag k="addr:state" v="VT"/>
    <tag k="ref:vcgi:esiteid" v="289412"/>
  </node>
  <node id="-919" visible="true" lat="44.45680999" lon="-73.11278534">
    <!-- conflict: "43 O'Brien Court, Williston, VT" Fuzzy match to "43 Obrien Court, Williston, VT" -->
    <tag k="addr:city" v="Williston"/>
    <tag k="addr:housenumber" v="43"/>
    <tag k="addr:street" v="O'Brien Court"/>
    <tag k="addr:state" v="VT"/>
    <tag k="ref:vcgi:esiteid" v="289414"/>
  </node>
  <node id="-1905" visible="true" lat="44.43225123" lon="-73.12716659">
    <!-- conflict: "74 La Casse Lane, Williston, VT" Fuzzy match to "74 Lacasse Lane, Williston, VT" -->
    <tag k="addr:city" v="Williston"/>
    <tag k="addr:housenumber" v="74"/>
    <tag k="addr:street" v="La Casse Lane"/>
    <tag k="addr:state" v="VT"/>
    <tag k="ref:vcgi:esiteid" v="290686"/>
  </node>
  <node id="-2688" visible="true" lat="44.43069779" lon="-73.12675839">
    <!-- conflict: "136 La Casse Lane, Williston, VT" Fuzzy match to "136 Lacasse Lane, Williston, VT" -->
    <tag k="addr:city" v="Williston"/>
    <tag k="addr:housenumber" v="136"/>
    <tag k="addr:street" v="La Casse Lane"/>
    <tag k="addr:state" v="VT"/>
    <tag k="ref:vcgi:esiteid" v="291503"/>
  </node>
  <node id="-2766" visible="true" lat="44.46004789" lon="-73.09196792">
    <!-- conflict: "15 O'Neil Lane, Williston, VT" Fuzzy match to "15 Oneil Lane, Williston, VT" -->
    <tag k="addr:city" v="Williston"/>
    <tag k="addr:housenumber" v="15"/>
    <tag k="addr:street" v="O'Neil Lane"/>
    <tag k="addr:state" v="VT"/>
    <tag k="ref:vcgi:esiteid" v="291586"/>
  </node>
  <node id="-2767" visible="true" lat="44.46010253" lon="-73.09167188">
    <!-- conflict: "25 O'Neil Lane, Williston, VT" Fuzzy match to "25 Oneil Lane, Williston, VT" -->
    <tag k="addr:city" v="Williston"/>
    <tag k="addr:housenumber" v="25"/>
    <tag k="addr:street" v="O'Neil Lane"/>
    <tag k="addr:state" v="VT"/>
    <tag k="ref:vcgi:esiteid" v="291587"/>
  </node>
  <node id="-2768" visible="true" lat="44.46014173" lon="-73.0912793">
    <!-- conflict: "41 O'Neil Lane, Williston, VT" Fuzzy match to "41 Oneil Lane, Williston, VT" -->
    <tag k="addr:city" v="Williston"/>
    <tag k="addr:housenumber" v="41"/>
    <tag k="addr:street" v="O'Neil Lane"/>
    <tag k="addr:state" v="VT"/>
    <tag k="ref:vcgi:esiteid" v="291588"/>
  </node>
  <node id="-2769" visible="true" lat="44.45966391" lon="-73.09125965">
    <!-- conflict: "44 O'Neil Lane, Williston, VT" Fuzzy match to "44 Oneil Lane, Williston, VT" -->
    <tag k="addr:city" v="Williston"/>
    <tag k="addr:housenumber" v="44"/>
    <tag k="addr:street" v="O'Neil Lane"/>
    <tag k="addr:state" v="VT"/>
    <tag k="ref:vcgi:esiteid" v="291589"/>
  </node>
  <node id="-2770" visible="true" lat="44.45966563" lon="-73.09092601">
    <!-- conflict: "56 O'Neil Lane, Williston, VT" Fuzzy match to "56 Oneil Lane, Williston, VT" -->
    <tag k="addr:city" v="Williston"/>
    <tag k="addr:housenumber" v="56"/>
    <tag k="addr:street" v="O'Neil Lane"/>
    <tag k="addr:state" v="VT"/>
    <tag k="ref:vcgi:esiteid" v="291590"/>
  </node>
  <node id="-2771" visible="true" lat="44.45976252" lon="-73.09062429">
    <!-- conflict: "66 O'Neil Lane, Williston, VT" Fuzzy match to "66 Oneil Lane, Williston, VT" -->
    <tag k="addr:city" v="Williston"/>
    <tag k="addr:housenumber" v="66"/>
    <tag k="addr:street" v="O'Neil Lane"/>
    <tag k="addr:state" v="VT"/>
    <tag k="ref:vcgi:esiteid" v="291591"/>
  </node>
  <node id="-2772" visible="true" lat="44.45993357" lon="-73.09037522">
    <!-- conflict: "76 O'Neil Lane, Williston, VT" Fuzzy match to "76 Oneil Lane, Williston, VT" -->
    <tag k="addr:city" v="Williston"/>
    <tag k="addr:housenumber" v="76"/>
    <tag k="addr:street" v="O'Neil Lane"/>
    <tag k="addr:state" v="VT"/>
    <tag k="ref:vcgi:esiteid" v="291592"/>
  </node>
  <node id="-2773" visible="true" lat="44.46011109" lon="-73.09016495">
    <!-- conflict: "82 O'Neil Lane, Williston, VT" Fuzzy match to "82 Oneil Lane, Williston, VT" -->
    <tag k="addr:city" v="Williston"/>
    <tag k="addr:housenumber" v="82"/>
    <tag k="addr:street" v="O'Neil Lane"/>
    <tag k="addr:state" v="VT"/>
    <tag k="ref:vcgi:esiteid" v="291593"/>
  </node>
  <node id="-2850" visible="true" lat="44.45968834" lon="-73.0916677">
    <!-- conflict: "24 O'Neil Lane, Williston, VT" Fuzzy match to "24 Oneil Lane, Williston, VT" -->
    <tag k="addr:city" v="Williston"/>
    <tag k="addr:housenumber" v="24"/>
    <tag k="addr:street" v="O'Neil Lane"/>
    <tag k="addr:state" v="VT"/>
    <tag k="ref:vcgi:esiteid" v="291687"/>
  </node>
  <node id="-2917" visible="true" lat="44.45727961" lon="-73.11277786">
    <!-- conflict: "54 O'Brien Court, Williston, VT" Fuzzy match to "54 Obrien Court, Williston, VT" -->
    <tag k="addr:city" v="Williston"/>
    <tag k="addr:housenumber" v="54"/>
    <tag k="addr:street" v="O'Brien Court"/>
    <tag k="addr:state" v="VT"/>
    <tag k="ref:vcgi:esiteid" v="291758"/>
  </node>
  <node id="-4282" visible="true" lat="44.37345614" lon="-73.09324543">
    <!-- conflict: "5060 Oak Hill Road, Williston, VT" Fuzzy match to "5060 Oak Hill Road, Saint George, VT" -->
    <tag k="addr:city" v="Williston"/>
    <tag k="addr:housenumber" v="5060"/>
    <tag k="addr:street" v="Oak Hill Road"/>
    <tag k="addr:state" v="VT"/>
    <tag k="ref:vcgi:esiteid" v="450937"/>
  </node>
  <node id="-4593" visible="true" lat="44.42931936" lon="-73.12646122">
    <!-- conflict: "222 La Casse Lane, Williston, VT" Fuzzy match to "222 Lacasse Lane, Williston, VT" -->
    <tag k="addr:city" v="Williston"/>
    <tag k="addr:housenumber" v="222"/>
    <tag k="addr:street" v="La Casse Lane"/>
    <tag k="addr:state" v="VT"/>
    <tag k="ref:vcgi:esiteid" v="762293"/>
  </node>
</osm>
