<?xml version="1.0" encoding="UTF-8"?>
<osm version="0.6" generator="JOSM" upload="false">
  <node id="-411" visible="true" lat="44.49822737" lon="-73.17434248">
    <!-- conflict: "103 Lapointe Street, Winooski, VT" Fuzzy match to "103 LaPointe Street, Winooski, VT" -->
    <tag k="addr:city" v="Winooski"/>
    <tag k="addr:housenumber" v="103"/>
    <tag k="addr:street" v="Lapointe Street"/>
    <tag k="addr:state" v="VT"/>
    <tag k="ref:vcgi:esiteid" v="298894"/>
  </node>
  <node id="-412" visible="true" lat="44.49795532" lon="-73.17435371">
    <!-- conflict: "91 Lapointe Street, Winooski, VT" Fuzzy match to "91 LaPointe Street, Winooski, VT" -->
    <tag k="addr:city" v="Winooski"/>
    <tag k="addr:housenumber" v="91"/>
    <tag k="addr:street" v="Lapointe Street"/>
    <tag k="addr:state" v="VT"/>
    <tag k="ref:vcgi:esiteid" v="298895"/>
  </node>
  <node id="-413" visible="true" lat="44.49769348" lon="-73.17433971">
    <!-- conflict: "81 Lapointe Street, Winooski, VT" Fuzzy match to "81 LaPointe Street, Winooski, VT" -->
    <tag k="addr:city" v="Winooski"/>
    <tag k="addr:housenumber" v="81"/>
    <tag k="addr:street" v="Lapointe Street"/>
    <tag k="addr:state" v="VT"/>
    <tag k="ref:vcgi:esiteid" v="298896"/>
  </node>
  <node id="-414" visible="true" lat="44.49744465" lon="-73.1743405">
    <!-- conflict: "71 Lapointe Street, Winooski, VT" Fuzzy match to "71 LaPointe Street, Winooski, VT" -->
    <tag k="addr:city" v="Winooski"/>
    <tag k="addr:housenumber" v="71"/>
    <tag k="addr:street" v="Lapointe Street"/>
    <tag k="addr:state" v="VT"/>
    <tag k="ref:vcgi:esiteid" v="298897"/>
  </node>
  <node id="-416" visible="true" lat="44.49793395" lon="-73.17483813">
    <!-- conflict: "90 Lapointe Street, Winooski, VT" Fuzzy match to "90 LaPointe Street, Winooski, VT" -->
    <tag k="addr:city" v="Winooski"/>
    <tag k="addr:housenumber" v="90"/>
    <tag k="addr:street" v="Lapointe Street"/>
    <tag k="addr:state" v="VT"/>
    <tag k="ref:vcgi:esiteid" v="298899"/>
  </node>
  <node id="-417" visible="true" lat="44.49767212" lon="-73.1748518">
    <!-- conflict: "80 Lapointe Street, Winooski, VT" Fuzzy match to "80 LaPointe Street, Winooski, VT" -->
    <tag k="addr:city" v="Winooski"/>
    <tag k="addr:housenumber" v="80"/>
    <tag k="addr:street" v="Lapointe Street"/>
    <tag k="addr:state" v="VT"/>
    <tag k="ref:vcgi:esiteid" v="298900"/>
  </node>
  <node id="-418" visible="true" lat="44.49738152" lon="-73.17483015">
    <!-- conflict: "70 Lapointe Street, Winooski, VT" Fuzzy match to "70 LaPointe Street, Winooski, VT" -->
    <tag k="addr:city" v="Winooski"/>
    <tag k="addr:housenumber" v="70"/>
    <tag k="addr:street" v="Lapointe Street"/>
    <tag k="addr:state" v="VT"/>
    <tag k="ref:vcgi:esiteid" v="298901"/>
  </node>
  <node id="-419" visible="true" lat="44.4970647" lon="-73.17481186">
    <!-- conflict: "60 Lapointe Street, Winooski, VT" Fuzzy match to "60 LaPointe Street, Winooski, VT" -->
    <tag k="addr:city" v="Winooski"/>
    <tag k="addr:housenumber" v="60"/>
    <tag k="addr:street" v="Lapointe Street"/>
    <tag k="addr:state" v="VT"/>
    <tag k="ref:vcgi:esiteid" v="298902"/>
  </node>
  <node id="-420" visible="true" lat="44.49678177" lon="-73.17479157">
    <!-- conflict: "50 Lapointe Street, Winooski, VT" Fuzzy match to "50 LaPointe Street, Winooski, VT" -->
    <tag k="addr:city" v="Winooski"/>
    <tag k="addr:housenumber" v="50"/>
    <tag k="addr:street" v="Lapointe Street"/>
    <tag k="addr:state" v="VT"/>
    <tag k="ref:vcgi:esiteid" v="298903"/>
  </node>
  <node id="-427" visible="true" lat="44.4962321" lon="-73.17431555">
    <!-- conflict: "19 Lapointe Street, Winooski, VT" Fuzzy match to "19 LaPointe Street, Winooski, VT" -->
    <tag k="addr:city" v="Winooski"/>
    <tag k="addr:housenumber" v="19"/>
    <tag k="addr:street" v="Lapointe Street"/>
    <tag k="addr:state" v="VT"/>
    <tag k="ref:vcgi:esiteid" v="298910"/>
  </node>
  <node id="-428" visible="true" lat="44.49590481" lon="-73.17429714">
    <!-- conflict: "15 Lapointe Street, Winooski, VT" Fuzzy match to "15 LaPointe Street, Winooski, VT" -->
    <tag k="addr:city" v="Winooski"/>
    <tag k="addr:housenumber" v="15"/>
    <tag k="addr:street" v="Lapointe Street"/>
    <tag k="addr:state" v="VT"/>
    <tag k="ref:vcgi:esiteid" v="298911"/>
  </node>
  <node id="-429" visible="true" lat="44.49571098" lon="-73.17429856">
    <!-- conflict: "13 Lapointe Street, Winooski, VT" Fuzzy match to "13 LaPointe Street, Winooski, VT" -->
    <tag k="addr:city" v="Winooski"/>
    <tag k="addr:housenumber" v="13"/>
    <tag k="addr:street" v="Lapointe Street"/>
    <tag k="addr:state" v="VT"/>
    <tag k="ref:vcgi:esiteid" v="298912"/>
  </node>
  <node id="-430" visible="true" lat="44.4955723" lon="-73.17427501">
    <!-- conflict: "11 Lapointe Street, Winooski, VT" Fuzzy match to "11 LaPointe Street, Winooski, VT" -->
    <tag k="addr:city" v="Winooski"/>
    <tag k="addr:housenumber" v="11"/>
    <tag k="addr:street" v="Lapointe Street"/>
    <tag k="addr:state" v="VT"/>
    <tag k="ref:vcgi:esiteid" v="298913"/>
  </node>
  <node id="-431" visible="true" lat="44.49542039" lon="-73.17427326">
    <!-- conflict: "9 Lapointe Street, Winooski, VT" Fuzzy match to "9 LaPointe Street, Winooski, VT" -->
    <tag k="addr:city" v="Winooski"/>
    <tag k="addr:housenumber" v="9"/>
    <tag k="addr:street" v="Lapointe Street"/>
    <tag k="addr:state" v="VT"/>
    <tag k="ref:vcgi:esiteid" v="298914"/>
  </node>
  <node id="-432" visible="true" lat="44.49604852" lon="-73.17476981">
    <!-- conflict: "48 Lapointe Street, Winooski, VT" Fuzzy match to "48 LaPointe Street, Winooski, VT" -->
    <tag k="addr:city" v="Winooski"/>
    <tag k="addr:housenumber" v="48"/>
    <tag k="addr:street" v="Lapointe Street"/>
    <tag k="addr:state" v="VT"/>
    <tag k="ref:vcgi:esiteid" v="298915"/>
  </node>
  <node id="-433" visible="true" lat="44.49587059" lon="-73.17476881">
    <!-- conflict: "12 Lapointe Street, Winooski, VT" Fuzzy match to "12 LaPointe Street, Winooski, VT" -->
    <tag k="addr:city" v="Winooski"/>
    <tag k="addr:housenumber" v="12"/>
    <tag k="addr:street" v="Lapointe Street"/>
    <tag k="addr:state" v="VT"/>
    <tag k="ref:vcgi:esiteid" v="298916"/>
  </node>
  <node id="-434" visible="true" lat="44.49564815" lon="-73.17473697">
    <!-- conflict: "10 Lapointe Street, Winooski, VT" Fuzzy match to "10 LaPointe Street, Winooski, VT" -->
    <tag k="addr:city" v="Winooski"/>
    <tag k="addr:housenumber" v="10"/>
    <tag k="addr:street" v="Lapointe Street"/>
    <tag k="addr:state" v="VT"/>
    <tag k="ref:vcgi:esiteid" v="298917"/>
  </node>
  <node id="-439" visible="true" lat="44.4950562" lon="-73.17426601">
    <!-- conflict: "7 Lapointe Street, Winooski, VT" Fuzzy match to "7 LaPointe Street, Winooski, VT" -->
    <tag k="addr:city" v="Winooski"/>
    <tag k="addr:housenumber" v="7"/>
    <tag k="addr:street" v="Lapointe Street"/>
    <tag k="addr:state" v="VT"/>
    <tag k="ref:vcgi:esiteid" v="298922"/>
  </node>
  <node id="-440" visible="true" lat="44.49487488" lon="-73.17426562">
    <!-- conflict: "5 Lapointe Street, Winooski, VT" Fuzzy match to "5 LaPointe Street, Winooski, VT" -->
    <tag k="addr:city" v="Winooski"/>
    <tag k="addr:housenumber" v="5"/>
    <tag k="addr:street" v="Lapointe Street"/>
    <tag k="addr:state" v="VT"/>
    <tag k="ref:vcgi:esiteid" v="298923"/>
  </node>
  <node id="-441" visible="true" lat="44.49465921" lon="-73.17425169">
    <!-- conflict: "3 Lapointe Street, Winooski, VT" Fuzzy match to "3 LaPointe Street, Winooski, VT" -->
    <tag k="addr:city" v="Winooski"/>
    <tag k="addr:housenumber" v="3"/>
    <tag k="addr:street" v="Lapointe Street"/>
    <tag k="addr:state" v="VT"/>
    <tag k="ref:vcgi:esiteid" v="298924"/>
  </node>
  <node id="-445" visible="true" lat="44.494644" lon="-73.17471369">
    <!-- conflict: "2 Lapointe Street, Winooski, VT" Fuzzy match to "2 LaPointe Street, Winooski, VT" -->
    <tag k="addr:city" v="Winooski"/>
    <tag k="addr:housenumber" v="2"/>
    <tag k="addr:street" v="Lapointe Street"/>
    <tag k="addr:state" v="VT"/>
    <tag k="ref:vcgi:esiteid" v="298928"/>
  </node>
  <node id="-446" visible="true" lat="44.49482564" lon="-73.17474199">
    <!-- conflict: "4 Lapointe Street, Winooski, VT" Fuzzy match to "4 LaPointe Street, Winooski, VT" -->
    <tag k="addr:city" v="Winooski"/>
    <tag k="addr:housenumber" v="4"/>
    <tag k="addr:street" v="Lapointe Street"/>
    <tag k="addr:state" v="VT"/>
    <tag k="ref:vcgi:esiteid" v="298929"/>
  </node>
  <node id="-1739" visible="true" lat="44.4960568" lon="-73.17428425">
    <!-- conflict: "17 Lapointe Street, Winooski, VT" Fuzzy match to "17 LaPointe Street, Winooski, VT" -->
    <tag k="addr:city" v="Winooski"/>
    <tag k="addr:housenumber" v="17"/>
    <tag k="addr:street" v="Lapointe Street"/>
    <tag k="addr:state" v="VT"/>
    <tag k="ref:vcgi:esiteid" v="300387"/>
  </node>
  <node id="-1741" visible="true" lat="44.49697578" lon="-73.17434608">
    <!-- conflict: "51 Lapointe Street, Winooski, VT" Fuzzy match to "51 LaPointe Street, Winooski, VT" -->
    <tag k="addr:city" v="Winooski"/>
    <tag k="addr:housenumber" v="51"/>
    <tag k="addr:street" v="Lapointe Street"/>
    <tag k="addr:state" v="VT"/>
    <tag k="ref:vcgi:esiteid" v="300391"/>
  </node>
  <node id="-1742" visible="true" lat="44.49719333" lon="-73.17431931">
    <!-- conflict: "61 Lapointe Street, Winooski, VT" Fuzzy match to "61 LaPointe Street, Winooski, VT" -->
    <tag k="addr:city" v="Winooski"/>
    <tag k="addr:housenumber" v="61"/>
    <tag k="addr:street" v="Lapointe Street"/>
    <tag k="addr:state" v="VT"/>
    <tag k="ref:vcgi:esiteid" v="300392"/>
  </node>
  <node id="-1891" visible="true" lat="44.49666714" lon="-73.17432345">
    <!-- conflict: "39 Lapointe Street, Winooski, VT" Fuzzy match to "39 LaPointe Street, Winooski, VT" -->
    <tag k="addr:city" v="Winooski"/>
    <tag k="addr:housenumber" v="39"/>
    <tag k="addr:street" v="Lapointe Street"/>
    <tag k="addr:state" v="VT"/>
    <tag k="ref:vcgi:esiteid" v="343961"/>
  </node>
  <node id="-1974" visible="true" lat="44.49453791" lon="-73.1818276">
    <!-- conflict: "9 Gabes Way, Winooski, VT" No match in OSM, but a different address exists <5m away: "8 1/2 Franklin Street, , " -->
    <tag k="addr:city" v="Winooski"/>
    <tag k="addr:housenumber" v="9"/>
    <tag k="addr:street" v="Gabes Way"/>
    <tag k="addr:state" v="VT"/>
    <tag k="ref:vcgi:esiteid" v="772502"/>
  </node>
  <node id="-1975" visible="true" lat="44.49456446" lon="-73.18188188">
    <!-- conflict: "13 Gabes Way, Winooski, VT" No match in OSM, but a different address exists <5m away: "8 1/2 Franklin Street, , " -->
    <tag k="addr:city" v="Winooski"/>
    <tag k="addr:housenumber" v="13"/>
    <tag k="addr:street" v="Gabes Way"/>
    <tag k="addr:state" v="VT"/>
    <tag k="ref:vcgi:esiteid" v="772503"/>
  </node>
</osm>
